<?xml version="1.0" encoding="UTF-8"?>
<kml xmlns="http://www.opengis.net/kml/2.2"><Document><name>園區其他</name><description>原「位置不明」層，已全部定位。名稱不要改。</description>
<Placemark><name>園-01 三爪金龍</name><Point><coordinates>121.5097110,25.0322924,0</coordinates></Point></Placemark>
<Placemark><name>園-02 南台灣山芙蓉</name><Point><coordinates>121.5092750,25.0321891,0</coordinates></Point></Placemark>
<Placemark><name>園-03 台灣山芙蓉</name><Point><coordinates>121.5093071,25.0321988,0</coordinates></Point></Placemark>
<Placemark><name>園-05 海芋</name><Point><coordinates>121.5100794,25.0327067,0</coordinates></Point></Placemark>
<Placemark><name>園-07 仙客來</name><Point><coordinates>121.5101047,25.0326739,0</coordinates></Point></Placemark>
<Placemark><name>園-08 小蓳菜</name><Point><coordinates>121.5090277,25.0316909,0</coordinates></Point></Placemark>
<Placemark><name>園-09 金魚草</name><Point><coordinates>121.5100830,25.0326581,0</coordinates></Point></Placemark>
<Placemark><name>園-10 台灣油杉</name><Point><coordinates>121.5103940,25.0316799,0</coordinates></Point></Placemark>
<Placemark><name>園-12 楊梅</name><Point><coordinates>121.5115148,25.0319924,0</coordinates></Point></Placemark>
<Placemark><name>園-13 藍眼菊</name><Point><coordinates>121.5100301,25.0327009,0</coordinates></Point></Placemark>
<Placemark><name>園-14 蜀椒</name><Point><coordinates>121.5105329,25.0323290,0</coordinates></Point></Placemark>
<Placemark><name>園-15 賴比瑞亞咖啡</name><Point><coordinates>121.5090213,25.0318478,0</coordinates></Point></Placemark>
<Placemark><name>園-16 凹葉鈴木</name><Point><coordinates>121.5091312,25.0321662,0</coordinates></Point></Placemark>
<Placemark><name>園-18 蘭嶼羅漢松</name><Point><coordinates>121.5110957,25.0324518,0</coordinates></Point></Placemark>
<Placemark><name>園-20 五彩鳳梨</name><Point><coordinates>121.5098267,25.0326170,0</coordinates></Point></Placemark>
<Placemark><name>園-21 扁櫻桃</name><Point><coordinates>121.5099688,25.0326498,0</coordinates></Point></Placemark>
<Placemark><name>園-22 林下薹</name><Point><coordinates>121.5088607,25.0312612,0</coordinates></Point></Placemark>
<Placemark><name>園-23 玉山紫金牛</name><Point><coordinates>121.5102674,25.0327582,0</coordinates></Point></Placemark>
<Placemark><name>園-24 酸味秋海棠</name><Point><coordinates>121.5098945,25.0327096,0</coordinates></Point></Placemark>
<Placemark><name>園-25 倒地蜈蚣</name><Point><coordinates>121.5088456,25.0313729,0</coordinates></Point></Placemark>
<Placemark><name>園-26 心碎彩葉鳳梨</name><Point><coordinates>121.5098567,25.0326306,0</coordinates></Point></Placemark>
<Placemark><name>園-27 紫金牛</name><Point><coordinates>121.5082701,25.0317946,0</coordinates></Point></Placemark>
<Placemark><name>園-28 棉棗兒</name><Point><coordinates>121.5089459,25.0313365,0</coordinates></Point></Placemark>
<Placemark><name>園-29 藍晶花</name><Point><coordinates>121.5098724,25.0326816,0</coordinates></Point></Placemark>
<Placemark><name>園-30 紫花鳳梨</name><Point><coordinates>121.5098495,25.0326610,0</coordinates></Point></Placemark>
<Placemark><name>園-31 細葉雪茄花</name><Point><coordinates>121.5100197,25.0326160,0</coordinates></Point></Placemark>
<Placemark><name>園-32 長距根節蘭</name><Point><coordinates>121.5106444,25.0336406,0</coordinates></Point></Placemark>
<Placemark><name>園-33 印度金鈕釦</name><Point><coordinates>121.5099523,25.0325920,0</coordinates></Point></Placemark>
<Placemark><name>園-34 台灣欒樹</name><Point><coordinates>121.5103599,25.0326491,0</coordinates></Point></Placemark>
<Placemark><name>園-35 天使花</name><Point><coordinates>121.5099869,25.0326150,0</coordinates></Point></Placemark>
<Placemark><name>園-36 木蝴蝶</name><Point><coordinates>121.5093699,25.0321472,0</coordinates></Point></Placemark>
<Placemark><name>園-37 鐵雨傘</name><Point><coordinates>121.5098123,25.0324838,0</coordinates></Point></Placemark>
<Placemark><name>園-39 圓葉布勒德藤</name><Point><coordinates>121.5089270,25.0313720,0</coordinates></Point></Placemark>
<Placemark><name>園-40 細葉結縷草</name><Point><coordinates>121.5099072,25.0324875,0</coordinates></Point></Placemark>
<Placemark><name>園-42 彩葉草</name><Point><coordinates>121.5100664,25.0326614,0</coordinates></Point></Placemark>
<Placemark><name>園-43 散花山螞蝗</name><Point><coordinates>121.5090417,25.0317039,0</coordinates></Point></Placemark>
<Placemark><name>園-44 柳葉水蓑衣</name><Point><coordinates>121.5090563,25.0316104,0</coordinates></Point></Placemark>
<Placemark><name>園-45 越橘葉蔓榕</name><Point><coordinates>121.5089046,25.0312628,0</coordinates></Point></Placemark>
<Placemark><name>園-47 六倍利</name><Point><coordinates>121.5100417,25.0326323,0</coordinates></Point></Placemark>
<Placemark><name>園-48 新幾內亞鳳仙花</name><Point><coordinates>121.5100107,25.0327720,0</coordinates></Point></Placemark>
<Placemark><name>園-50 醉蝶花</name><Point><coordinates>121.5099796,25.0325898,0</coordinates></Point></Placemark>
</Document></kml>