<?xml version="1.0" encoding="UTF-8"?>
<kml xmlns="http://www.opengis.net/kml/2.2"><Document><name>第1張 花點</name><description>周邊、室內與既有花點合併為一層。名稱不要改。</description>
<Placemark><name>舟後-13 蘭嶼柿</name><Point><coordinates>121.5093830,25.0331298,0</coordinates></Point></Placemark>
<Placemark><name>舟後-16 類雛菊飛蓬</name><Point><coordinates>121.5095385,25.0331346,0</coordinates></Point></Placemark>
<Placemark><name>舟後-22 牙買加薄荷</name><Point><coordinates>121.5091172,25.0330690,0</coordinates></Point></Placemark>
<Placemark><name>舟後-23 白鶴靈芝</name><Point><coordinates>121.5091144,25.0330046,0</coordinates></Point></Placemark>
<Placemark><name>舟後-28 台灣海桐</name><Point><coordinates>121.5092377,25.0330933,0</coordinates></Point></Placemark>
<Placemark><name>舟後-33 柳葉馬鞭草</name><Point><coordinates>121.5094574,25.0328868,0</coordinates></Point></Placemark>
<Placemark><name>舟後-38 矮齒葉冷水麻</name><Point><coordinates>121.5096933,25.0331334,0</coordinates></Point></Placemark>
<Placemark><name>舟後-40 美羅勒</name><Point><coordinates>121.5090964,25.0330715,0</coordinates></Point></Placemark>
<Placemark><name>舟後-41 苦滇菜</name><Point><coordinates>121.5094812,25.0329135,0</coordinates></Point></Placemark>
<Placemark><name>舟後-43 銅錢草</name><Point><coordinates>121.5094299,25.0330850,0</coordinates></Point></Placemark>
<Placemark><name>舟後-46 克氏半邊蓮</name><Point><coordinates>121.5097691,25.0331300,0</coordinates></Point></Placemark>
<Placemark><name>舟後-47 台灣佛甲草</name><Point><coordinates>121.5092326,25.0329660,0</coordinates></Point></Placemark>
<Placemark><name>舟後-48 哈瓦那辣椒</name><Point><coordinates>121.5094792,25.0331422,0</coordinates></Point></Placemark>
<Placemark><name>舟後-50 帝皇烏蘭</name><Point><coordinates>121.5093410,25.0330863,0</coordinates></Point></Placemark>
<Placemark><name>舟後-51 月橘</name><Point><coordinates>121.5095890,25.0331507,0</coordinates></Point></Placemark>
<Placemark><name>舟後-54 毛蟲婆婆納</name><Point><coordinates>121.5091664,25.0330936,0</coordinates></Point></Placemark>
<Placemark><name>舟後-55 玫瑰麒麟</name><Point><coordinates>121.5091086,25.0330583,0</coordinates></Point></Placemark>
<Placemark><name>舟後-56 益母草</name><Point><coordinates>121.5092118,25.0330863,0</coordinates></Point></Placemark>
<Placemark><name>舟後-57 腺花桑葉麻</name><Point><coordinates>121.5097481,25.0331312,0</coordinates></Point></Placemark>
<Placemark><name>舟後-58 西洋接骨木</name><Point><coordinates>121.5091979,25.0331314,0</coordinates></Point></Placemark>
<Placemark><name>舟後-59 青剛櫟</name><Point><coordinates>121.5096122,25.0331120,0</coordinates></Point></Placemark>
<Placemark><name>舟後-60 鵝鑾鼻決明</name><Point><coordinates>121.5092527,25.0329686,0</coordinates></Point></Placemark>
<Placemark><name>舟後-61 鵝鑾鼻野百合</name><Point><coordinates>121.5092177,25.0329650,0</coordinates></Point></Placemark>
<Placemark><name>舟後-62 假蒟</name><Point><coordinates>121.5092203,25.0331035,0</coordinates></Point></Placemark>
<Placemark><name>舟後-63 圓錐花遠志</name><Point><coordinates>121.5095782,25.0328969,0</coordinates></Point></Placemark>
<Placemark><name>舟後-65 蘇氏鷗蔓</name><Point><coordinates>121.5092375,25.0329832,0</coordinates></Point></Placemark>
<Placemark><name>舟後-68 裂葉昭和草</name><Point><coordinates>121.5096839,25.0330999,0</coordinates></Point></Placemark>
<Placemark><name>舟後-70 長柄菊</name><Point><coordinates>121.5096785,25.0328848,0</coordinates></Point></Placemark>
<Placemark><name>舟後-74 克里奧羅可可樹</name><Point><coordinates>121.5094597,25.0330756,0</coordinates></Point></Placemark>
<Placemark><name>舟後-77 斑葉桔梗蘭</name><Point><coordinates>121.5098819,25.0330636,0</coordinates></Point></Placemark>
<Placemark><name>舟後-78 海葡萄</name><Point><coordinates>121.5095116,25.0330952,0</coordinates></Point></Placemark>
<Placemark><name>舟後-79 變葉藜</name><Point><coordinates>121.5091883,25.0330989,0</coordinates></Point></Placemark>
<Placemark><name>舟後-82 黃金百香果</name><Point><coordinates>121.5092338,25.0331195,0</coordinates></Point></Placemark>
<Placemark><name>舟後-84 可可樹</name><Point><coordinates>121.5091129,25.0330393,0</coordinates></Point></Placemark>
<Placemark><name>舟後-85 松田氏南五味子</name><Point><coordinates>121.5097900,25.0330563,0</coordinates></Point></Placemark>
<Placemark><name>舟後-86 梧桐</name><Point><coordinates>121.5095029,25.0330199,0</coordinates></Point></Placemark>
<Placemark><name>舟後-87 槭葉牽牛</name><Point><coordinates>121.5096275,25.0331365,0</coordinates></Point></Placemark>
<Placemark><name>舟後-88 空氣鳳梨</name><Point><coordinates>121.5092774,25.0331329,0</coordinates></Point></Placemark>
<Placemark><name>舟後-89 葛瑪蘭巴蕉</name><Point><coordinates>121.5094326,25.0330626,0</coordinates></Point></Placemark>
<Placemark><name>舟後-90 蘭嶼土沉香</name><Point><coordinates>121.5092609,25.0330821,0</coordinates></Point></Placemark>
<Placemark><name>舟後-91 降香黃檀</name><Point><coordinates>121.5098481,25.0330213,0</coordinates></Point></Placemark>
<Placemark><name>舟後-92 台灣木藍</name><Point><coordinates>121.5092459,25.0329764,0</coordinates></Point></Placemark>
<Placemark><name>舟後-94 旅人蕉</name><Point><coordinates>121.5096064,25.0330614,0</coordinates></Point></Placemark>
<Placemark><name>舟後-95 火龍果</name><Point><coordinates>121.5091570,25.0329861,0</coordinates></Point></Placemark>
<Placemark><name>舟後-96 翼豆</name><Point><coordinates>121.5092695,25.0331161,0</coordinates></Point></Placemark>
<Placemark><name>舟後-97 鵝鑾鼻蔓榕</name><Point><coordinates>121.5092144,25.0329849,0</coordinates></Point></Placemark>
<Placemark><name>舟後-98 圓葉煉莢豆</name><Point><coordinates>121.5092532,25.0331222,0</coordinates></Point></Placemark>
<Placemark><name>舟後-99 葛瑪蘭芭蕉</name><Point><coordinates>121.5095802,25.0331030,0</coordinates></Point></Placemark>
<Placemark><name>舟左-09 磯菊</name><Point><coordinates>121.5092880,25.0328293,0</coordinates></Point></Placemark>
<Placemark><name>舟左-11 茶梅</name><Point><coordinates>121.5092584,25.0328099,0</coordinates></Point></Placemark>
<Placemark><name>舟左-15 九重葛</name><Point><coordinates>121.5093280,25.0327880,0</coordinates></Point></Placemark>
<Placemark><name>舟左-16 南嶺蕘花</name><Point><coordinates>121.5092997,25.0327831,0</coordinates></Point></Placemark>
<Placemark><name>舟左-27 委陵菜</name><Point><coordinates>121.5093680,25.0327880,0</coordinates></Point></Placemark>
<Placemark><name>舟左-28 威氏鐵莧</name><Point><coordinates>121.5092472,25.0327576,0</coordinates></Point></Placemark>
<Placemark><name>舟左-30 小葉葡萄</name><Point><coordinates>121.5094080,25.0327880,0</coordinates></Point></Placemark>
<Placemark><name>舟左-32 彎喙薹</name><Point><coordinates>121.5092134,25.0327941,0</coordinates></Point></Placemark>
<Placemark><name>舟左-36 羅山腹水草</name><Point><coordinates>121.5093488,25.0328184,0</coordinates></Point></Placemark>
<Placemark><name>舟左-37 茄冬</name><Point><coordinates>121.5092534,25.0328658,0</coordinates></Point></Placemark>
<Placemark><name>舟左-39 菁芳草</name><Point><coordinates>121.5092639,25.0327967,0</coordinates></Point></Placemark>
<Placemark><name>舟左-40 阿里山油菊</name><Point><coordinates>121.5092758,25.0328137,0</coordinates></Point></Placemark>
<Placemark><name>舟左-41 斑葉六月雪</name><Point><coordinates>121.5093280,25.0327700,0</coordinates></Point></Placemark>
<Placemark><name>舟左-44 節毛鼠尾草</name><Point><coordinates>121.5094446,25.0327846,0</coordinates></Point></Placemark>
<Placemark><name>舟左-49 韓氏鼠尾粟</name><Point><coordinates>121.5093680,25.0327700,0</coordinates></Point></Placemark>
<Placemark><name>舟左-52 小葉黃膳藤</name><Point><coordinates>121.5094510,25.0327092,0</coordinates></Point></Placemark>
<Placemark><name>舟左-54 山油柑</name><Point><coordinates>121.5092028,25.0327688,0</coordinates></Point></Placemark>
<Placemark><name>舟左-55 棱軸土人蔘</name><Point><coordinates>121.5093207,25.0328198,0</coordinates></Point></Placemark>
<Placemark><name>舟左-56 歐洲忍冬</name><Point><coordinates>121.5095432,25.0329268,0</coordinates></Point></Placemark>
<Placemark><name>舟左-59 清水山Ｘ巴陵石竹</name><Point><coordinates>121.5093835,25.0328466,0</coordinates></Point></Placemark>
<Placemark><name>舟左-60 皮孫木</name><Point><coordinates>121.5091834,25.0329197,0</coordinates></Point></Placemark>
<Placemark><name>舟左-65 高氏柴胡</name><Point><coordinates>121.5093737,25.0328225,0</coordinates></Point></Placemark>
<Placemark><name>舟左-66 火花離根香</name><Point><coordinates>121.5094058,25.0327678,0</coordinates></Point></Placemark>
<Placemark><name>舟左-68 陰行草</name><Point><coordinates>121.5093909,25.0328273,0</coordinates></Point></Placemark>
<Placemark><name>舟左-69 台灣地榆</name><Point><coordinates>121.5093841,25.0327970,0</coordinates></Point></Placemark>
<Placemark><name>舟左-70 竹節蓼</name><Point><coordinates>121.5092713,25.0327860,0</coordinates></Point></Placemark>
<Placemark><name>舟左-72 五蕊油柑</name><Point><coordinates>121.5094280,25.0327520,0</coordinates></Point></Placemark>
<Placemark><name>舟左-73 假紫斑大戟</name><Point><coordinates>121.5094104,25.0328213,0</coordinates></Point></Placemark>
<Placemark><name>舟左-74 毛脈三葉五加</name><Point><coordinates>121.5091958,25.0328419,0</coordinates></Point></Placemark>
<Placemark><name>舟左-75 牡蒿</name><Point><coordinates>121.5093443,25.0328093,0</coordinates></Point></Placemark>
<Placemark><name>舟左-76 田代氏鐵線蓮</name><Point><coordinates>121.5093080,25.0327340,0</coordinates></Point></Placemark>
<Placemark><name>舟左-77 稜軸土人參</name><Point><coordinates>121.5093065,25.0328118,0</coordinates></Point></Placemark>
<Placemark><name>舟左-78 米碎柃木</name><Point><coordinates>121.5093480,25.0327741,0</coordinates></Point></Placemark>
<Placemark><name>舟左-79 雞屎藤</name><Point><coordinates>121.5093760,25.0327231,0</coordinates></Point></Placemark>
<Placemark><name>舟左-80 台灣火刺木</name><Point><coordinates>121.5094095,25.0327170,0</coordinates></Point></Placemark>
<Placemark><name>舟左-81 小葉厚殼樹</name><Point><coordinates>121.5092350,25.0328798,0</coordinates></Point></Placemark>
<Placemark><name>舟左-82 蘄艾</name><Point><coordinates>121.5093449,25.0327595,0</coordinates></Point></Placemark>
<Placemark><name>舟左-83 油菊</name><Point><coordinates>121.5093112,25.0328336,0</coordinates></Point></Placemark>
<Placemark><name>舟右-29 雙面刺</name><Point><coordinates>121.5098105,25.0327522,0</coordinates></Point></Placemark>
<Placemark><name>舟右-42 金塔朱槿</name><Point><coordinates>121.5098574,25.0327813,0</coordinates></Point></Placemark>
<Placemark><name>舟右-44 九芎</name><Point><coordinates>121.5098546,25.0328591,0</coordinates></Point></Placemark>
<Placemark><name>舟右-49 瓦氏秋海棠</name><Point><coordinates>121.5097123,25.0326234,0</coordinates></Point></Placemark>
<Placemark><name>舟右-51 紅仔珠</name><Point><coordinates>121.5098288,25.0327582,0</coordinates></Point></Placemark>
<Placemark><name>舟右-52 蘭嶼胡椒</name><Point><coordinates>121.5098636,25.0327424,0</coordinates></Point></Placemark>
<Placemark><name>舟右-57 大胡枝子</name><Point><coordinates>121.5098326,25.0327266,0</coordinates></Point></Placemark>
<Placemark><name>舟右-59 山胡枝子</name><Point><coordinates>121.5097977,25.0326853,0</coordinates></Point></Placemark>
<Placemark><name>舟右-60 恆春薯蕷</name><Point><coordinates>121.5098016,25.0327631,0</coordinates></Point></Placemark>
<Placemark><name>舟右-61 烏柑仔</name><Point><coordinates>121.5098350,25.0328105,0</coordinates></Point></Placemark>
<Placemark><name>舟右-62 搭肉刺</name><Point><coordinates>121.5098052,25.0327329,0</coordinates></Point></Placemark>
<Placemark><name>舟右-63 燈豎朽</name><Point><coordinates>121.5096817,25.0326698,0</coordinates></Point></Placemark>
<Placemark><name>舟-01 李氏櫻桃</name><Point><coordinates>121.5098380,25.0325877,0</coordinates></Point></Placemark>
<Placemark><name>舟-13 台灣一葉蘭</name><Point><coordinates>121.5096727,25.0327809,0</coordinates></Point></Placemark>
<Placemark><name>舟-14 台灣胡麻花</name><Point><coordinates>121.5096404,25.0327967,0</coordinates></Point></Placemark>
<Placemark><name>舟-17 小蠟燭蘭</name><Point><coordinates>121.5097046,25.0327979,0</coordinates></Point></Placemark>
<Placemark><name>舟-20 橙花秋海棠</name><Point><coordinates>121.5096871,25.0328149,0</coordinates></Point></Placemark>
<Placemark><name>舟-21 毛緣薹草</name><Point><coordinates>121.5092417,25.0328806,0</coordinates></Point></Placemark>
<Placemark><name>舟-22 烏來石山桃</name><Point><coordinates>121.5092228,25.0328866,0</coordinates></Point></Placemark>
<Placemark><name>舟-24 艾瑟氏捕蟲堇</name><Point><coordinates>121.5093152,25.0329219,0</coordinates></Point></Placemark>
<Placemark><name>舟-25 萬年青</name><Point><coordinates>121.5096636,25.0328042,0</coordinates></Point></Placemark>
<Placemark><name>舟-26 藤枝秋海棠</name><Point><coordinates>121.5096501,25.0327641,0</coordinates></Point></Placemark>
<Placemark><name>舟-31 台灣及己</name><Point><coordinates>121.5092651,25.0328577,0</coordinates></Point></Placemark>
<Placemark><name>舟-32 喜花草</name><Point><coordinates>121.5097129,25.0327459,0</coordinates></Point></Placemark>
<Placemark><name>舟-33 大葉絨蘭</name><Point><coordinates>121.5092394,25.0328468,0</coordinates></Point></Placemark>
<Placemark><name>舟-34 寬葉線柱蘭</name><Point><coordinates>121.5092661,25.0328820,0</coordinates></Point></Placemark>
<Placemark><name>舟-36 帶唇蘭</name><Point><coordinates>121.5091868,25.0328942,0</coordinates></Point></Placemark>
<Placemark><name>舟-38 粗莖毛蘭</name><Point><coordinates>121.5092109,25.0328565,0</coordinates></Point></Placemark>
<Placemark><name>舟-40 羞花蘭</name><Point><coordinates>121.5096909,25.0327714,0</coordinates></Point></Placemark>
<Placemark><name>舟-42 香港毛蘭</name><Point><coordinates>121.5092093,25.0328771,0</coordinates></Point></Placemark>
<Placemark><name>舟-43 馬達加斯加風蘭</name><Point><coordinates>121.5091929,25.0328616,0</coordinates></Point></Placemark>
<Placemark><name>舟-45 齒唇羊耳蒜</name><Point><coordinates>121.5092545,25.0329078,0</coordinates></Point></Placemark>
<Placemark><name>舟-47 大花羊耳蒜</name><Point><coordinates>121.5092798,25.0328749,0</coordinates></Point></Placemark>
<Placemark><name>舟-48 大苞秋海棠</name><Point><coordinates>121.5091805,25.0328786,0</coordinates></Point></Placemark>
<Placemark><name>舟-49 寶島羊耳蒜</name><Point><coordinates>121.5092796,25.0329029,0</coordinates></Point></Placemark>
<Placemark><name>舟-52 毛筆天南星</name><Point><coordinates>121.5095852,25.0328215,0</coordinates></Point></Placemark>
<Placemark><name>舟-55 玉山櫻草</name><Point><coordinates>121.5096575,25.0327741,0</coordinates></Point></Placemark>
<Placemark><name>舟-56 琉璃殿</name><Point><coordinates>121.5095554,25.0328433,0</coordinates></Point></Placemark>
<Placemark><name>舟-57 琴葉毬蘭</name><Point><coordinates>121.5097176,25.0327619,0</coordinates></Point></Placemark>
<Placemark><name>舟-58 白石斛蘭</name><Point><coordinates>121.5092533,25.0328448,0</coordinates></Point></Placemark>
<Placemark><name>舟-61 短穗毛舌蘭</name><Point><coordinates>121.5092907,25.0328533,0</coordinates></Point></Placemark>
<Placemark><name>舟-70 卷萼兜蘭</name><Point><coordinates>121.5092690,25.0328460,0</coordinates></Point></Placemark>
<Placemark><name>舟-71 台灣嗩吶草</name><Point><coordinates>121.5096310,25.0327792,0</coordinates></Point></Placemark>
<Placemark><name>舟-73 台灣撬釵蘭</name><Point><coordinates>121.5092996,25.0328849,0</coordinates></Point></Placemark>
<Placemark><name>舟-74 台灣白及</name><Point><coordinates>121.5092324,25.0329080,0</coordinates></Point></Placemark>
<Placemark><name>舟-78 捕蠅草</name><Point><coordinates>121.5097004,25.0327488,0</coordinates></Point></Placemark>
<Placemark><name>舟-80 毛萼毬蘭</name><Point><coordinates>121.5092483,25.0328654,0</coordinates></Point></Placemark>
<Placemark><name>舟-82 白點蘭</name><Point><coordinates>121.5092066,25.0329031,0</coordinates></Point></Placemark>
<Placemark><name>舟-84 紫毛兜蘭</name><Point><coordinates>121.5092814,25.0328353,0</coordinates></Point></Placemark>
<Placemark><name>舟-86 豆蘭</name><Point><coordinates>121.5093054,25.0328523,0</coordinates></Point></Placemark>
<Placemark><name>舟-87 豬籠草</name><Point><coordinates>121.5097305,25.0327490,0</coordinates></Point></Placemark>
<Placemark><name>舟-89 銀葉裂瓣毬蘭</name><Point><coordinates>121.5092958,25.0328317,0</coordinates></Point></Placemark>
<Placemark><name>舟-90 風蘭</name><Point><coordinates>121.5092139,25.0328462,0</coordinates></Point></Placemark>
<Placemark><name>舟-91 鴿石斛</name><Point><coordinates>121.5093117,25.0328730,0</coordinates></Point></Placemark>
<Placemark><name>舟-92 黃花三七草</name><Point><coordinates>121.5096589,25.0327527,0</coordinates></Point></Placemark>
<Placemark><name>舟-93 黃花鳳仙花</name><Point><coordinates>121.5096467,25.0327563,0</coordinates></Point></Placemark>
<Placemark><name>舟-94 俄氏草</name><Point><coordinates>121.5097150,25.0327903,0</coordinates></Point></Placemark>
<Placemark><name>舟-97 小葉深山野牡丹</name><Point><coordinates>121.5092281,25.0328645,0</coordinates></Point></Placemark>
<Placemark><name>舟-101 瓶子草</name><Point><coordinates>121.5097307,25.0327869,0</coordinates></Point></Placemark>
<Placemark><name>舟-102 疣柄魔芋</name><Point><coordinates>121.5095924,25.0328027,0</coordinates></Point></Placemark>
<Placemark><name>舟-103 石仙桃</name><Point><coordinates>121.5092316,25.0328076,0</coordinates></Point></Placemark>
<Placemark><name>舟-105 美花隔距蘭</name><Point><coordinates>121.5092113,25.0328234,0</coordinates></Point></Placemark>
<Placemark><name>舟-106 翠華捲瓣蘭</name><Point><coordinates>121.5096229,25.0328088,0</coordinates></Point></Placemark>
<Placemark><name>舟-108 裂唇軟葉蘭</name><Point><coordinates>121.5092647,25.0328222,0</coordinates></Point></Placemark>
<Placemark><name>舟-110 鈎狀石斛</name><Point><coordinates>121.5092834,25.0328161,0</coordinates></Point></Placemark>
<Placemark><name>舟-114 魔盤</name><Point><coordinates>121.5093182,25.0328307,0</coordinates></Point></Placemark>
<Placemark><name>舟-115 冷水花</name><Point><coordinates>121.5096734,25.0327565,0</coordinates></Point></Placemark>
<Placemark><name>舟-116 凹唇軟葉蘭</name><Point><coordinates>121.5093099,25.0328465,0</coordinates></Point></Placemark>
<Placemark><name>舟-117 割雞芒</name><Point><coordinates>121.5096985,25.0327410,0</coordinates></Point></Placemark>
<Placemark><name>舟-118 叉葉毛氈苔</name><Point><coordinates>121.5096501,25.0328297,0</coordinates></Point></Placemark>
<Placemark><name>舟-119 墨西哥拖鞋蘭</name><Point><coordinates>121.5092933,25.0327944,0</coordinates></Point></Placemark>
<Placemark><name>舟-120 墨西哥鞋蘭</name><Point><coordinates>121.5093092,25.0328759,0</coordinates></Point></Placemark>
<Placemark><name>舟-121 孔斯鹿角蘭</name><Point><coordinates>121.5096444,25.0327325,0</coordinates></Point></Placemark>
<Placemark><name>舟-122 山芫荽</name><Point><coordinates>121.5096778,25.0327410,0</coordinates></Point></Placemark>
<Placemark><name>舟-123 巴拿馬草</name><Point><coordinates>121.5097179,25.0328260,0</coordinates></Point></Placemark>
<Placemark><name>舟-124 斑萼卡特蘭</name><Point><coordinates>121.5093115,25.0328139,0</coordinates></Point></Placemark>
<Placemark><name>舟-126 早田氏鼠尾草</name><Point><coordinates>121.5096304,25.0327325,0</coordinates></Point></Placemark>
<Placemark><name>舟-128 樟葉木防巳</name><Point><coordinates>121.5097373,25.0328117,0</coordinates></Point></Placemark>
<Placemark><name>舟-129 水晶花燭</name><Point><coordinates>121.5096688,25.0327266,0</coordinates></Point></Placemark>
<Placemark><name>舟-130 烏來柯麗白蘭</name><Point><coordinates>121.5091845,25.0328457,0</coordinates></Point></Placemark>
<Placemark><name>舟-131 矮摺唇蘭</name><Point><coordinates>121.5092327,25.0328323,0</coordinates></Point></Placemark>
<Placemark><name>舟-132 石吊蘭</name><Point><coordinates>121.5092513,25.0328129,0</coordinates></Point></Placemark>
<Placemark><name>舟-133 紫紋捲瓣蘭</name><Point><coordinates>121.5092459,25.0328275,0</coordinates></Point></Placemark>
<Placemark><name>舟-134 路野氏馬蘭</name><Point><coordinates>121.5096736,25.0327388,0</coordinates></Point></Placemark>
<Placemark><name>舟-135 邊沁氏盾座苣苔</name><Point><coordinates>121.5097257,25.0327339,0</coordinates></Point></Placemark>
<Placemark><name>舟-137 銀線蓮</name><Point><coordinates>121.5091634,25.0329140,0</coordinates></Point></Placemark>
<Placemark><name>舟-139 銀葉魔芋</name><Point><coordinates>121.5095789,25.0328058,0</coordinates></Point></Placemark>
<Placemark><name>舟-140 黃松蘭</name><Point><coordinates>121.5091939,25.0328447,0</coordinates></Point></Placemark>
<Placemark><name>舟-141 黃花莕菜</name><Point><coordinates>121.5096189,25.0327669,0</coordinates></Point></Placemark>
<Placemark><name>舟-143 倒吊蓮</name><Point><coordinates>121.5092687,25.0329225,0</coordinates></Point></Placemark>
<Placemark><name>舟-144 台灣石吊蘭</name><Point><coordinates>121.5092538,25.0327925,0</coordinates></Point></Placemark>
<Placemark><name>舟-145 大腳筒蘭</name><Point><coordinates>121.5095594,25.0328083,0</coordinates></Point></Placemark>
<Placemark><name>舟-146 宿苞石仙桃</name><Point><coordinates>121.5092723,25.0328095,0</coordinates></Point></Placemark>
<Placemark><name>舟-147 小葉寄樹蘭</name><Point><coordinates>121.5091835,25.0328291,0</coordinates></Point></Placemark>
<Placemark><name>舟-148 小蝙蝠花</name><Point><coordinates>121.5092947,25.0329154,0</coordinates></Point></Placemark>
<Placemark><name>舟-149 暗紅舞花薑</name><Point><coordinates>121.5091833,25.0329264,0</coordinates></Point></Placemark>
<Placemark><name>舟-150 棉德島固唇蘭</name><Point><coordinates>121.5093267,25.0328680,0</coordinates></Point></Placemark>
<Placemark><name>舟-151 滇越金線蘭</name><Point><coordinates>121.5091670,25.0328814,0</coordinates></Point></Placemark>
<Placemark><name>舟-152 烏來閉口蘭</name><Point><coordinates>121.5093466,25.0328316,0</coordinates></Point></Placemark>
<Placemark><name>舟-153 焦蘭</name><Point><coordinates>121.5092539,25.0329069,0</coordinates></Point></Placemark>
<Placemark><name>舟-154 白變龍爪蘭</name><Point><coordinates>121.5096856,25.0327331,0</coordinates></Point></Placemark>
<Placemark><name>舟-155 綠花隔距蘭</name><Point><coordinates>121.5093315,25.0328231,0</coordinates></Point></Placemark>
<Placemark><name>舟-156 艷紅鹿子百合</name><Point><coordinates>121.5096680,25.0327198,0</coordinates></Point></Placemark>
<Placemark><name>舟-157 蕉蘭</name><Point><coordinates>121.5096824,25.0328063,0</coordinates></Point></Placemark>
<Placemark><name>舟-158 裂唇小柱蘭</name><Point><coordinates>121.5092102,25.0328160,0</coordinates></Point></Placemark>
<Placemark><name>舟-159 長葉竹節蘭</name><Point><coordinates>121.5093415,25.0328063,0</coordinates></Point></Placemark>
<Placemark><name>舟-160 魔葵拖鞋蘭</name><Point><coordinates>121.5093119,25.0328002,0</coordinates></Point></Placemark>
<Placemark><name>舟-161 鳳蘭</name><Point><coordinates>121.5096310,25.0327625,0</coordinates></Point></Placemark>
<Placemark><name>舟-162 黃穗蘭</name><Point><coordinates>121.5097341,25.0327795,0</coordinates></Point></Placemark>
<Placemark><name>舟-163 黃絨蘭</name><Point><coordinates>121.5093263,25.0327941,0</coordinates></Point></Placemark>
<Placemark><name>舟-164 黃花苞舌蘭</name><Point><coordinates>121.5092243,25.0328002,0</coordinates></Point></Placemark>
<Placemark><name>舟-165 台灣福王草</name><Point><coordinates>121.5096252,25.0327273,0</coordinates></Point></Placemark>
<Placemark><name>舟-166 桃園草</name><Point><coordinates>121.5096250,25.0328427,0</coordinates></Point></Placemark>
<Placemark><name>舟-167 海豚花</name><Point><coordinates>121.5096462,25.0327421,0</coordinates></Point></Placemark>
<Placemark><name>舟-168 直立半插花</name><Point><coordinates>121.5092035,25.0329292,0</coordinates></Point></Placemark>
<Placemark><name>舟-169 等翅秋海棠</name><Point><coordinates>121.5093107,25.0329134,0</coordinates></Point></Placemark>
<Placemark><name>舟-170 吊蘭</name><Point><coordinates>121.5096982,25.0328211,0</coordinates></Point></Placemark>
<Placemark><name>舟-171 紅花石斛</name><Point><coordinates>121.5091978,25.0328235,0</coordinates></Point></Placemark>
<Placemark><name>舟-172 蓬萊油菊</name><Point><coordinates>121.5096939,25.0327348,0</coordinates></Point></Placemark>
<Placemark><name>舟-173 蘭嶼白及</name><Point><coordinates>121.5097059,25.0327385,0</coordinates></Point></Placemark>
<Placemark><name>舟-174 蟻巢玉</name><Point><coordinates>121.5097393,25.0327761,0</coordinates></Point></Placemark>
<Placemark><name>舟-175 北村氏鬼督郵</name><Point><coordinates>121.5093180,25.0328551,0</coordinates></Point></Placemark>
<Placemark><name>舟-176 北美綬草</name><Point><coordinates>121.5092723,25.0327907,0</coordinates></Point></Placemark>
<Placemark><name>舟-177 嘉德麗亞蘭</name><Point><coordinates>121.5091674,25.0328687,0</coordinates></Point></Placemark>
<Placemark><name>舟-178 大腳筒</name><Point><coordinates>121.5092384,25.0327909,0</coordinates></Point></Placemark>
<Placemark><name>舟-179 大芋蘭</name><Point><coordinates>121.5093375,25.0328578,0</coordinates></Point></Placemark>
<Placemark><name>舟-180 寬葉石松</name><Point><coordinates>121.5092931,25.0327776,0</coordinates></Point></Placemark>
<Placemark><name>舟-181 布比薑</name><Point><coordinates>121.5093225,25.0329064,0</coordinates></Point></Placemark>
<Placemark><name>舟-182 斑點草莓寄樹蘭</name><Point><coordinates>121.5096389,25.0327180,0</coordinates></Point></Placemark>
<Placemark><name>舟-183 櫻葉捕蟲堇</name><Point><coordinates>121.5096629,25.0328323,0</coordinates></Point></Placemark>
<Placemark><name>舟-184 淡綠羊耳蒜</name><Point><coordinates>121.5093611,25.0328310,0</coordinates></Point></Placemark>
<Placemark><name>舟-185 秋石斛</name><Point><coordinates>121.5093274,25.0327776,0</coordinates></Point></Placemark>
<Placemark><name>舟-186 羊耳蒜</name><Point><coordinates>121.5092951,25.0327897,0</coordinates></Point></Placemark>
<Placemark><name>舟-187 翡翠閣</name><Point><coordinates>121.5095242,25.0328057,0</coordinates></Point></Placemark>
<Placemark><name>舟-189 角桐草</name><Point><coordinates>121.5096232,25.0327462,0</coordinates></Point></Placemark>
<Placemark><name>舟-190 鈴木氏油點草</name><Point><coordinates>121.5096700,25.0327912,0</coordinates></Point></Placemark>
<Placemark><name>舟-191 黑葉魔芋</name><Point><coordinates>121.5095666,25.0327827,0</coordinates></Point></Placemark>
<Placemark><name>舟-194 紅石斛</name><Point><coordinates>121.5097124,25.0327219,0</coordinates></Point></Placemark>
<Placemark><name>舟-195 馬祖油菊</name><Point><coordinates>121.5097043,25.0327280,0</coordinates></Point></Placemark>
<Placemark><name>舟右-05 梵天花</name><Point><coordinates>121.5096403,25.0326850,0</coordinates></Point></Placemark>
<Placemark><name>舟右-09 野棉花</name><Point><coordinates>121.5096543,25.0326725,0</coordinates></Point></Placemark>
<Placemark><name>舟左-13 金新木薑子</name><Point><coordinates>121.5095520,25.0327080,0</coordinates></Point></Placemark>
<Placemark><name>舟後-08 帝皇烏藍</name><Point><coordinates>121.5093145,25.0330853,0</coordinates></Point></Placemark>
<Placemark><name>舟後-02 兔仔菜</name><Point><coordinates>121.5092610,25.0329330,0</coordinates></Point></Placemark>
<Placemark><name>舟後-17 鵝鑾鼻燈籠草</name><Point><coordinates>121.5092370,25.0329420,0</coordinates></Point></Placemark>
<Placemark><name>舟後-01 交趾衛矛</name><Point><coordinates>121.5094250,25.0330820,0</coordinates></Point></Placemark>
<Placemark><name>舟右-11 長穗鐵莧</name><Point><coordinates>121.5097760,25.0327610,0</coordinates></Point></Placemark>
<Placemark><name>舟左-04 新竹油菊</name><Point><coordinates>121.5093990,25.0327850,0</coordinates></Point></Placemark>
<Placemark><name>舟左-14 青心柑仔</name><Point><coordinates>121.5094000,25.0327670,0</coordinates></Point></Placemark>
<Placemark><name>舟左-12 葦草蘭</name><Point><coordinates>121.5094540,25.0327280,0</coordinates></Point></Placemark>
<Placemark><name>舟左-08 炮竹紅</name><Point><coordinates>121.5093330,25.0327830,0</coordinates></Point></Placemark>
<Placemark><name>舟-06 茶花</name><Point><coordinates>121.5110010,25.0325040,0</coordinates></Point></Placemark>
<Placemark><name>舟左-03 宮粉仙丹</name><Point><coordinates>121.5092980,25.0327920,0</coordinates></Point></Placemark>
<Placemark><name>舟後-10 #2 海桐</name><Point><coordinates>121.5092214,25.0330972,0</coordinates></Point></Placemark>
<Placemark><name>舟後-14 豆梨</name><Point><coordinates>121.5088505,25.0329290,0</coordinates></Point></Placemark>
<Placemark><name>舟後-14 #2 豆梨</name><Point><coordinates>121.5094939,25.0329695,0</coordinates></Point></Placemark>
<Placemark><name>舟後-05 天使薔薇</name><Point><coordinates>121.5091150,25.0330620,0</coordinates></Point></Placemark>
<Placemark><name>舟左-02 凹葉柃木</name><Point><coordinates>121.5093590,25.0327710,0</coordinates></Point></Placemark>
<Placemark><name>舟右-01 台灣土沉香</name><Point><coordinates>121.5098080,25.0327820,0</coordinates></Point></Placemark>
<Placemark><name>舟右-14 魚腥草</name><Point><coordinates>121.5097880,25.0327740,0</coordinates></Point></Placemark>
<Placemark><name>舟右-12 霞山大戟</name><Point><coordinates>121.5097700,25.0327670,0</coordinates></Point></Placemark>
<Placemark><name>舟-09 阿里山十大功勞</name><Point><coordinates>121.5097670,25.0325880,0</coordinates></Point></Placemark>
<Placemark><name>舟後-07 小花寬葉馬偕花</name><Point><coordinates>121.5090769,25.0330917,0</coordinates></Point></Placemark>
<Placemark><name>舟後-07 #2 小花寬葉馬偕花</name><Point><coordinates>121.5101850,25.0326830,0</coordinates></Point></Placemark>
<Placemark><name>舟後-04 可可</name><Point><coordinates>121.5091190,25.0330240,0</coordinates></Point></Placemark>
<Placemark><name>舟左-06 明萼草</name><Point><coordinates>121.5093660,25.0328480,0</coordinates></Point></Placemark>
<Placemark><name>舟後-11 神秘果</name><Point><coordinates>121.5095793,25.0331427,0</coordinates></Point></Placemark>
<Placemark><name>舟-03 稜骨鞭</name><Point><coordinates>121.5095600,25.0327450,0</coordinates></Point></Placemark>
<Placemark><name>舟-07 西瓜皮毬蘭</name><Point><coordinates>121.5097410,25.0327900,0</coordinates></Point></Placemark>
<Placemark><name>舟右-03 多花野牡丹藤</name><Point><coordinates>121.5097380,25.0327700,0</coordinates></Point></Placemark>
<Placemark><name>舟右-06 玉唇花</name><Point><coordinates>121.5097320,25.0327930,0</coordinates></Point></Placemark>
<Placemark><name>舟右-10 金毛杜鵑</name><Point><coordinates>121.5098413,25.0326296,0</coordinates></Point></Placemark>
<Placemark><name>舟右-15 鼠尾草</name><Point><coordinates>121.5100400,25.0326220,0</coordinates></Point></Placemark>
<Placemark><name>舟右-04 奧蘭多蜻蜓鳳梨</name><Point><coordinates>121.5099200,25.0325960,0</coordinates></Point></Placemark>
<Placemark><name>舟右-02 垂花水塔花</name><Point><coordinates>121.5098880,25.0325700,0</coordinates></Point></Placemark>
<Placemark><name>舟左-18 小茄</name><Point><coordinates>121.5094540,25.0327900,0</coordinates></Point></Placemark>
<Placemark><name>舟後-03 全緣葉冬青</name><Point><coordinates>121.5093546,25.0331341,0</coordinates></Point></Placemark>
<Placemark><name>舟後-26 風鈴木</name><Point><coordinates>121.5092572,25.0321466,0</coordinates></Point></Placemark>
<Placemark><name>舟左-20 河王八</name><Point><coordinates>121.5094450,25.0327440,0</coordinates></Point></Placemark>
<Placemark><name>舟左-24 頭花香苦草</name><Point><coordinates>121.5093800,25.0327960,0</coordinates></Point></Placemark>
<Placemark><name>舟-27 黃唇蘭</name><Point><coordinates>121.5092910,25.0328530,0</coordinates></Point></Placemark>
<Placemark><name>舟後-18 光葉鴨舌癀舅</name><Point><coordinates>121.5093550,25.0329773,0</coordinates></Point></Placemark>
<Placemark><name>舟-04 竹子山十大功勞</name><Point><coordinates>121.5097356,25.0325928,0</coordinates></Point></Placemark>
<Placemark><name>舟右-23 長壽花</name><Point><coordinates>121.5100040,25.0325780,0</coordinates></Point></Placemark>
<Placemark><name>舟右-21 美女櫻</name><Point><coordinates>121.5099450,25.0325560,0</coordinates></Point></Placemark>
<Placemark><name>舟右-16 勳章菊</name><Point><coordinates>121.5100080,25.0325900,0</coordinates></Point></Placemark>
<Placemark><name>舟-12 一葉蘭</name><Point><coordinates>121.5096860,25.0328010,0</coordinates></Point></Placemark>
<Placemark><name>舟-16 塔塔加繡線菊</name><Point><coordinates>121.5097010,25.0327920,0</coordinates></Point></Placemark>
<Placemark><name>舟右-20 清水山小檗</name><Point><coordinates>121.5097290,25.0327950,0</coordinates></Point></Placemark>
<Placemark><name>舟右-24 麗格秋海棠</name><Point><coordinates>121.5100000,25.0325910,0</coordinates></Point></Placemark>
<Placemark><name>舟右-17 小蜜蜂</name><Point><coordinates>121.5099610,25.0325700,0</coordinates></Point></Placemark>
<Placemark><name>舟右-22 跳舞女郎</name><Point><coordinates>121.5099132,25.0328002,0</coordinates></Point></Placemark>
<Placemark><name>舟後-24 紫紅蕉</name><Point><coordinates>121.5097269,25.0331026,0</coordinates></Point></Placemark>
<Placemark><name>舟-15 圓葉椒草</name><Point><coordinates>121.5095890,25.0328290,0</coordinates></Point></Placemark>
<Placemark><name>舟左-19 尾葉山茶</name><Point><coordinates>121.5094000,25.0327750,0</coordinates></Point></Placemark>
<Placemark><name>舟-18 擬毛蘭</name><Point><coordinates>121.5092330,25.0328920,0</coordinates></Point></Placemark>
<Placemark><name>舟-30 齒唇莪白蘭</name><Point><coordinates>121.5092240,25.0328980,0</coordinates></Point></Placemark>
<Placemark><name>舟-29 黑峰秋海棠</name><Point><coordinates>121.5092560,25.0329450,0</coordinates></Point></Placemark>
<Placemark><name>舟-05 細莖鶴頂蘭</name><Point><coordinates>121.5091850,25.0329280,0</coordinates></Point></Placemark>
<Placemark><name>舟左-17 寶島玉葉金花</name><Point><coordinates>121.5093320,25.0327780,0</coordinates></Point></Placemark>
<Placemark><name>舟右-19 波斯紅草</name><Point><coordinates>121.5097360,25.0328150,0</coordinates></Point></Placemark>
<Placemark><name>舟左-23 線柱蘭</name><Point><coordinates>121.5093990,25.0327840,0</coordinates></Point></Placemark>
<Placemark><name>舟右-18 彩色海芋</name><Point><coordinates>121.5100310,25.0325990,0</coordinates></Point></Placemark>
<Placemark><name>舟後-19 台灣三角楓</name><Point><coordinates>121.5096500,25.0331310,0</coordinates></Point></Placemark>
<Placemark><name>舟後-21 淡綠葉衛矛</name><Point><coordinates>121.5094040,25.0330970,0</coordinates></Point></Placemark>
<Placemark><name>舟-28 黃根節蘭</name><Point><coordinates>121.5096590,25.0327540,0</coordinates></Point></Placemark>
<Placemark><name>舟-19 棣慕華鳳仙花</name><Point><coordinates>121.5096850,25.0327830,0</coordinates></Point></Placemark>
<Placemark><name>舟-23 硬葉兜蘭</name><Point><coordinates>121.5092710,25.0329200,0</coordinates></Point></Placemark>
<Placemark><name>舟左-21 滿福木</name><Point><coordinates>121.5092860,25.0328200,0</coordinates></Point></Placemark>
<Placemark><name>舟-39 綠花安蘭</name><Point><coordinates>121.5092290,25.0329120,0</coordinates></Point></Placemark>
<Placemark><name>舟後-37 漆姑草</name><Point><coordinates>121.5088800,25.0322564,0</coordinates></Point></Placemark>
<Placemark><name>舟-41 #2 茄苳</name><Point><coordinates>121.5094020,25.0328020,0</coordinates></Point></Placemark>
<Placemark><name>舟後-25 芒果</name><Point><coordinates>121.5103460,25.0319650,0</coordinates></Point></Placemark>
<Placemark><name>舟右-27 權杖皮氏鳳梨</name><Point><coordinates>121.5097032,25.0328186,0</coordinates></Point></Placemark>
<Placemark><name>舟左-07 易生木</name><Point><coordinates>121.5093430,25.0328010,0</coordinates></Point></Placemark>
<Placemark><name>舟後-45 黃皮</name><Point><coordinates>121.5094754,25.0331501,0</coordinates></Point></Placemark>
<Placemark><name>舟後-20 橘柑</name><Point><coordinates>121.5098204,25.0327920,0</coordinates></Point></Placemark>
<Placemark><name>舟右-25 台灣香檬</name><Point><coordinates>121.5105520,25.0323570,0</coordinates></Point></Placemark>
<Placemark><name>舟右-07 紅背桂</name><Point><coordinates>121.5098564,25.0327292,0</coordinates></Point></Placemark>
<Placemark><name>舟後-39 紫藤</name><Point><coordinates>121.5094044,25.0330331,0</coordinates></Point></Placemark>
<Placemark><name>舟後-32 木棉</name><Point><coordinates>121.5091567,25.0329995,0</coordinates></Point></Placemark>
<Placemark><name>舟後-31 日本莢迷</name><Point><coordinates>121.5094530,25.0330800,0</coordinates></Point></Placemark>
<Placemark><name>舟後-34 槍刀菜</name><Point><coordinates>121.5093310,25.0328940,0</coordinates></Point></Placemark>
<Placemark><name>舟左-34 盆距蘭</name><Point><coordinates>121.5093730,25.0328270,0</coordinates></Point></Placemark>
<Placemark><name>舟左-25 假地豆</name><Point><coordinates>121.5094490,25.0327860,0</coordinates></Point></Placemark>
<Placemark><name>舟左-35 立鶴花</name><Point><coordinates>121.5093520,25.0328230,0</coordinates></Point></Placemark>
<Placemark><name>舟左-10 腺葯豇豆</name><Point><coordinates>121.5095480,25.0326900,0</coordinates></Point></Placemark>
<Placemark><name>舟左-22 炮仗花</name><Point><coordinates>121.5095613,25.0326639,0</coordinates></Point></Placemark>
<Placemark><name>舟後-29 墨水樹</name><Point><coordinates>121.5098323,25.0328640,0</coordinates></Point></Placemark>
<Placemark><name>舟左-26 台灣鉤藤</name><Point><coordinates>121.5093570,25.0328010,0</coordinates></Point></Placemark>
<Placemark><name>舟-35 寶石匙唇蘭</name><Point><coordinates>121.5093170,25.0328960,0</coordinates></Point></Placemark>
<Placemark><name>舟左-33 番茉莉</name><Point><coordinates>121.5093470,25.0327900,0</coordinates></Point></Placemark>
<Placemark><name>舟左-38 茅毛珍珠菜</name><Point><coordinates>121.5104846,25.0321881,0</coordinates></Point></Placemark>
<Placemark><name>舟右-28 重瓣麻球</name><Point><coordinates>121.5096960,25.0326630,0</coordinates></Point></Placemark>
<Placemark><name>舟右-28 #2 重瓣麻球</name><Point><coordinates>121.5099378,25.0316806,0</coordinates></Point></Placemark>
<Placemark><name>舟後-44 阿里山五味子</name><Point><coordinates>121.5098490,25.0330440,0</coordinates></Point></Placemark>
<Placemark><name>舟後-06 小仙丹花</name><Point><coordinates>121.5098711,25.0330192,0</coordinates></Point></Placemark>
<Placemark><name>舟右-37 紫黃</name><Point><coordinates>121.5097833,25.0328159,0</coordinates></Point></Placemark>
<Placemark><name>舟左-29 小朱蕉</name><Point><coordinates>121.5092760,25.0327500,0</coordinates></Point></Placemark>
<Placemark><name>舟左-29 #2 小朱蕉</name><Point><coordinates>121.5097552,25.0315323,0</coordinates></Point></Placemark>
<Placemark><name>舟-54 牛耳朵</name><Point><coordinates>121.5093240,25.0328800,0</coordinates></Point></Placemark>
<Placemark><name>舟右-33 法國薰衣草</name><Point><coordinates>121.5099100,25.0325540,0</coordinates></Point></Placemark>
<Placemark><name>舟右-31 小花木槿</name><Point><coordinates>121.5099300,25.0325620,0</coordinates></Point></Placemark>
<Placemark><name>舟右-39 蜀葵</name><Point><coordinates>121.5100290,25.0326010,0</coordinates></Point></Placemark>
<Placemark><name>舟右-35 皇冠龍舌蘭</name><Point><coordinates>121.5097303,25.0329699,0</coordinates></Point></Placemark>
<Placemark><name>舟右-41 達爾馬提亞風鈴草</name><Point><coordinates>121.5099580,25.0325860,0</coordinates></Point></Placemark>
<Placemark><name>舟右-30 大金雞菊</name><Point><coordinates>121.5099530,25.0325600,0</coordinates></Point></Placemark>
<Placemark><name>舟-63 粉珍珠毬蘭</name><Point><coordinates>121.5095730,25.0327710,0</coordinates></Point></Placemark>
<Placemark><name>舟左-46 藍星花</name><Point><coordinates>121.5093540,25.0327900,0</coordinates></Point></Placemark>
<Placemark><name>舟左-31 島田氏雞兒腸</name><Point><coordinates>121.5094290,25.0328060,0</coordinates></Point></Placemark>
<Placemark><name>舟後-12 粗毛小米菊</name><Point><coordinates>121.5094040,25.0330960,0</coordinates></Point></Placemark>
<Placemark><name>舟右-34 洋蓍草</name><Point><coordinates>121.5099660,25.0325840,0</coordinates></Point></Placemark>
<Placemark><name>舟後-52 木蠟樹</name><Point><coordinates>121.5095390,25.0330820,0</coordinates></Point></Placemark>
<Placemark><name>舟右-32 檸檬百里香</name><Point><coordinates>121.5099970,25.0325940,0</coordinates></Point></Placemark>
<Placemark><name>舟左-47 輪葉紫金牛</name><Point><coordinates>121.5093750,25.0328390,0</coordinates></Point></Placemark>
<Placemark><name>舟後-09 掌葉蘋婆</name><Point><coordinates>121.5091460,25.0330880,0</coordinates></Point></Placemark>
<Placemark><name>舟後-36 流蘇</name><Point><coordinates>121.5091630,25.0329610,0</coordinates></Point></Placemark>
<Placemark><name>舟-62 秋海棠科</name><Point><coordinates>121.5092050,25.0329280,0</coordinates></Point></Placemark>
<Placemark><name>舟-69 鳳尾蘭</name><Point><coordinates>121.5092230,25.0329200,0</coordinates></Point></Placemark>
<Placemark><name>舟左-42 溲疏</name><Point><coordinates>121.5092410,25.0329290,0</coordinates></Point></Placemark>
<Placemark><name>舟右-40 過山香</name><Point><coordinates>121.5097766,25.0327891,0</coordinates></Point></Placemark>
<Placemark><name>舟右-38 羽毛樹豆</name><Point><coordinates>121.5097920,25.0327110,0</coordinates></Point></Placemark>
<Placemark><name>舟-65 細葉油點百合</name><Point><coordinates>121.5095690,25.0327880,0</coordinates></Point></Placemark>
<Placemark><name>舟右-36 紅芽石楠</name><Point><coordinates>121.5097110,25.0326660,0</coordinates></Point></Placemark>
<Placemark><name>舟-46 加勒比海盜秋海棠</name><Point><coordinates>121.5096395,25.0327678,0</coordinates></Point></Placemark>
<Placemark><name>舟左-43 白花竹葉蘭</name><Point><coordinates>121.5092150,25.0329320,0</coordinates></Point></Placemark>
<Placemark><name>舟左-50 鴨兒芹</name><Point><coordinates>121.5092620,25.0328670,0</coordinates></Point></Placemark>
<Placemark><name>舟左-45 華紫金牛</name><Point><coordinates>121.5093570,25.0328450,0</coordinates></Point></Placemark>
<Placemark><name>舟後-49 大花赤楠</name><Point><coordinates>121.5092800,25.0330350,0</coordinates></Point></Placemark>
<Placemark><name>舟後-66 蘭嶼蘋婆</name><Point><coordinates>121.5097424,25.0330481,0</coordinates></Point></Placemark>
<Placemark><name>舟-77 拐棗</name><Point><coordinates>121.5089684,25.0330999,0</coordinates></Point></Placemark>
<Placemark><name>舟後-53 桃金孃</name><Point><coordinates>121.5094930,25.0330830,0</coordinates></Point></Placemark>
<Placemark><name>舟-60 盧卡毬蘭</name><Point><coordinates>121.5095990,25.0327620,0</coordinates></Point></Placemark>
<Placemark><name>舟後-69 象牙柿</name><Point><coordinates>121.5092760,25.0329820,0</coordinates></Point></Placemark>
<Placemark><name>舟左-63 馬甲子</name><Point><coordinates>121.5095420,25.0327030,0</coordinates></Point></Placemark>
<Placemark><name>舟-37 燕石斛</name><Point><coordinates>121.5095830,25.0327740,0</coordinates></Point></Placemark>
<Placemark><name>舟-64 紫苞舌蘭</name><Point><coordinates>121.5095060,25.0327940,0</coordinates></Point></Placemark>
<Placemark><name>舟右-50 福木（雄）</name><Point><coordinates>121.5100390,25.0326310,0</coordinates></Point></Placemark>
<Placemark><name>舟右-45 刺杜密</name><Point><coordinates>121.5097728,25.0324356,0</coordinates></Point></Placemark>
<Placemark><name>舟-88 銀脈爵床</name><Point><coordinates>121.5097340,25.0327650,0</coordinates></Point></Placemark>
<Placemark><name>舟左-48 阿拉比卡咖啡</name><Point><coordinates>121.5092860,25.0328260,0</coordinates></Point></Placemark>
<Placemark><name>舟右-46 大花黃槐</name><Point><coordinates>121.5098210,25.0327190,0</coordinates></Point></Placemark>
<Placemark><name>舟-75 天宮石斛蘭</name><Point><coordinates>121.5097340,25.0327750,0</coordinates></Point></Placemark>
<Placemark><name>舟左-61 蝴蝶蘭</name><Point><coordinates>121.5092550,25.0329140,0</coordinates></Point></Placemark>
<Placemark><name>舟左-57 毬蘭</name><Point><coordinates>121.5093220,25.0328360,0</coordinates></Point></Placemark>
<Placemark><name>舟-79 檀香石斛白變種</name><Point><coordinates>121.5097340,25.0327860,0</coordinates></Point></Placemark>
<Placemark><name>舟左-01 兔尾草</name><Point><coordinates>121.5094020,25.0327580,0</coordinates></Point></Placemark>
<Placemark><name>舟左-01 #2 兔尾草</name><Point><coordinates>121.5089328,25.0323481,0</coordinates></Point></Placemark>
<Placemark><name>舟-50 對面花</name><Point><coordinates>121.5098333,25.0325850,0</coordinates></Point></Placemark>
<Placemark><name>舟右-47 彎花醉魚木</name><Point><coordinates>121.5096330,25.0326442,0</coordinates></Point></Placemark>
<Placemark><name>舟右-08 蒂牡花</name><Point><coordinates>121.5097870,25.0327410,0</coordinates></Point></Placemark>
<Placemark><name>舟右-55 雞爪樹</name><Point><coordinates>121.5098779,25.0327030,0</coordinates></Point></Placemark>
<Placemark><name>舟左-58 清水山石竹</name><Point><coordinates>121.5094490,25.0327900,0</coordinates></Point></Placemark>
<Placemark><name>舟右-53 錫蘭葉下珠</name><Point><coordinates>121.5097950,25.0327260,0</coordinates></Point></Placemark>
<Placemark><name>舟後-42 菱葉衛矛</name><Point><coordinates>121.5094140,25.0330870,0</coordinates></Point></Placemark>
<Placemark><name>舟左-51 三角葉西番蓮</name><Point><coordinates>121.5093140,25.0328120,0</coordinates></Point></Placemark>
<Placemark><name>舟-72 台灣崖爬藤</name><Point><coordinates>121.5096950,25.0327860,0</coordinates></Point></Placemark>
<Placemark><name>舟右-26 楓葉秋海棠</name><Point><coordinates>121.5099298,25.0327941,0</coordinates></Point></Placemark>
<Placemark><name>舟左-53 小葉黃鱔藤</name><Point><coordinates>121.5094800,25.0327200,0</coordinates></Point></Placemark>
<Placemark><name>舟-66 觀果鳳梨</name><Point><coordinates>121.5095760,25.0327500,0</coordinates></Point></Placemark>
<Placemark><name>舟後-64 水石榕</name><Point><coordinates>121.5098509,25.0329856,0</coordinates></Point></Placemark>
<Placemark><name>舟後-35 武威山烏皮茶</name><Point><coordinates>121.5091840,25.0329820,0</coordinates></Point></Placemark>
<Placemark><name>舟右-48 港口馬兜鈴</name><Point><coordinates>121.5098380,25.0327480,0</coordinates></Point></Placemark>
<Placemark><name>舟後-72 香茅</name><Point><coordinates>121.5091060,25.0330680,0</coordinates></Point></Placemark>
<Placemark><name>舟-81 猴尾柱</name><Point><coordinates>121.5097380,25.0327800,0</coordinates></Point></Placemark>
<Placemark><name>舟後-73 高士佛赤楠</name><Point><coordinates>121.5092730,25.0330570,0</coordinates></Point></Placemark>
<Placemark><name>舟後-71 長腳羊耳蒜</name><Point><coordinates>121.5092270,25.0329440,0</coordinates></Point></Placemark>
<Placemark><name>舟後-67 蛋樹</name><Point><coordinates>121.5096923,25.0329412,0</coordinates></Point></Placemark>
<Placemark><name>舟-76 心葉毬蘭</name><Point><coordinates>121.5096070,25.0327730,0</coordinates></Point></Placemark>
<Placemark><name>舟-53 澤珍珠菜</name><Point><coordinates>121.5112833,25.0317232,0</coordinates></Point></Placemark>
<Placemark><name>舟右-13 馬醉草</name><Point><coordinates>121.5098450,25.0326970,0</coordinates></Point></Placemark>
<Placemark><name>舟右-56 台灣赤楠</name><Point><coordinates>121.5098640,25.0326440,0</coordinates></Point></Placemark>
<Placemark><name>舟左-64 馬鞍藤</name><Point><coordinates>121.5093940,25.0329050,0</coordinates></Point></Placemark>
<Placemark><name>舟-10 雲葉毬蘭</name><Point><coordinates>121.5097260,25.0327720,0</coordinates></Point></Placemark>
<Placemark><name>舟右-43 金粟蘭</name><Point><coordinates>121.5098016,25.0326455,0</coordinates></Point></Placemark>
<Placemark><name>舟-85 裡菫紫金牛</name><Point><coordinates>121.5097320,25.0327580,0</coordinates></Point></Placemark>
<Placemark><name>舟右-54 降真香</name><Point><coordinates>121.5098070,25.0327550,0</coordinates></Point></Placemark>
<Placemark><name>舟-59 白金羽花</name><Point><coordinates>121.5097280,25.0328140,0</coordinates></Point></Placemark>
<Placemark><name>舟-95 兜蘭</name><Point><coordinates>121.5091820,25.0329410,0</coordinates></Point></Placemark>
<Placemark><name>舟-112 雪花蘆薈</name><Point><coordinates>121.5095820,25.0327820,0</coordinates></Point></Placemark>
<Placemark><name>舟-83 紅蟬豆蘭</name><Point><coordinates>121.5091880,25.0328860,0</coordinates></Point></Placemark>
<Placemark><name>舟後-75 南洋含笑</name><Point><coordinates>121.5092430,25.0329760,0</coordinates></Point></Placemark>
<Placemark><name>舟-96 大吳風草</name><Point><coordinates>121.5092020,25.0329410,0</coordinates></Point></Placemark>
<Placemark><name>舟-113 高山七葉一枝花</name><Point><coordinates>121.5096850,25.0327840,0</coordinates></Point></Placemark>
<Placemark><name>舟-104 磯松錦</name><Point><coordinates>121.5095900,25.0327820,0</coordinates></Point></Placemark>
<Placemark><name>舟右-58 紅燒賣毬蘭</name><Point><coordinates>121.5097330,25.0327810,0</coordinates></Point></Placemark>
<Placemark><name>舟後-76 山檳榔</name><Point><coordinates>121.5093460,25.0330240,0</coordinates></Point></Placemark>
<Placemark><name>舟-100 琉球八仙</name><Point><coordinates>121.5092810,25.0329440,0</coordinates></Point></Placemark>
<Placemark><name>舟-98 幹花爵床</name><Point><coordinates>121.5097400,25.0327930,0</coordinates></Point></Placemark>
<Placemark><name>舟-109 金草蘭</name><Point><coordinates>121.5096520,25.0327370,0</coordinates></Point></Placemark>
<Placemark><name>舟左-67 細莖石斛</name><Point><coordinates>121.5092460,25.0329160,0</coordinates></Point></Placemark>
<Placemark><name>舟-107 虎紋隔距蘭</name><Point><coordinates>121.5092290,25.0329200,0</coordinates></Point></Placemark>
<Placemark><name>舟-99 狹葉七葉一枝花</name><Point><coordinates>121.5096850,25.0327840,0</coordinates></Point></Placemark>
<Placemark><name>舟-111 鈴木氏油點草</name><Point><coordinates>121.5097250,25.0327920,0</coordinates></Point></Placemark>
<Placemark><name>舟後-80 馬尼拉麻蕉</name><Point><coordinates>121.5097135,25.0331313,0</coordinates></Point></Placemark>
<Placemark><name>舟後-81 麥門冬</name><Point><coordinates>121.5099202,25.0314681,0</coordinates></Point></Placemark>
</Document></kml>