<?xml version="1.0" encoding="UTF-8"?>
<kml xmlns="http://www.opengis.net/kml/2.2"><Document><name>第2張 花點</name><description>補座標與既有花點合併為一層。名稱不要改。</description>
<Placemark><name>肉-09 海岸擬茀蕨</name><Point><coordinates>121.5082662,25.0329417,0</coordinates></Point></Placemark>
<Placemark><name>肉-21 朴樹</name><Point><coordinates>121.5084095,25.0331787,0</coordinates></Point></Placemark>
<Placemark><name>肉-25 紫玉露</name><Point><coordinates>121.5082591,25.0330596,0</coordinates></Point></Placemark>
<Placemark><name>肉-27 阿寒湖</name><Point><coordinates>121.5083207,25.0330997,0</coordinates></Point></Placemark>
<Placemark><name>肉-29 哨兵花</name><Point><coordinates>121.5083233,25.0330717,0</coordinates></Point></Placemark>
<Placemark><name>肉-31 大黑天</name><Point><coordinates>121.5082628,25.0331058,0</coordinates></Point></Placemark>
<Placemark><name>肉-35 紅風鈴木</name><Point><coordinates>121.5084773,25.0331386,0</coordinates></Point></Placemark>
<Placemark><name>肉-38 過長沙</name><Point><coordinates>121.5086689,25.0330402,0</coordinates></Point></Placemark>
<Placemark><name>肉-43 孤挺花</name><Point><coordinates>121.5083335,25.0330292,0</coordinates></Point></Placemark>
<Placemark><name>肉-44 山黃麻</name><Point><coordinates>121.5087865,25.0331133,0</coordinates></Point></Placemark>
<Placemark><name>肉-47 毛球馬齒莧</name><Point><coordinates>121.5083144,25.0330550,0</coordinates></Point></Placemark>
<Placemark><name>肉-49 珊瑚油桐</name><Point><coordinates>121.5082874,25.0331206,0</coordinates></Point></Placemark>
<Placemark><name>肉-52 翠冠玉</name><Point><coordinates>121.5082819,25.0330452,0</coordinates></Point></Placemark>
<Placemark><name>肉-53 翠晃冠</name><Point><coordinates>121.5082724,25.0330525,0</coordinates></Point></Placemark>
<Placemark><name>肉-54 老翁龍舌蘭</name><Point><coordinates>121.5087135,25.0331267,0</coordinates></Point></Placemark>
<Placemark><name>肉-58 雲南石梓</name><Point><coordinates>121.5085203,25.0332725,0</coordinates></Point></Placemark>
<Placemark><name>肉-59 半邊蓮</name><Point><coordinates>121.5084464,25.0330173,0</coordinates></Point></Placemark>
<Placemark><name>肉-62 天王丸</name><Point><coordinates>121.5082773,25.0330853,0</coordinates></Point></Placemark>
<Placemark><name>肉-63 毛馬齒莧</name><Point><coordinates>121.5083429,25.0330695,0</coordinates></Point></Placemark>
<Placemark><name>肉-64 瓊麻</name><Point><coordinates>121.5085438,25.0330236,0</coordinates></Point></Placemark>
<Placemark><name>肉-65 紅刺露兜樹</name><Point><coordinates>121.5084860,25.0330260,0</coordinates></Point></Placemark>
<Placemark><name>肉-66 緋花玉</name><Point><coordinates>121.5082861,25.0330856,0</coordinates></Point></Placemark>
<Placemark><name>肉-67 草海桐</name><Point><coordinates>121.5083946,25.0330187,0</coordinates></Point></Placemark>
<Placemark><name>肉-69 野慈菇</name><Point><coordinates>121.5086935,25.0330345,0</coordinates></Point></Placemark>
<Placemark><name>肉-74 孔雀丸</name><Point><coordinates>121.5082938,25.0330734,0</coordinates></Point></Placemark>
<Placemark><name>肉-75 斑葉蘆薈</name><Point><coordinates>121.5085109,25.0330455,0</coordinates></Point></Placemark>
<Placemark><name>肉-76 田蔥</name><Point><coordinates>121.5087616,25.0331342,0</coordinates></Point></Placemark>
<Placemark><name>肉-77 白斑玉露</name><Point><coordinates>121.5082934,25.0330503,0</coordinates></Point></Placemark>
<Placemark><name>肉-78 糯米糰</name><Point><coordinates>121.5087010,25.0330151,0</coordinates></Point></Placemark>
<Placemark><name>肉-80 絨傘水牛角</name><Point><coordinates>121.5082514,25.0330931,0</coordinates></Point></Placemark>
<Placemark><name>肉-81 絲葦</name><Point><coordinates>121.5083063,25.0331222,0</coordinates></Point></Placemark>
<Placemark><name>肉-82 耳葉刺蕊草</name><Point><coordinates>121.5087166,25.0330663,0</coordinates></Point></Placemark>
<Placemark><name>肉-83 邱比特</name><Point><coordinates>121.5083235,25.0331259,0</coordinates></Point></Placemark>
<Placemark><name>肉-86 龍角</name><Point><coordinates>121.5082966,25.0331077,0</coordinates></Point></Placemark>
<Placemark><name>肉-87 一點紅</name><Point><coordinates>121.5082374,25.0330809,0</coordinates></Point></Placemark>
<Placemark><name>肉-88 大花魔星花</name><Point><coordinates>121.5082467,25.0331198,0</coordinates></Point></Placemark>
<Placemark><name>肉-90 熊貓仙丹花</name><Point><coordinates>121.5084637,25.0329789,0</coordinates></Point></Placemark>
<Placemark><name>肉-91 珊瑚鳳梨</name><Point><coordinates>121.5084448,25.0330518,0</coordinates></Point></Placemark>
<Placemark><name>肉-92 錦盃閣</name><Point><coordinates>121.5083037,25.0331529,0</coordinates></Point></Placemark>
<Placemark><name>肉-93 刺葉王蘭</name><Point><coordinates>121.5085209,25.0330168,0</coordinates></Point></Placemark>
<Placemark><name>肉-94 大葉田香草</name><Point><coordinates>121.5084993,25.0329864,0</coordinates></Point></Placemark>
<Placemark><name>肉-95 大鄧伯</name><Point><coordinates>121.5082122,25.0329378,0</coordinates></Point></Placemark>
<Placemark><name>肉-96 紅龍角</name><Point><coordinates>121.5082993,25.0331589,0</coordinates></Point></Placemark>
<Placemark><name>肉-97 武藏野</name><Point><coordinates>121.5082857,25.0331553,0</coordinates></Point></Placemark>
<Placemark><name>肉-98 紅花石蒜</name><Point><coordinates>121.5085525,25.0330787,0</coordinates></Point></Placemark>
<Placemark><name>肉-99 縞馬</name><Point><coordinates>121.5082640,25.0331371,0</coordinates></Point></Placemark>
<Placemark><name>肉-100 山葛</name><Point><coordinates>121.5085388,25.0332294,0</coordinates></Point></Placemark>
<Placemark><name>肉-101 月桃</name><Point><coordinates>121.5084784,25.0331638,0</coordinates></Point></Placemark>
<Placemark><name>肉-103 細葉雀翹</name><Point><coordinates>121.5084833,25.0330036,0</coordinates></Point></Placemark>
<Placemark><name>肉-104 蔓蘘荷</name><Point><coordinates>121.5084269,25.0330060,0</coordinates></Point></Placemark>
<Placemark><name>肉-105 雪絹</name><Point><coordinates>121.5082618,25.0330887,0</coordinates></Point></Placemark>
<Placemark><name>肉-106 香水毬蘭</name><Point><coordinates>121.5083395,25.0331349,0</coordinates></Point></Placemark>
<Placemark><name>肉-107 曇花</name><Point><coordinates>121.5083407,25.0331081,0</coordinates></Point></Placemark>
<Placemark><name>肉-108 水蓑衣</name><Point><coordinates>121.5084546,25.0330158,0</coordinates></Point></Placemark>
<Placemark><name>肉-109 鐘樓閣</name><Point><coordinates>121.5082949,25.0330425,0</coordinates></Point></Placemark>
<Placemark><name>肉-110 德雷</name><Point><coordinates>121.5082666,25.0330389,0</coordinates></Point></Placemark>
<Placemark><name>肉-111 無刺麒麟花</name><Point><coordinates>121.5082464,25.0330486,0</coordinates></Point></Placemark>
<Placemark><name>蜜-06 瓜葉馬兜鈴</name><Point><coordinates>121.5088735,25.0327681,0</coordinates></Point></Placemark>
<Placemark><name>蜜-07 異葉馬兜鈴</name><Point><coordinates>121.5089163,25.0327875,0</coordinates></Point></Placemark>
<Placemark><name>蜜-22 垂筒草</name><Point><coordinates>121.5088437,25.0327049,0</coordinates></Point></Placemark>
<Placemark><name>蜜-25 台灣百合</name><Point><coordinates>121.5089227,25.0327584,0</coordinates></Point></Placemark>
<Placemark><name>蜜-28 安石榴</name><Point><coordinates>121.5088850,25.0327900,0</coordinates></Point></Placemark>
<Placemark><name>蜜-31 白苦柱</name><Point><coordinates>121.5089385,25.0329078,0</coordinates></Point></Placemark>
<Placemark><name>蜜-32 羊蹄</name><Point><coordinates>121.5090095,25.0329042,0</coordinates></Point></Placemark>
<Placemark><name>蜜-34 六眼西番蓮</name><Point><coordinates>121.5089045,25.0328801,0</coordinates></Point></Placemark>
<Placemark><name>蜜-35 半果樹</name><Point><coordinates>121.5088735,25.0326784,0</coordinates></Point></Placemark>
<Placemark><name>蜜-36 巨花馬兜鈴</name><Point><coordinates>121.5089820,25.0327926,0</coordinates></Point></Placemark>
<Placemark><name>蜜-37 木胡瓜</name><Point><coordinates>121.5090101,25.0330162,0</coordinates></Point></Placemark>
<Placemark><name>蜜-39 琉球薔薇</name><Point><coordinates>121.5089375,25.0328850,0</coordinates></Point></Placemark>
<Placemark><name>蜜-42 高士佛澤蘭</name><Point><coordinates>121.5088932,25.0328121,0</coordinates></Point></Placemark>
<Placemark><name>蜜-44 瓊崖海棠</name><Point><coordinates>121.5088300,25.0329615,0</coordinates></Point></Placemark>
<Placemark><name>蜜-45 蝙蝠葉西番蓮</name><Point><coordinates>121.5089560,25.0327464,0</coordinates></Point></Placemark>
<Placemark><name>蜜-46 鵝鑾鼻鐵線蓮</name><Point><coordinates>121.5089625,25.0328765,0</coordinates></Point></Placemark>
<Placemark><name>蜜-47 平伏莖白花菜</name><Point><coordinates>121.5088592,25.0327404,0</coordinates></Point></Placemark>
<Placemark><name>蜜-48 小葉桑</name><Point><coordinates>121.5090922,25.0330930,0</coordinates></Point></Placemark>
<Placemark><name>蜜-49 散穗弓果黍</name><Point><coordinates>121.5089741,25.0330322,0</coordinates></Point></Placemark>
<Placemark><name>蜜-50 龍骨瓣杏菜</name><Point><coordinates>121.5089243,25.0329812,0</coordinates></Point></Placemark>
<Placemark><name>蜜-51 三葉五加</name><Point><coordinates>121.5089819,25.0328779,0</coordinates></Point></Placemark>
<Placemark><name>蜜-53 馬蜂橙</name><Point><coordinates>121.5090165,25.0330687,0</coordinates></Point></Placemark>
<Placemark><name>蕨-07 白頭天胡荽</name><Point><coordinates>121.5084040,25.0329117,0</coordinates></Point></Placemark>
<Placemark><name>蕨-10 構樹</name><Point><coordinates>121.5085165,25.0329092,0</coordinates></Point></Placemark>
<Placemark><name>蕨-11 珠芽狗脊蕨</name><Point><coordinates>121.5082415,25.0329250,0</coordinates></Point></Placemark>
<Placemark><name>蕨-12 石斛蘭</name><Point><coordinates>121.5084331,25.0327828,0</coordinates></Point></Placemark>
<Placemark><name>蕨-18 蟠龍石斛</name><Point><coordinates>121.5084572,25.0327865,0</coordinates></Point></Placemark>
<Placemark><name>蕨-19 蟠龍石斛蘭</name><Point><coordinates>121.5085630,25.0327950,0</coordinates></Point></Placemark>
<Placemark><name>蕨-20 豬毛草</name><Point><coordinates>121.5084543,25.0329420,0</coordinates></Point></Placemark>
<Placemark><name>蕨-23 風藤</name><Point><coordinates>121.5084112,25.0327391,0</coordinates></Point></Placemark>
<Placemark><name>蕨-24 黃花夾竹桃</name><Point><coordinates>121.5083642,25.0328169,0</coordinates></Point></Placemark>
<Placemark><name>蕨-26 密毛小毛蕨</name><Point><coordinates>121.5085934,25.0328570,0</coordinates></Point></Placemark>
<Placemark><name>蕨-28 涼喉茶</name><Point><coordinates>121.5084134,25.0328037,0</coordinates></Point></Placemark>
<Placemark><name>蕨-31 連珠蕨</name><Point><coordinates>121.5086305,25.0328621,0</coordinates></Point></Placemark>
<Placemark><name>蕨-32 半邊羽裂鳳尾蕨</name><Point><coordinates>121.5086613,25.0329374,0</coordinates></Point></Placemark>
<Placemark><name>蕨-35 崖薑蕨</name><Point><coordinates>121.5085230,25.0327770,0</coordinates></Point></Placemark>
<Placemark><name>蕨-36 海南實蕨</name><Point><coordinates>121.5083392,25.0327636,0</coordinates></Point></Placemark>
<Placemark><name>蕨-37 海岸星蕨</name><Point><coordinates>121.5085630,25.0327770,0</coordinates></Point></Placemark>
<Placemark><name>蕨-38 石栗</name><Point><coordinates>121.5083644,25.0327806,0</coordinates></Point></Placemark>
<Placemark><name>蕨-39 蘭嶼沙欏</name><Point><coordinates>121.5086030,25.0327770,0</coordinates></Point></Placemark>
<Placemark><name>蕨-40 觀音座蓮</name><Point><coordinates>121.5086364,25.0328864,0</coordinates></Point></Placemark>
<Placemark><name>蕨-41 全緣貫眾蕨</name><Point><coordinates>121.5083560,25.0327454,0</coordinates></Point></Placemark>
<Placemark><name>蕨-42 戟葉黑心蕨</name><Point><coordinates>121.5084322,25.0327189,0</coordinates></Point></Placemark>
<Placemark><name>蕨-43 擬烏毛蕨</name><Point><coordinates>121.5083247,25.0328356,0</coordinates></Point></Placemark>
<Placemark><name>蕨-44 田字草</name><Point><coordinates>121.5083702,25.0328829,0</coordinates></Point></Placemark>
<Placemark><name>蕨-45 腎蕨</name><Point><coordinates>121.5084278,25.0327359,0</coordinates></Point></Placemark>
<Placemark><name>蕨-46 針房藤</name><Point><coordinates>121.5086570,25.0328817,0</coordinates></Point></Placemark>
<Placemark><name>蕨-47 白斑水鴨腳</name><Point><coordinates>121.5085442,25.0327930,0</coordinates></Point></Placemark>
<Placemark><name>蕨-48 過溝菜蕨</name><Point><coordinates>121.5087614,25.0329461,0</coordinates></Point></Placemark>
<Placemark><name>蕨-49 水蕨</name><Point><coordinates>121.5086781,25.0330300,0</coordinates></Point></Placemark>
<Placemark><name>蕨-50 海金沙</name><Point><coordinates>121.5086337,25.0329255,0</coordinates></Point></Placemark>
<Placemark><name>蕨-51 白花蛇舌草</name><Point><coordinates>121.5086430,25.0327590,0</coordinates></Point></Placemark>
<Placemark><name>蕨-52 鹵蕨</name><Point><coordinates>121.5083839,25.0328892,0</coordinates></Point></Placemark>
<Placemark><name>蕨-53 鹿角蕨</name><Point><coordinates>121.5086734,25.0328139,0</coordinates></Point></Placemark>
<Placemark><name>蕨-54 尖葉鹵蕨</name><Point><coordinates>121.5088879,25.0329719,0</coordinates></Point></Placemark>
<Placemark><name>蕨-55 蘇鐵蕨</name><Point><coordinates>121.5085418,25.0329536,0</coordinates></Point></Placemark>
<Placemark><name>蕨-56 傅氏鳳尾蕨</name><Point><coordinates>121.5085014,25.0327410,0</coordinates></Point></Placemark>
<Placemark><name>蕨-57 台灣山蘇花</name><Point><coordinates>121.5085523,25.0327422,0</coordinates></Point></Placemark>
<Placemark><name>蕨-58 大星蕨</name><Point><coordinates>121.5085978,25.0328176,0</coordinates></Point></Placemark>
<Placemark><name>蕨-59 小葉複葉耳蕨</name><Point><coordinates>121.5083026,25.0327787,0</coordinates></Point></Placemark>
<Placemark><name>蕨-60 尾葉實蕨</name><Point><coordinates>121.5083896,25.0327374,0</coordinates></Point></Placemark>
<Placemark><name>蕨-61 德氏雙蓋蕨</name><Point><coordinates>121.5086269,25.0328151,0</coordinates></Point></Placemark>
<Placemark><name>蕨-62 星蕨</name><Point><coordinates>121.5086508,25.0328457,0</coordinates></Point></Placemark>
<Placemark><name>蕨-63 梅山口鐵線蕨</name><Point><coordinates>121.5085675,25.0328409,0</coordinates></Point></Placemark>
<Placemark><name>蕨-64 異葉卷柏</name><Point><coordinates>121.5082576,25.0328482,0</coordinates></Point></Placemark>
<Placemark><name>蕨-65 網脈突齒蕨</name><Point><coordinates>121.5087215,25.0327667,0</coordinates></Point></Placemark>
<Placemark><name>蕨-66 翅柄三叉蕨</name><Point><coordinates>121.5086449,25.0328311,0</coordinates></Point></Placemark>
<Placemark><name>蕨-67 翠雲草</name><Point><coordinates>121.5082465,25.0328785,0</coordinates></Point></Placemark>
<Placemark><name>蕨-68 脆鐵線蕨</name><Point><coordinates>121.5086112,25.0328336,0</coordinates></Point></Placemark>
<Placemark><name>蕨-69 萊氏線蕨</name><Point><coordinates>121.5086768,25.0328518,0</coordinates></Point></Placemark>
<Placemark><name>蕨-70 蘭嶼觀音座蓮</name><Point><coordinates>121.5087330,25.0329624,0</coordinates></Point></Placemark>
<Placemark><name>蕨-71 野小毛蕨</name><Point><coordinates>121.5086350,25.0327838,0</coordinates></Point></Placemark>
<Placemark><name>蕨-72 長尾鐵線蕨</name><Point><coordinates>121.5084576,25.0327317,0</coordinates></Point></Placemark>
<Placemark><name>蕨-73 長葉腎蕨</name><Point><coordinates>121.5084736,25.0327172,0</coordinates></Point></Placemark>
<Placemark><name>蕨-74 闊葉骨碎補</name><Point><coordinates>121.5086894,25.0327354,0</coordinates></Point></Placemark>
<Placemark><name>蕨-75 鞭葉耳蕨</name><Point><coordinates>121.5086638,25.0327099,0</coordinates></Point></Placemark>
<Placemark><name>蕨-76 馬鞍山雙蓋蕨</name><Point><coordinates>121.5086677,25.0327888,0</coordinates></Point></Placemark>
<Placemark><name>澳-11 細葉桉</name><Point><coordinates>121.5081419,25.0321454,0</coordinates></Point></Placemark>
<Placemark><name>澳-15 地蠶</name><Point><coordinates>121.5080506,25.0322001,0</coordinates></Point></Placemark>
<Placemark><name>澳-19 狹瓣華八仙</name><Point><coordinates>121.5085963,25.0326789,0</coordinates></Point></Placemark>
<Placemark><name>澳-22 野鴉椿</name><Point><coordinates>121.5080705,25.0322050,0</coordinates></Point></Placemark>
<Placemark><name>澳-24 麗鶯鳳梨</name><Point><coordinates>121.5080677,25.0329486,0</coordinates></Point></Placemark>
<Placemark><name>澳-27 廣東萬年青</name><Point><coordinates>121.5080863,25.0325124,0</coordinates></Point></Placemark>
<Placemark><name>澳-31 臺灣梭羅樹</name><Point><coordinates>121.5081277,25.0322876,0</coordinates></Point></Placemark>
<Placemark><name>澳-34 黃福欖</name><Point><coordinates>121.5082832,25.0327202,0</coordinates></Point></Placemark>
<Placemark><name>澳-36 山欖</name><Point><coordinates>121.5081865,25.0322305,0</coordinates></Point></Placemark>
<Placemark><name>澳-39 蘭嶼野櫻花</name><Point><coordinates>121.5079877,25.0327654,0</coordinates></Point></Placemark>
<Placemark><name>澳-42 大花紫薇</name><Point><coordinates>121.5082129,25.0328030,0</coordinates></Point></Placemark>
<Placemark><name>澳-43 小葉赤楠</name><Point><coordinates>121.5082061,25.0320800,0</coordinates></Point></Placemark>
<Placemark><name>澳-44 巒大雀梅藤</name><Point><coordinates>121.5084447,25.0325223,0</coordinates></Point></Placemark>
<Placemark><name>澳-46 穗花棋盤腳</name><Point><coordinates>121.5084848,25.0326767,0</coordinates></Point></Placemark>
<Placemark><name>澳-47 蘭嶼木藍</name><Point><coordinates>121.5080341,25.0327131,0</coordinates></Point></Placemark>
<Placemark><name>澳-48 小葉樫木</name><Point><coordinates>121.5080527,25.0322793,0</coordinates></Point></Placemark>
<Placemark><name>澳-49 檸檬桉</name><Point><coordinates>121.5083409,25.0323230,0</coordinates></Point></Placemark>
<Placemark><name>澳-51 托列里桉</name><Point><coordinates>121.5081221,25.0321541,0</coordinates></Point></Placemark>
<Placemark><name>澳-52 彩虹桉</name><Point><coordinates>121.5080467,25.0325748,0</coordinates></Point></Placemark>
<Placemark><name>澳-53 複羽葉欒樹</name><Point><coordinates>121.5084261,25.0323780,0</coordinates></Point></Placemark>
<Placemark><name>澳-54 長穗木</name><Point><coordinates>121.5082181,25.0324654,0</coordinates></Point></Placemark>
<Placemark><name>澳-55 台灣梭羅木</name><Point><coordinates>121.5080719,25.0328166,0</coordinates></Point></Placemark>
<Placemark><name>澳-57 朱蕉</name><Point><coordinates>121.5080663,25.0321653,0</coordinates></Point></Placemark>
<Placemark><name>肖-12 筆筒樹</name><Point><coordinates>121.5089267,25.0324040,0</coordinates></Point></Placemark>
<Placemark><name>肖-16 黃花鼠尾草</name><Point><coordinates>121.5088730,25.0322886,0</coordinates></Point></Placemark>
<Placemark><name>肖-18 天胡荽</name><Point><coordinates>121.5088380,25.0324174,0</coordinates></Point></Placemark>
<Placemark><name>肖-21 牛樟</name><Point><coordinates>121.5089344,25.0323299,0</coordinates></Point></Placemark>
<Placemark><name>肖-25 馬蹄金</name><Point><coordinates>121.5088430,25.0324551,0</coordinates></Point></Placemark>
<Placemark><name>肖-26 四葉蘿芙木</name><Point><coordinates>121.5089180,25.0324429,0</coordinates></Point></Placemark>
<Placemark><name>肖-27 瓶爾小草</name><Point><coordinates>121.5088777,25.0323141,0</coordinates></Point></Placemark>
<Placemark><name>肖-28 羊奶埔</name><Point><coordinates>121.5089406,25.0324818,0</coordinates></Point></Placemark>
<Placemark><name>肖-32 台灣狗娃花</name><Point><coordinates>121.5088171,25.0325389,0</coordinates></Point></Placemark>
<Placemark><name>肖-36 牛筋草</name><Point><coordinates>121.5089509,25.0323119,0</coordinates></Point></Placemark>
<Placemark><name>肖-41 雞蛋花</name><Point><coordinates>121.5089038,25.0324261,0</coordinates></Point></Placemark>
<Placemark><name>肖-42 香椿</name><Point><coordinates>121.5089547,25.0324249,0</coordinates></Point></Placemark>
<Placemark><name>肖-44 蒼耳</name><Point><coordinates>121.5088887,25.0324614,0</coordinates></Point></Placemark>
<Placemark><name>肖-45 馬蘭</name><Point><coordinates>121.5088162,25.0324492,0</coordinates></Point></Placemark>
<Placemark><name>肖-46 龍牙草</name><Point><coordinates>121.5088550,25.0323775,0</coordinates></Point></Placemark>
<Placemark><name>肖-48 水同木</name><Point><coordinates>121.5088856,25.0325051,0</coordinates></Point></Placemark>
<Placemark><name>肖-49 牛乳榕</name><Point><coordinates>121.5089378,25.0322925,0</coordinates></Point></Placemark>
<Placemark><name>肖-50 白千層</name><Point><coordinates>121.5089402,25.0324458,0</coordinates></Point></Placemark>
<Placemark><name>肖-51 刺茄</name><Point><coordinates>121.5088408,25.0322866,0</coordinates></Point></Placemark>
<Placemark><name>肖-52 老虎心</name><Point><coordinates>121.5088179,25.0322975,0</coordinates></Point></Placemark>
<Placemark><name>肖-53 榔榆</name><Point><coordinates>121.5089626,25.0323948,0</coordinates></Point></Placemark>
<Placemark><name>肖-54 盤龍木</name><Point><coordinates>121.5088418,25.0323899,0</coordinates></Point></Placemark>
<Placemark><name>肖-55 紫莖牛膝</name><Point><coordinates>121.5089651,25.0322793,0</coordinates></Point></Placemark>
<Placemark><name>肖-56 華蔓首烏</name><Point><coordinates>121.5088416,25.0323559,0</coordinates></Point></Placemark>
<Placemark><name>肖-58 匍匐微耳草</name><Point><coordinates>121.5089245,25.0323085,0</coordinates></Point></Placemark>
<Placemark><name>肖-59 鼠尾粟</name><Point><coordinates>121.5088479,25.0323061,0</coordinates></Point></Placemark>
<Placemark><name>肖-08 鳳梨鼠尾草</name><Point><coordinates>121.5088880,25.0322750,0</coordinates></Point></Placemark>
<Placemark><name>澳-03 草野氏冬青</name><Point><coordinates>121.5084190,25.0325100,0</coordinates></Point></Placemark>
<Placemark><name>蜜-05 日本衛矛</name><Point><coordinates>121.5088690,25.0327590,0</coordinates></Point></Placemark>
<Placemark><name>蜜-02 南越馬兜鈴</name><Point><coordinates>121.5088380,25.0327550,0</coordinates></Point></Placemark>
<Placemark><name>蜜-04 大果胡頹子</name><Point><coordinates>121.5090092,25.0330069,0</coordinates></Point></Placemark>
<Placemark><name>肉-13 霸王鞭</name><Point><coordinates>121.5086655,25.0331485,0</coordinates></Point></Placemark>
<Placemark><name>蕨-03 珊瑚樹</name><Point><coordinates>121.5082344,25.0328793,0</coordinates></Point></Placemark>
<Placemark><name>肉-12 #2 錦鹿丹</name><Point><coordinates>121.5083140,25.0330470,0</coordinates></Point></Placemark>
<Placemark><name>肖-03 桃葉珊瑚</name><Point><coordinates>121.5088156,25.0323416,0</coordinates></Point></Placemark>
<Placemark><name>肖-05 蛇莓</name><Point><coordinates>121.5089150,25.0323490,0</coordinates></Point></Placemark>
<Placemark><name>肖-07 馬利筋</name><Point><coordinates>121.5088450,25.0323900,0</coordinates></Point></Placemark>
<Placemark><name>澳-08 黃金蒲桃</name><Point><coordinates>121.5082150,25.0320990,0</coordinates></Point></Placemark>
<Placemark><name>澳-07 蘭嶼胡頹子</name><Point><coordinates>121.5082196,25.0327618,0</coordinates></Point></Placemark>
<Placemark><name>肉-04 圓葉母草</name><Point><coordinates>121.5085740,25.0330160,0</coordinates></Point></Placemark>
<Placemark><name>蜜-12 雨傘仔</name><Point><coordinates>121.5088100,25.0329240,0</coordinates></Point></Placemark>
<Placemark><name>蜜-12 #2 雨傘仔</name><Point><coordinates>121.5107090,25.0324720,0</coordinates></Point></Placemark>
<Placemark><name>肉-03 台灣油點草</name><Point><coordinates>121.5086170,25.0330040,0</coordinates></Point></Placemark>
<Placemark><name>肉-10 粉黃纓絨花</name><Point><coordinates>121.5086960,25.0330380,0</coordinates></Point></Placemark>
<Placemark><name>肉-08 水丁香</name><Point><coordinates>121.5089340,25.0329960,0</coordinates></Point></Placemark>
<Placemark><name>澳-02 美麗刺桐</name><Point><coordinates>121.5080962,25.0329324,0</coordinates></Point></Placemark>
<Placemark><name>澳-01 含笑</name><Point><coordinates>121.5080764,25.0327261,0</coordinates></Point></Placemark>
<Placemark><name>蕨-01 #2 台灣野牡丹藤</name><Point><coordinates>121.5082191,25.0329146,0</coordinates></Point></Placemark>
<Placemark><name>澳-04 菲律賓胡頹子</name><Point><coordinates>121.5081402,25.0327562,0</coordinates></Point></Placemark>
<Placemark><name>蜜-08 笑靨花</name><Point><coordinates>121.5087700,25.0330550,0</coordinates></Point></Placemark>
<Placemark><name>肉-01 三角霸王鞭</name><Point><coordinates>121.5086120,25.0331340,0</coordinates></Point></Placemark>
<Placemark><name>蕨-02 油點木</name><Point><coordinates>121.5085524,25.0329474,0</coordinates></Point></Placemark>
<Placemark><name>蕨-02 #2 油點木</name><Point><coordinates>121.5084961,25.0327940,0</coordinates></Point></Placemark>
<Placemark><name>肉-14 食用蠟燭木</name><Point><coordinates>121.5088050,25.0331230,0</coordinates></Point></Placemark>
<Placemark><name>蜜-03 厚皮香</name><Point><coordinates>121.5088320,25.0327310,0</coordinates></Point></Placemark>
<Placemark><name>蜜-03 #2 厚皮香</name><Point><coordinates>121.5085110,25.0329638,0</coordinates></Point></Placemark>
<Placemark><name>蕨-04 長筒莢迷</name><Point><coordinates>121.5083768,25.0327331,0</coordinates></Point></Placemark>
<Placemark><name>肉-07 松葉蕨</name><Point><coordinates>121.5086735,25.0329386,0</coordinates></Point></Placemark>
<Placemark><name>肉-06 天蓬草</name><Point><coordinates>121.5086360,25.0330240,0</coordinates></Point></Placemark>
<Placemark><name>肉-02 兔兒菜</name><Point><coordinates>121.5086630,25.0330300,0</coordinates></Point></Placemark>
<Placemark><name>肉-28 麒麟花</name><Point><coordinates>121.5084110,25.0331320,0</coordinates></Point></Placemark>
<Placemark><name>澳-06 藤胡頹子</name><Point><coordinates>121.5080919,25.0328740,0</coordinates></Point></Placemark>
<Placemark><name>澳-05 蓬萊胡頹子</name><Point><coordinates>121.5081609,25.0328627,0</coordinates></Point></Placemark>
<Placemark><name>澳-10 台灣湖頹子</name><Point><coordinates>121.5081863,25.0327964,0</coordinates></Point></Placemark>
<Placemark><name>肉-19 斑葉紅筆鳳梨</name><Point><coordinates>121.5098275,25.0326096,0</coordinates></Point></Placemark>
<Placemark><name>蜜-15 小桑樹</name><Point><coordinates>121.5091300,25.0329784,0</coordinates></Point></Placemark>
<Placemark><name>肉-26 翼莖水芹菜</name><Point><coordinates>121.5086190,25.0330150,0</coordinates></Point></Placemark>
<Placemark><name>肉-16 內苳子</name><Point><coordinates>121.5086454,25.0332286,0</coordinates></Point></Placemark>
<Placemark><name>肉-16 #2 內苳子</name><Point><coordinates>121.5099381,25.0316845,0</coordinates></Point></Placemark>
<Placemark><name>肉-22 水柳</name><Point><coordinates>121.5084860,25.0330400,0</coordinates></Point></Placemark>
<Placemark><name>肉-22 #2 水柳</name><Point><coordinates>121.5113360,25.0322000,0</coordinates></Point></Placemark>
<Placemark><name>肉-22 #3 水柳</name><Point><coordinates>121.5106010,25.0322620,0</coordinates></Point></Placemark>
<Placemark><name>蜜-11 虎葛</name><Point><coordinates>121.5089490,25.0327870,0</coordinates></Point></Placemark>
<Placemark><name>澳-14 金黃百合竹</name><Point><coordinates>121.5081167,25.0319880,0</coordinates></Point></Placemark>
<Placemark><name>肖-14 雞母珠</name><Point><coordinates>121.5089070,25.0323870,0</coordinates></Point></Placemark>
<Placemark><name>澳-13 軟毛柿</name><Point><coordinates>121.5082590,25.0323480,0</coordinates></Point></Placemark>
<Placemark><name>肉-15 三尖葉西番蓮</name><Point><coordinates>121.5082530,25.0329920,0</coordinates></Point></Placemark>
<Placemark><name>肉-15 #2 三尖葉西番蓮</name><Point><coordinates>121.5089120,25.0328310,0</coordinates></Point></Placemark>
<Placemark><name>蕨-06 番仔林投</name><Point><coordinates>121.5085620,25.0328440,0</coordinates></Point></Placemark>
<Placemark><name>肉-18 台灣水韭</name><Point><coordinates>121.5084544,25.0329457,0</coordinates></Point></Placemark>
<Placemark><name>蜜-20 龍骨瓣莕菜</name><Point><coordinates>121.5104450,25.0318030,0</coordinates></Point></Placemark>
<Placemark><name>澳-09 串錢柳</name><Point><coordinates>121.5089660,25.0323290,0</coordinates></Point></Placemark>
<Placemark><name>澳-09 #2 串錢柳</name><Point><coordinates>121.5080069,25.0327216,0</coordinates></Point></Placemark>
<Placemark><name>肖-11 環翅馬齒莧</name><Point><coordinates>121.5088400,25.0323320,0</coordinates></Point></Placemark>
<Placemark><name>蜜-18 煙斗馬兜鈴</name><Point><coordinates>121.5088350,25.0327940,0</coordinates></Point></Placemark>
<Placemark><name>蜜-14 密花苧麻</name><Point><coordinates>121.5089407,25.0329122,0</coordinates></Point></Placemark>
<Placemark><name>肉-23 牛軛草</name><Point><coordinates>121.5111260,25.0322660,0</coordinates></Point></Placemark>
<Placemark><name>蜜-17 澤假藿香薊</name><Point><coordinates>121.5089190,25.0329300,0</coordinates></Point></Placemark>
<Placemark><name>肉-24 猿戀葦</name><Point><coordinates>121.5083625,25.0331332,0</coordinates></Point></Placemark>
<Placemark><name>肉-17 卡州滿江紅</name><Point><coordinates>121.5084385,25.0329322,0</coordinates></Point></Placemark>
<Placemark><name>肉-11 金剛纂</name><Point><coordinates>121.5087399,25.0331620,0</coordinates></Point></Placemark>
<Placemark><name>肖-22 狗骨仔</name><Point><coordinates>121.5088286,25.0324754,0</coordinates></Point></Placemark>
<Placemark><name>蜜-19 阿拉伯婆婆納</name><Point><coordinates>121.5088420,25.0328410,0</coordinates></Point></Placemark>
<Placemark><name>肉-40 長序木通</name><Point><coordinates>121.5081020,25.0329860,0</coordinates></Point></Placemark>
<Placemark><name>肖-13 豬殃殃</name><Point><coordinates>121.5088930,25.0324860,0</coordinates></Point></Placemark>
<Placemark><name>蕨-09 #2 地耳草</name><Point><coordinates>121.5083868,25.0328909,0</coordinates></Point></Placemark>
<Placemark><name>蜜-23 洋紅風鈴木</name><Point><coordinates>121.5089432,25.0331078,0</coordinates></Point></Placemark>
<Placemark><name>蜜-16 李花</name><Point><coordinates>121.5088950,25.0329790,0</coordinates></Point></Placemark>
<Placemark><name>肖-17 南國小薊</name><Point><coordinates>121.5088930,25.0324370,0</coordinates></Point></Placemark>
<Placemark><name>蜜-21 單子蒲桃</name><Point><coordinates>121.5089130,25.0327770,0</coordinates></Point></Placemark>
<Placemark><name>蕨-13 紫珠</name><Point><coordinates>121.5087702,25.0329328,0</coordinates></Point></Placemark>
<Placemark><name>蕨-13 #2 紫珠</name><Point><coordinates>121.5092493,25.0328629,0</coordinates></Point></Placemark>
<Placemark><name>肉-36 細葉彈簧草</name><Point><coordinates>121.5083511,25.0330696,0</coordinates></Point></Placemark>
<Placemark><name>肉-39 野慈姑</name><Point><coordinates>121.5086620,25.0330310,0</coordinates></Point></Placemark>
<Placemark><name>肖-01 台灣蛇莓</name><Point><coordinates>121.5089230,25.0323590,0</coordinates></Point></Placemark>
<Placemark><name>肉-34 毛女貞</name><Point><coordinates>121.5086710,25.0330150,0</coordinates></Point></Placemark>
<Placemark><name>肖-19 奧氏虎皮楠</name><Point><coordinates>121.5088960,25.0322670,0</coordinates></Point></Placemark>
<Placemark><name>肖-20 山豬肉</name><Point><coordinates>121.5088800,25.0325130,0</coordinates></Point></Placemark>
<Placemark><name>澳-23 鸚鵡鳳梨</name><Point><coordinates>121.5080796,25.0329411,0</coordinates></Point></Placemark>
<Placemark><name>肉-30 垂柳</name><Point><coordinates>121.5087410,25.0330990,0</coordinates></Point></Placemark>
<Placemark><name>肉-33 小刺桐</name><Point><coordinates>121.5085368,25.0331911,0</coordinates></Point></Placemark>
<Placemark><name>澳-21 菱葉柿</name><Point><coordinates>121.5083735,25.0324291,0</coordinates></Point></Placemark>
<Placemark><name>澳-16 柚子</name><Point><coordinates>121.5080723,25.0325634,0</coordinates></Point></Placemark>
<Placemark><name>肖-24 鋭葉牽牛</name><Point><coordinates>121.5089710,25.0330590,0</coordinates></Point></Placemark>
<Placemark><name>澳-20 百部</name><Point><coordinates>121.5082400,25.0321480,0</coordinates></Point></Placemark>
<Placemark><name>澳-18 燈稱花</name><Point><coordinates>121.5108160,25.0324770,0</coordinates></Point></Placemark>
<Placemark><name>蕨-21 豹紋蘭</name><Point><coordinates>121.5086096,25.0328524,0</coordinates></Point></Placemark>
<Placemark><name>蜜-13 黃楊</name><Point><coordinates>121.5088720,25.0328410,0</coordinates></Point></Placemark>
<Placemark><name>蕨-05 台灣山桂花</name><Point><coordinates>121.5085020,25.0327290,0</coordinates></Point></Placemark>
<Placemark><name>肉-42 大葉榖精草</name><Point><coordinates>121.5086690,25.0330500,0</coordinates></Point></Placemark>
<Placemark><name>肉-51 細葉零餘子</name><Point><coordinates>121.5086880,25.0330410,0</coordinates></Point></Placemark>
<Placemark><name>澳-33 長紅木</name><Point><coordinates>121.5080192,25.0322280,0</coordinates></Point></Placemark>
<Placemark><name>蜜-29 小金櫻</name><Point><coordinates>121.5089882,25.0328594,0</coordinates></Point></Placemark>
<Placemark><name>肉-37 蘭嶼血藤</name><Point><coordinates>121.5082778,25.0330396,0</coordinates></Point></Placemark>
<Placemark><name>肉-56 血桐</name><Point><coordinates>121.5101501,25.0333440,0</coordinates></Point></Placemark>
<Placemark><name>肉-56 #2 血桐</name><Point><coordinates>121.5084518,25.0332608,0</coordinates></Point></Placemark>
<Placemark><name>肉-46 摺墨</name><Point><coordinates>121.5083160,25.0330910,0</coordinates></Point></Placemark>
<Placemark><name>肖-30 龍眼</name><Point><coordinates>121.5088490,25.0323420,0</coordinates></Point></Placemark>
<Placemark><name>蕨-22 錫蘭饅頭果</name><Point><coordinates>121.5105000,25.0326070,0</coordinates></Point></Placemark>
<Placemark><name>蕨-16 穗花蕨</name><Point><coordinates>121.5084100,25.0328030,0</coordinates></Point></Placemark>
<Placemark><name>蜜-24 三儉草</name><Point><coordinates>121.5089320,25.0329860,0</coordinates></Point></Placemark>
<Placemark><name>肉-32 天藍苜蓿</name><Point><coordinates>121.5085883,25.0330164,0</coordinates></Point></Placemark>
<Placemark><name>肉-50 石龍芮</name><Point><coordinates>121.5085050,25.0330020,0</coordinates></Point></Placemark>
<Placemark><name>澳-28 楓港柿</name><Point><coordinates>121.5097010,25.0322460,0</coordinates></Point></Placemark>
<Placemark><name>肉-45 恰帕斯龍舌蘭</name><Point><coordinates>121.5087005,25.0331241,0</coordinates></Point></Placemark>
<Placemark><name>肖-06 雞冠刺桐</name><Point><coordinates>121.5089150,25.0323610,0</coordinates></Point></Placemark>
<Placemark><name>澳-29 橢圓葉赤楠</name><Point><coordinates>121.5081560,25.0329460,0</coordinates></Point></Placemark>
<Placemark><name>蜜-30 琉球野薔薇</name><Point><coordinates>121.5089361,25.0328721,0</coordinates></Point></Placemark>
<Placemark><name>肉-48 玉翁</name><Point><coordinates>121.5083368,25.0331091,0</coordinates></Point></Placemark>
<Placemark><name>肉-41 厚葉鳳梨</name><Point><coordinates>121.5083760,25.0330440,0</coordinates></Point></Placemark>
<Placemark><name>肖-38 鼠刺</name><Point><coordinates>121.5088580,25.0322860,0</coordinates></Point></Placemark>
<Placemark><name>澳-26 小葉樹杞</name><Point><coordinates>121.5082300,25.0324920,0</coordinates></Point></Placemark>
<Placemark><name>蕨-17 粗齒革葉紫萁</name><Point><coordinates>121.5082893,25.0327851,0</coordinates></Point></Placemark>
<Placemark><name>澳-32 蓮霧</name><Point><coordinates>121.5081786,25.0326078,0</coordinates></Point></Placemark>
<Placemark><name>肖-35 毛柿</name><Point><coordinates>121.5100749,25.0319026,0</coordinates></Point></Placemark>
<Placemark><name>蕨-25 天料木</name><Point><coordinates>121.5084276,25.0328630,0</coordinates></Point></Placemark>
<Placemark><name>蜜-27 大莞草</name><Point><coordinates>121.5089353,25.0329458,0</coordinates></Point></Placemark>
<Placemark><name>肉-57 金武扇仙人掌</name><Point><coordinates>121.5083959,25.0330699,0</coordinates></Point></Placemark>
<Placemark><name>肉-60 單刺仙人掌</name><Point><coordinates>121.5085079,25.0331707,0</coordinates></Point></Placemark>
<Placemark><name>肖-10 台灣馬醉木</name><Point><coordinates>121.5088650,25.0323460,0</coordinates></Point></Placemark>
<Placemark><name>蜜-40 福木（雌）</name><Point><coordinates>121.5087710,25.0327160,0</coordinates></Point></Placemark>
<Placemark><name>肉-68 蠅翼草</name><Point><coordinates>121.5086110,25.0330220,0</coordinates></Point></Placemark>
<Placemark><name>澳-40 黛粉葉</name><Point><coordinates>121.5080750,25.0322110,0</coordinates></Point></Placemark>
<Placemark><name>蕨-14 大葉春不老</name><Point><coordinates>121.5086810,25.0328010,0</coordinates></Point></Placemark>
<Placemark><name>蜜-41 華他卡藤</name><Point><coordinates>121.5089741,25.0328720,0</coordinates></Point></Placemark>
<Placemark><name>肖-37 馬茶花</name><Point><coordinates>121.5109875,25.0325216,0</coordinates></Point></Placemark>
<Placemark><name>肖-02 咬人狗</name><Point><coordinates>121.5088320,25.0324980,0</coordinates></Point></Placemark>
<Placemark><name>澳-37 楊桃</name><Point><coordinates>121.5081160,25.0325875,0</coordinates></Point></Placemark>
<Placemark><name>澳-35 呂宋毛蕊木</name><Point><coordinates>121.5080755,25.0327530,0</coordinates></Point></Placemark>
<Placemark><name>肖-15 高士佛紫金牛</name><Point><coordinates>121.5093669,25.0328566,0</coordinates></Point></Placemark>
<Placemark><name>肉-71 風箱樹</name><Point><coordinates>121.5085070,25.0329760,0</coordinates></Point></Placemark>
<Placemark><name>肖-29 苞花蔓</name><Point><coordinates>121.5088660,25.0325220,0</coordinates></Point></Placemark>
<Placemark><name>肉-72 龍王丸</name><Point><coordinates>121.5083294,25.0330832,0</coordinates></Point></Placemark>
<Placemark><name>肉-70 非洲霸王樹</name><Point><coordinates>121.5083648,25.0331021,0</coordinates></Point></Placemark>
<Placemark><name>蕨-29 芒萁</name><Point><coordinates>121.5086540,25.0329250,0</coordinates></Point></Placemark>
<Placemark><name>澳-30 直幹相思樹</name><Point><coordinates>121.5080096,25.0329399,0</coordinates></Point></Placemark>
<Placemark><name>蕨-27 旱田草</name><Point><coordinates>121.5089370,25.0323700,0</coordinates></Point></Placemark>
<Placemark><name>蜜-38 森氏紅淡比</name><Point><coordinates>121.5088290,25.0328390,0</coordinates></Point></Placemark>
<Placemark><name>肖-34 山豬枷</name><Point><coordinates>121.5088940,25.0324590,0</coordinates></Point></Placemark>
<Placemark><name>肖-40 羽葉兔尾草</name><Point><coordinates>121.5089160,25.0323220,0</coordinates></Point></Placemark>
<Placemark><name>肖-39 欖仁</name><Point><coordinates>121.5087300,25.0325950,0</coordinates></Point></Placemark>
<Placemark><name>肖-33 四葉羅芙木</name><Point><coordinates>121.5089370,25.0323700,0</coordinates></Point></Placemark>
<Placemark><name>澳-41 串鼻龍</name><Point><coordinates>121.5082438,25.0321834,0</coordinates></Point></Placemark>
<Placemark><name>蜜-26 咖哩樹</name><Point><coordinates>121.5089942,25.0330226,0</coordinates></Point></Placemark>
<Placemark><name>肉-85 黃荊</name><Point><coordinates>121.5087534,25.0330389,0</coordinates></Point></Placemark>
<Placemark><name>蕨-34 大對葉榕</name><Point><coordinates>121.5086220,25.0327430,0</coordinates></Point></Placemark>
<Placemark><name>肖-31 匍匐半插花</name><Point><coordinates>121.5089350,25.0322260,0</coordinates></Point></Placemark>
<Placemark><name>蜜-43 文殊蘭</name><Point><coordinates>121.5090920,25.0329660,0</coordinates></Point></Placemark>
<Placemark><name>肉-84 金棒王蘭</name><Point><coordinates>121.5085494,25.0330420,0</coordinates></Point></Placemark>
<Placemark><name>肉-79 紅筆鳳梨</name><Point><coordinates>121.5084250,25.0330964,0</coordinates></Point></Placemark>
<Placemark><name>蕨-33 坪林秋海棠</name><Point><coordinates>121.5084545,25.0328637,0</coordinates></Point></Placemark>
<Placemark><name>肉-73 大鄧伯花</name><Point><coordinates>121.5082152,25.0329455,0</coordinates></Point></Placemark>
<Placemark><name>蕨-30 菲律賓火筒樹</name><Point><coordinates>121.5084211,25.0327152,0</coordinates></Point></Placemark>
<Placemark><name>澳-45 樹杞</name><Point><coordinates>121.5115200,25.0322877,0</coordinates></Point></Placemark>
<Placemark><name>蜜-10 細纍子草</name><Point><coordinates>121.5111480,25.0321930,0</coordinates></Point></Placemark>
</Document></kml>