<?xml version="1.0" encoding="UTF-8"?>
<kml xmlns="http://www.opengis.net/kml/2.2"><Document><name>第3張 花點</name><description>補座標與既有花點合併為一層。名稱不要改。</description>
<Placemark><name>荷-09 楓香</name><Point><coordinates>121.5105036,25.0323217,0</coordinates></Point></Placemark>
<Placemark><name>荷-21 圓葉節節菜</name><Point><coordinates>121.5112571,25.0316619,0</coordinates></Point></Placemark>
<Placemark><name>荷-26 細葉百合竹</name><Point><coordinates>121.5104468,25.0316473,0</coordinates></Point></Placemark>
<Placemark><name>荷-32 南澳杜鵑</name><Point><coordinates>121.5101395,25.0314735,0</coordinates></Point></Placemark>
<Placemark><name>荷-35 日本女貞</name><Point><coordinates>121.5105243,25.0322293,0</coordinates></Point></Placemark>
<Placemark><name>荷-37 水竹葉</name><Point><coordinates>121.5113020,25.0316716,0</coordinates></Point></Placemark>
<Placemark><name>荷-45 船仔草</name><Point><coordinates>121.5105479,25.0323608,0</coordinates></Point></Placemark>
<Placemark><name>荷-48 蔓花生</name><Point><coordinates>121.5111687,25.0322320,0</coordinates></Point></Placemark>
<Placemark><name>荷-51 裂瓣朱槿</name><Point><coordinates>121.5112839,25.0317557,0</coordinates></Point></Placemark>
<Placemark><name>荷-52 阿里山燈心草</name><Point><coordinates>121.5113079,25.0316900,0</coordinates></Point></Placemark>
<Placemark><name>荷-53 韓國草</name><Point><coordinates>121.5113373,25.0316621,0</coordinates></Point></Placemark>
<Placemark><name>荷-56 小葉藜</name><Point><coordinates>121.5113627,25.0316803,0</coordinates></Point></Placemark>
<Placemark><name>荷-57 巴西鳶尾</name><Point><coordinates>121.5112727,25.0317715,0</coordinates></Point></Placemark>
<Placemark><name>荷-58 庭菖蒲</name><Point><coordinates>121.5117514,25.0320922,0</coordinates></Point></Placemark>
<Placemark><name>荷-59 廣東薔薇</name><Point><coordinates>121.5111934,25.0321761,0</coordinates></Point></Placemark>
<Placemark><name>荷-60 披針葉饅頭果</name><Point><coordinates>121.5109411,25.0324349,0</coordinates></Point></Placemark>
<Placemark><name>荷-66 火炭母草</name><Point><coordinates>121.5111769,25.0323938,0</coordinates></Point></Placemark>
<Placemark><name>荷-67 窄葉澤瀉</name><Point><coordinates>121.5113256,25.0316890,0</coordinates></Point></Placemark>
<Placemark><name>荷-68 紫蘇草</name><Point><coordinates>121.5112745,25.0316939,0</coordinates></Point></Placemark>
<Placemark><name>荷-72 黃槿</name><Point><coordinates>121.5114433,25.0319758,0</coordinates></Point></Placemark>
<Placemark><name>荷-79 大高良薑</name><Point><coordinates>121.5112795,25.0320828,0</coordinates></Point></Placemark>
<Placemark><name>荷-84 火球花</name><Point><coordinates>121.5107980,25.0323634,0</coordinates></Point></Placemark>
<Placemark><name>荷-89 蘭花美人蕉</name><Point><coordinates>121.5112900,25.0320499,0</coordinates></Point></Placemark>
<Placemark><name>荷-90 野薑花</name><Point><coordinates>121.5107870,25.0323221,0</coordinates></Point></Placemark>
<Placemark><name>荷-94 黃果垂榕</name><Point><coordinates>121.5103671,25.0320852,0</coordinates></Point></Placemark>
<Placemark><name>荷-95 點頭飄拂草</name><Point><coordinates>121.5113418,25.0316881,0</coordinates></Point></Placemark>
<Placemark><name>荷-100 大萍</name><Point><coordinates>121.5106349,25.0315143,0</coordinates></Point></Placemark>
<Placemark><name>荷-102 細葉麥門冬</name><Point><coordinates>121.5107890,25.0324439,0</coordinates></Point></Placemark>
<Placemark><name>荷-103 輪葉孿生花</name><Point><coordinates>121.5108131,25.0315520,0</coordinates></Point></Placemark>
<Placemark><name>荷-105 鴨舌草</name><Point><coordinates>121.5104722,25.0318120,0</coordinates></Point></Placemark>
<Placemark><name>荷-106 大萍</name><Point><coordinates>121.5112553,25.0323309,0</coordinates></Point></Placemark>
<Placemark><name>荷-107 心葉母草</name><Point><coordinates>121.5111693,25.0321486,0</coordinates></Point></Placemark>
<Placemark><name>荷-108 滿江紅</name><Point><coordinates>121.5105711,25.0322081,0</coordinates></Point></Placemark>
<Placemark><name>荷-109 澳洲鴨腳木</name><Point><coordinates>121.5109921,25.0323953,0</coordinates></Point></Placemark>
<Placemark><name>荷-111 藿香薊</name><Point><coordinates>121.5113001,25.0316591,0</coordinates></Point></Placemark>
<Placemark><name>荷-113 貓腥草</name><Point><coordinates>121.5111993,25.0317065,0</coordinates></Point></Placemark>
<Placemark><name>荷-114 金花石蒜</name><Point><coordinates>121.5105340,25.0323396,0</coordinates></Point></Placemark>
<Placemark><name>荷-115 土人參</name><Point><coordinates>121.5105768,25.0314999,0</coordinates></Point></Placemark>
<Placemark><name>荷-117 擬紫蘇草</name><Point><coordinates>121.5112887,25.0316931,0</coordinates></Point></Placemark>
<Placemark><name>荷-118 粗毛饑荒草</name><Point><coordinates>121.5112752,25.0316664,0</coordinates></Point></Placemark>
<Placemark><name>荷-120 南美朱槿</name><Point><coordinates>121.5113110,25.0317383,0</coordinates></Point></Placemark>
<Placemark><name>荷-121 小穀精草</name><Point><coordinates>121.5113176,25.0316642,0</coordinates></Point></Placemark>
<Placemark><name>荷-122 槐葉蘋</name><Point><coordinates>121.5112960,25.0316618,0</coordinates></Point></Placemark>
<Placemark><name>野-02 恆春楨楠</name><Point><coordinates>121.5104662,25.0322132,0</coordinates></Point></Placemark>
<Placemark><name>野-09 列當</name><Point><coordinates>121.5104674,25.0321305,0</coordinates></Point></Placemark>
<Placemark><name>野-12 小燈籠花</name><Point><coordinates>121.5104123,25.0321609,0</coordinates></Point></Placemark>
<Placemark><name>野-18 翠蘆莉</name><Point><coordinates>121.5104953,25.0322059,0</coordinates></Point></Placemark>
<Placemark><name>野-19 脈耳草</name><Point><coordinates>121.5104309,25.0321548,0</coordinates></Point></Placemark>
<Placemark><name>野-20 點地梅</name><Point><coordinates>121.5104549,25.0321548,0</coordinates></Point></Placemark>
<Placemark><name>野-22 刺葉黃縟花</name><Point><coordinates>121.5104937,25.0321779,0</coordinates></Point></Placemark>
<Placemark><name>野-25 毛將軍</name><Point><coordinates>121.5104761,25.0321184,0</coordinates></Point></Placemark>
<Placemark><name>野-27 百金</name><Point><coordinates>121.5104451,25.0320990,0</coordinates></Point></Placemark>
<Placemark><name>野-31 天人菊</name><Point><coordinates>121.5104558,25.0320722,0</coordinates></Point></Placemark>
<Placemark><name>野-32 布烈氏黃芩</name><Point><coordinates>121.5104193,25.0320712,0</coordinates></Point></Placemark>
<Placemark><name>野-34 百金花</name><Point><coordinates>121.5104768,25.0321065,0</coordinates></Point></Placemark>
<Placemark><name>野-36 陀螺紫菀</name><Point><coordinates>121.5103949,25.0321296,0</coordinates></Point></Placemark>
<Placemark><name>野-39 山葡萄</name><Point><coordinates>121.5104149,25.0321344,0</coordinates></Point></Placemark>
<Placemark><name>野-40 長萼野百合</name><Point><coordinates>121.5104322,25.0321283,0</coordinates></Point></Placemark>
<Placemark><name>野-41 囊穎草</name><Point><coordinates>121.5110396,25.0325196,0</coordinates></Point></Placemark>
<Placemark><name>野-42 土丁桂</name><Point><coordinates>121.5104776,25.0321441,0</coordinates></Point></Placemark>
<Placemark><name>野-43 基隆蠅子草</name><Point><coordinates>121.5104104,25.0320554,0</coordinates></Point></Placemark>
<Placemark><name>野-44 白花草</name><Point><coordinates>121.5104331,25.0320724,0</coordinates></Point></Placemark>
<Placemark><name>野-45 茵陳蒿</name><Point><coordinates>121.5104705,25.0320846,0</coordinates></Point></Placemark>
<Placemark><name>野-46 印尼珍珠茅</name><Point><coordinates>121.5104421,25.0320508,0</coordinates></Point></Placemark>
<Placemark><name>野-47 華薊</name><Point><coordinates>121.5104634,25.0321176,0</coordinates></Point></Placemark>
<Placemark><name>野-48 守宮木</name><Point><coordinates>121.5104177,25.0321128,0</coordinates></Point></Placemark>
<Placemark><name>野-49 掃帚菊</name><Point><coordinates>121.5104216,25.0321031,0</coordinates></Point></Placemark>
<Placemark><name>野-50 睫穗蓼</name><Point><coordinates>121.5104550,25.0321310,0</coordinates></Point></Placemark>
<Placemark><name>佛-01 台灣穗花杉</name><Point><coordinates>121.5107439,25.0329414,0</coordinates></Point></Placemark>
<Placemark><name>佛-12 黃鵪菜</name><Point><coordinates>121.5105990,25.0328782,0</coordinates></Point></Placemark>
<Placemark><name>佛-31 飛機草</name><Point><coordinates>121.5106887,25.0325744,0</coordinates></Point></Placemark>
<Placemark><name>佛-32 第倫桃</name><Point><coordinates>121.5106926,25.0325064,0</coordinates></Point></Placemark>
<Placemark><name>佛-33 雞毛松</name><Point><coordinates>121.5106389,25.0330872,0</coordinates></Point></Placemark>
<Placemark><name>佛-34 優曇華</name><Point><coordinates>121.5108828,25.0325878,0</coordinates></Point></Placemark>
<Placemark><name>佛-35 棗子</name><Point><coordinates>121.5106614,25.0326656,0</coordinates></Point></Placemark>
<Placemark><name>名-02 南台冬青</name><Point><coordinates>121.5100731,25.0331005,0</coordinates></Point></Placemark>
<Placemark><name>名-06 花柏</name><Point><coordinates>121.5104244,25.0329547,0</coordinates></Point></Placemark>
<Placemark><name>名-09 亮葉南洋杉</name><Point><coordinates>121.5103881,25.0329996,0</coordinates></Point></Placemark>
<Placemark><name>名-13 紅花野牽牛</name><Point><coordinates>121.5099937,25.0326302,0</coordinates></Point></Placemark>
<Placemark><name>名-14 美葉蘇鐵</name><Point><coordinates>121.5103074,25.0333387,0</coordinates></Point></Placemark>
<Placemark><name>名-15 虎尾蘭</name><Point><coordinates>121.5101235,25.0330543,0</coordinates></Point></Placemark>
<Placemark><name>名-16 冇樟</name><Point><coordinates>121.5101019,25.0329340,0</coordinates></Point></Placemark>
<Placemark><name>名-17 小苞黃脈爵床</name><Point><coordinates>121.5100039,25.0330616,0</coordinates></Point></Placemark>
<Placemark><name>名-18 桃實百日青</name><Point><coordinates>121.5103981,25.0332645,0</coordinates></Point></Placemark>
<Placemark><name>名-20 福建柏</name><Point><coordinates>121.5102826,25.0331807,0</coordinates></Point></Placemark>
<Placemark><name>名-21 雀榕</name><Point><coordinates>121.5100637,25.0328869,0</coordinates></Point></Placemark>
<Placemark><name>名-25 姬鳳梨</name><Point><coordinates>121.5098960,25.0327945,0</coordinates></Point></Placemark>
<Placemark><name>名-26 直立鴨跖草</name><Point><coordinates>121.5101064,25.0328067,0</coordinates></Point></Placemark>
<Placemark><name>名-27 絨氈草</name><Point><coordinates>121.5099413,25.0327933,0</coordinates></Point></Placemark>
<Placemark><name>名-29 耬斗菜</name><Point><coordinates>121.5099305,25.0327653,0</coordinates></Point></Placemark>
<Placemark><name>名-33 虎紋鳳梨</name><Point><coordinates>121.5098982,25.0327265,0</coordinates></Point></Placemark>
<Placemark><name>名-34 豨薟</name><Point><coordinates>121.5100121,25.0325734,0</coordinates></Point></Placemark>
<Placemark><name>名-35 銀波草</name><Point><coordinates>121.5099087,25.0327459,0</coordinates></Point></Placemark>
<Placemark><name>名-39 火柴棒鳳梨</name><Point><coordinates>121.5098455,25.0326584,0</coordinates></Point></Placemark>
<Placemark><name>名-40 爪狀苞舌蘭</name><Point><coordinates>121.5098870,25.0327641,0</coordinates></Point></Placemark>
<Placemark><name>名-41 紫鳳凰</name><Point><coordinates>121.5099779,25.0325942,0</coordinates></Point></Placemark>
<Placemark><name>名-42 羅漢松</name><Point><coordinates>121.5103841,25.0331313,0</coordinates></Point></Placemark>
<Placemark><name>名-46 大花秋海棠</name><Point><coordinates>121.5098932,25.0328348,0</coordinates></Point></Placemark>
<Placemark><name>名-47 捲葉鶯歌鳳梨</name><Point><coordinates>121.5098636,25.0327498,0</coordinates></Point></Placemark>
<Placemark><name>名-48 三蕊楠</name><Point><coordinates>121.5103087,25.0327789,0</coordinates></Point></Placemark>
<Placemark><name>名-49 肯氏南洋杉</name><Point><coordinates>121.5102630,25.0329393,0</coordinates></Point></Placemark>
<Placemark><name>名-50 金針花</name><Point><coordinates>121.5102334,25.0327729,0</coordinates></Point></Placemark>
<Placemark><name>名-51 哈里斯鳳梨</name><Point><coordinates>121.5098671,25.0327145,0</coordinates></Point></Placemark>
<Placemark><name>名-52 黑狐狸秋海棠</name><Point><coordinates>121.5099984,25.0326757,0</coordinates></Point></Placemark>
<Placemark><name>名-53 情人粗肋草</name><Point><coordinates>121.5099487,25.0328215,0</coordinates></Point></Placemark>
<Placemark><name>名-54 數珠珊瑚</name><Point><coordinates>121.5102475,25.0335277,0</coordinates></Point></Placemark>
<Placemark><name>名-55 水黃皮</name><Point><coordinates>121.5101548,25.0333381,0</coordinates></Point></Placemark>
<Placemark><name>名-56 圓葉蒲葵</name><Point><coordinates>121.5102593,25.0332288,0</coordinates></Point></Placemark>
<Placemark><name>名-57 竹頭角木薑子</name><Point><coordinates>121.5101921,25.0329080,0</coordinates></Point></Placemark>
<Placemark><name>名-58 艾咪秋海棠</name><Point><coordinates>121.5099184,25.0327816,0</coordinates></Point></Placemark>
<Placemark><name>雙-11 鄧氏胡頹子</name><Point><coordinates>121.5099847,25.0315488,0</coordinates></Point></Placemark>
<Placemark><name>雙-14 單核星蘋果</name><Point><coordinates>121.5102542,25.0320823,0</coordinates></Point></Placemark>
<Placemark><name>雙-15 海南紅豆</name><Point><coordinates>121.5099925,25.0321187,0</coordinates></Point></Placemark>
<Placemark><name>雙-16 裏白巴豆</name><Point><coordinates>121.5100756,25.0322779,0</coordinates></Point></Placemark>
<Placemark><name>雙-21 槲樹</name><Point><coordinates>121.5097751,25.0322439,0</coordinates></Point></Placemark>
<Placemark><name>雙-26 竹柏</name><Point><coordinates>121.5099909,25.0322646,0</coordinates></Point></Placemark>
<Placemark><name>雙-27 長梗紫麻</name><Point><coordinates>121.5102509,25.0323557,0</coordinates></Point></Placemark>
<Placemark><name>雙-28 黃土樹</name><Point><coordinates>121.5100389,25.0322099,0</coordinates></Point></Placemark>
<Placemark><name>雙-30 冰淇淋豆</name><Point><coordinates>121.5100428,25.0321260,0</coordinates></Point></Placemark>
<Placemark><name>雙-31 刺軸櫚</name><Point><coordinates>121.5099327,25.0315938,0</coordinates></Point></Placemark>
<Placemark><name>雙-35 島榕</name><Point><coordinates>121.5102261,25.0322356,0</coordinates></Point></Placemark>
<Placemark><name>雙-37 稜果榕</name><Point><coordinates>121.5099605,25.0323401,0</coordinates></Point></Placemark>
<Placemark><name>雙-42 圓滑番荔枝</name><Point><coordinates>121.5097847,25.0321360,0</coordinates></Point></Placemark>
<Placemark><name>雙-47 福木</name><Point><coordinates>121.5100166,25.0314810,0</coordinates></Point></Placemark>
<Placemark><name>雙-50 朝鮮紫珠</name><Point><coordinates>121.5102605,25.0315782,0</coordinates></Point></Placemark>
<Placemark><name>雙-51 鈍葉緬梔</name><Point><coordinates>121.5098889,25.0316086,0</coordinates></Point></Placemark>
<Placemark><name>雙-52 台東漆</name><Point><coordinates>121.5099599,25.0317532,0</coordinates></Point></Placemark>
<Placemark><name>雙-53 錫蘭橄欖</name><Point><coordinates>121.5100671,25.0323669,0</coordinates></Point></Placemark>
<Placemark><name>雙-54 喜樹</name><Point><coordinates>121.5097075,25.0322052,0</coordinates></Point></Placemark>
<Placemark><name>雙-55 子彈石櫟</name><Point><coordinates>121.5097248,25.0321493,0</coordinates></Point></Placemark>
<Placemark><name>雙-57 小實孔雀豆</name><Point><coordinates>121.5099229,25.0315663,0</coordinates></Point></Placemark>
<Placemark><name>雙-58 後大埔石櫟</name><Point><coordinates>121.5097176,25.0322395,0</coordinates></Point></Placemark>
<Placemark><name>雙-59 郁李</name><Point><coordinates>121.5101104,25.0315092,0</coordinates></Point></Placemark>
<Placemark><name>雙-60 狹葉十大功勞</name><Point><coordinates>121.5096758,25.0322273,0</coordinates></Point></Placemark>
<Placemark><name>雙-61 白花細葉紫珠</name><Point><coordinates>121.5102255,25.0315627,0</coordinates></Point></Placemark>
<Placemark><name>雙-62 翼莖闊苞菊</name><Point><coordinates>121.5102442,25.0319904,0</coordinates></Point></Placemark>
<Placemark><name>雙-63 黃金露花</name><Point><coordinates>121.5097264,25.0321034,0</coordinates></Point></Placemark>
<Placemark><name>雙-65 毛木耳</name><Point><coordinates>121.5098415,25.0316125,0</coordinates></Point></Placemark>
<Placemark><name>雙-66 牛膝</name><Point><coordinates>121.5100156,25.0323187,0</coordinates></Point></Placemark>
<Placemark><name>雙-67 洋紫荊</name><Point><coordinates>121.5098974,25.0320769,0</coordinates></Point></Placemark>
<Placemark><name>雙-68 浸水營石櫟</name><Point><coordinates>121.5098289,25.0322349,0</coordinates></Point></Placemark>
<Placemark><name>天-01 火鶴花</name><Point><coordinates>121.5097303,25.0314630,0</coordinates></Point></Placemark>
<Placemark><name>天-03 苦橙</name><Point><coordinates>121.5096860,25.0314302,0</coordinates></Point></Placemark>
<Placemark><name>天-04 合果芋</name><Point><coordinates>121.5099192,25.0314302,0</coordinates></Point></Placemark>
<Placemark><name>天-05 申跋</name><Point><coordinates>121.5099660,25.0314217,0</coordinates></Point></Placemark>
<Placemark><name>天-07 青楓</name><Point><coordinates>121.5095421,25.0314521,0</coordinates></Point></Placemark>
<Placemark><name>天-09 假玉簪</name><Point><coordinates>121.5096104,25.0314290,0</coordinates></Point></Placemark>
<Placemark><name>天-14 雉尾花燭</name><Point><coordinates>121.5099429,25.0314582,0</coordinates></Point></Placemark>
<Placemark><name>天-16 白馬粗肋草</name><Point><coordinates>121.5098462,25.0314326,0</coordinates></Point></Placemark>
<Placemark><name>天-17 蘭嶼芋</name><Point><coordinates>121.5099078,25.0314667,0</coordinates></Point></Placemark>
<Placemark><name>天-18 龜背芋</name><Point><coordinates>121.5098822,25.0314691,0</coordinates></Point></Placemark>
<Placemark><name>天-19 洋洛葵</name><Point><coordinates>121.5097263,25.0314292,0</coordinates></Point></Placemark>
<Placemark><name>天-20 菲律賓扁葉芋</name><Point><coordinates>121.5097704,25.0314608,0</coordinates></Point></Placemark>
<Placemark><name>天-21 銀王粗肋草</name><Point><coordinates>121.5098106,25.0314207,0</coordinates></Point></Placemark>
<Placemark><name>天-22 竹節草</name><Point><coordinates>121.5096777,25.0314560,0</coordinates></Point></Placemark>
<Placemark><name>佛-06 琉球莢迷</name><Point><coordinates>121.5105375,25.0329594,0</coordinates></Point></Placemark>
<Placemark><name>佛-10 蒲瓜樹</name><Point><coordinates>121.5107618,25.0329991,0</coordinates></Point></Placemark>
<Placemark><name>荷-18 金銀花</name><Point><coordinates>121.5112320,25.0319644,0</coordinates></Point></Placemark>
<Placemark><name>荷-05 山菊</name><Point><coordinates>121.5105150,25.0323100,0</coordinates></Point></Placemark>
<Placemark><name>荷-06 木芙蓉</name><Point><coordinates>121.5105030,25.0320650,0</coordinates></Point></Placemark>
<Placemark><name>荷-19 鐵冬青</name><Point><coordinates>121.5103135,25.0318392,0</coordinates></Point></Placemark>
<Placemark><name>荷-07 朱槿</name><Point><coordinates>121.5102413,25.0315612,0</coordinates></Point></Placemark>
<Placemark><name>荷-07 #2 朱槿</name><Point><coordinates>121.5111980,25.0321800,0</coordinates></Point></Placemark>
<Placemark><name>荷-08 桂葉黃梅</name><Point><coordinates>121.5102184,25.0315411,0</coordinates></Point></Placemark>
<Placemark><name>雙-01 大葉山楝</name><Point><coordinates>121.5101550,25.0321328,0</coordinates></Point></Placemark>
<Placemark><name>雙-10 象耳榕</name><Point><coordinates>121.5102691,25.0322277,0</coordinates></Point></Placemark>
<Placemark><name>野-04 紅果金素蘭</name><Point><coordinates>121.5105260,25.0324020,0</coordinates></Point></Placemark>
<Placemark><name>荷-16 絲葉狸藻</name><Point><coordinates>121.5104970,25.0319460,0</coordinates></Point></Placemark>
<Placemark><name>雙-12 麥李</name><Point><coordinates>121.5101460,25.0315520,0</coordinates></Point></Placemark>
<Placemark><name>雙-07 火棘</name><Point><coordinates>121.5100163,25.0315075,0</coordinates></Point></Placemark>
<Placemark><name>雙-07 #2 火棘</name><Point><coordinates>121.5097330,25.0326760,0</coordinates></Point></Placemark>
<Placemark><name>雙-06 椬梧</name><Point><coordinates>121.5080750,25.0329069,0</coordinates></Point></Placemark>
<Placemark><name>雙-06 #2 椬梧</name><Point><coordinates>121.5100042,25.0316791,0</coordinates></Point></Placemark>
<Placemark><name>名-05 聖誕紅</name><Point><coordinates>121.5100900,25.0326560,0</coordinates></Point></Placemark>
<Placemark><name>園-04 杜英</name><Point><coordinates>121.5118460,25.0314040,0</coordinates></Point></Placemark>
<Placemark><name>佛-04 桂花</name><Point><coordinates>121.5106573,25.0329317,0</coordinates></Point></Placemark>
<Placemark><name>佛-11 蘭嶼山馬茶</name><Point><coordinates>121.5107859,25.0325188,0</coordinates></Point></Placemark>
<Placemark><name>名-03 大葉山欖</name><Point><coordinates>121.5103897,25.0333376,0</coordinates></Point></Placemark>
<Placemark><name>荷-13 爵床</name><Point><coordinates>121.5111330,25.0322400,0</coordinates></Point></Placemark>
<Placemark><name>荷-10 沼生金鈕釦</name><Point><coordinates>121.5111600,25.0321660,0</coordinates></Point></Placemark>
<Placemark><name>荷-17 金腰箭舅</name><Point><coordinates>121.5111710,25.0321440,0</coordinates></Point></Placemark>
<Placemark><name>荷-04 向天盞</name><Point><coordinates>121.5111740,25.0321280,0</coordinates></Point></Placemark>
<Placemark><name>荷-14 粉苞素馨</name><Point><coordinates>121.5112530,25.0319850,0</coordinates></Point></Placemark>
<Placemark><name>野-05 蘭嶼溲疏</name><Point><coordinates>121.5104840,25.0322460,0</coordinates></Point></Placemark>
<Placemark><name>野-01 巴陵石竹</name><Point><coordinates>121.5104650,25.0321670,0</coordinates></Point></Placemark>
<Placemark><name>野-03 斑葉日本衛矛</name><Point><coordinates>121.5104780,25.0322580,0</coordinates></Point></Placemark>
<Placemark><name>佛-07 翼柄第倫桃</name><Point><coordinates>121.5106599,25.0328734,0</coordinates></Point></Placemark>
<Placemark><name>佛-02 地果榕</name><Point><coordinates>121.5107838,25.0327919,0</coordinates></Point></Placemark>
<Placemark><name>荷-02 台灣山菊</name><Point><coordinates>121.5105420,25.0323430,0</coordinates></Point></Placemark>
<Placemark><name>名-07 蘭嶼山桂花</name><Point><coordinates>121.5101216,25.0330965,0</coordinates></Point></Placemark>
<Placemark><name>名-04 大葉桂</name><Point><coordinates>121.5101820,25.0332604,0</coordinates></Point></Placemark>
<Placemark><name>雙-08 烏來杜鵑</name><Point><coordinates>121.5102230,25.0316060,0</coordinates></Point></Placemark>
<Placemark><name>雙-05 梅花</name><Point><coordinates>121.5099301,25.0314910,0</coordinates></Point></Placemark>
<Placemark><name>雙-03 山櫻花</name><Point><coordinates>121.5083407,25.0326364,0</coordinates></Point></Placemark>
<Placemark><name>雙-03 #2 山櫻花</name><Point><coordinates>121.5099988,25.0317422,0</coordinates></Point></Placemark>
<Placemark><name>佛-03 小菫菜</name><Point><coordinates>121.5085402,25.0331722,0</coordinates></Point></Placemark>
<Placemark><name>名-01 佛氏通泉草</name><Point><coordinates>121.5084320,25.0328770,0</coordinates></Point></Placemark>
<Placemark><name>荷-20 光臘樹</name><Point><coordinates>121.5103700,25.0317750,0</coordinates></Point></Placemark>
<Placemark><name>佛-05 烏心石</name><Point><coordinates>121.5112246,25.0325046,0</coordinates></Point></Placemark>
<Placemark><name>荷-27 蜘蛛抱蛋</name><Point><coordinates>121.5115060,25.0320040,0</coordinates></Point></Placemark>
<Placemark><name>雙-17 魯花樹</name><Point><coordinates>121.5103430,25.0317340,0</coordinates></Point></Placemark>
<Placemark><name>天-02 #2 亞馬遜百合</name><Point><coordinates>121.5104250,25.0321680,0</coordinates></Point></Placemark>
<Placemark><name>名-11 台灣油杉</name><Point><coordinates>121.5098710,25.0331030,0</coordinates></Point></Placemark>
<Placemark><name>佛-15 美人蕉</name><Point><coordinates>121.5090857,25.0330810,0</coordinates></Point></Placemark>
<Placemark><name>佛-15 #2 美人蕉</name><Point><coordinates>121.5107004,25.0328730,0</coordinates></Point></Placemark>
<Placemark><name>荷-24 #2 枯里珍</name><Point><coordinates>121.5112040,25.0324240,0</coordinates></Point></Placemark>
<Placemark><name>佛-08 華八仙</name><Point><coordinates>121.5106591,25.0326148,0</coordinates></Point></Placemark>
<Placemark><name>佛-09 蒲桃</name><Point><coordinates>121.5105097,25.0326552,0</coordinates></Point></Placemark>
<Placemark><name>佛-09 #2 蒲桃</name><Point><coordinates>121.5107950,25.0327280,0</coordinates></Point></Placemark>
<Placemark><name>佛-13 呂宋莢迷</name><Point><coordinates>121.5105720,25.0327217,0</coordinates></Point></Placemark>
<Placemark><name>荷-23 #2 杜鵑花</name><Point><coordinates>121.5098438,25.0314970,0</coordinates></Point></Placemark>
<Placemark><name>雙-09 石斑木</name><Point><coordinates>121.5099404,25.0316096,0</coordinates></Point></Placemark>
<Placemark><name>雙-09 #2 石斑木</name><Point><coordinates>121.5105290,25.0323940,0</coordinates></Point></Placemark>
<Placemark><name>雙-13 印度鳳果</name><Point><coordinates>121.5098185,25.0319716,0</coordinates></Point></Placemark>
<Placemark><name>野-06 基隆筷子芥</name><Point><coordinates>121.5104690,25.0321800,0</coordinates></Point></Placemark>
<Placemark><name>野-07 胡椒木</name><Point><coordinates>121.5105120,25.0323770,0</coordinates></Point></Placemark>
<Placemark><name>野-15 番杏</name><Point><coordinates>121.5104730,25.0321740,0</coordinates></Point></Placemark>
<Placemark><name>荷-49 藍花藤</name><Point><coordinates>121.5112230,25.0317920,0</coordinates></Point></Placemark>
<Placemark><name>野-14 毛茛</name><Point><coordinates>121.5104580,25.0321180,0</coordinates></Point></Placemark>
<Placemark><name>荷-29 雲南黃馨</name><Point><coordinates>121.5112393,25.0318214,0</coordinates></Point></Placemark>
<Placemark><name>荷-42 矮水竹葉</name><Point><coordinates>121.5113260,25.0316900,0</coordinates></Point></Placemark>
<Placemark><name>佛-19 栓皮櫟</name><Point><coordinates>121.5099022,25.0324413,0</coordinates></Point></Placemark>
<Placemark><name>荷-54 龍舌蘭</name><Point><coordinates>121.5104475,25.0317624,0</coordinates></Point></Placemark>
<Placemark><name>荷-30 青龍鳶尾</name><Point><coordinates>121.5112120,25.0322080,0</coordinates></Point></Placemark>
<Placemark><name>佛-22 附地菜</name><Point><coordinates>121.5106018,25.0328936,0</coordinates></Point></Placemark>
<Placemark><name>雙-20 密梭倫榕</name><Point><coordinates>121.5101154,25.0322477,0</coordinates></Point></Placemark>
<Placemark><name>荷-46 船子草</name><Point><coordinates>121.5105420,25.0323710,0</coordinates></Point></Placemark>
<Placemark><name>佛-17 地湧金蓮</name><Point><coordinates>121.5106871,25.0327634,0</coordinates></Point></Placemark>
<Placemark><name>佛-14 寶冠木</name><Point><coordinates>121.5106119,25.0327083,0</coordinates></Point></Placemark>
<Placemark><name>雙-24 澳洲胡桃</name><Point><coordinates>121.5100149,25.0320281,0</coordinates></Point></Placemark>
<Placemark><name>佛-23 香水檸檬</name><Point><coordinates>121.5109722,25.0325167,0</coordinates></Point></Placemark>
<Placemark><name>佛-21 苦楝</name><Point><coordinates>121.5107056,25.0326885,0</coordinates></Point></Placemark>
<Placemark><name>雙-23 波羅密</name><Point><coordinates>121.5098443,25.0320361,0</coordinates></Point></Placemark>
<Placemark><name>名-19 番木瓜</name><Point><coordinates>121.5099109,25.0330629,0</coordinates></Point></Placemark>
<Placemark><name>天-06 稚尾花燭</name><Point><coordinates>121.5099257,25.0314337,0</coordinates></Point></Placemark>
<Placemark><name>荷-39 田代氏石斑木</name><Point><coordinates>121.5105230,25.0323340,0</coordinates></Point></Placemark>
<Placemark><name>佛-20 芳香萬壽菊</name><Point><coordinates>121.5106204,25.0327541,0</coordinates></Point></Placemark>
<Placemark><name>野-17 細葉蘭花參</name><Point><coordinates>121.5104680,25.0321610,0</coordinates></Point></Placemark>
<Placemark><name>荷-33 塊莖小野芝麻</name><Point><coordinates>121.5104440,25.0321380,0</coordinates></Point></Placemark>
<Placemark><name>佛-16 #2 台灣附地草</name><Point><coordinates>121.5105707,25.0327790,0</coordinates></Point></Placemark>
<Placemark><name>野-13 早田氏爵床</name><Point><coordinates>121.5104910,25.0322010,0</coordinates></Point></Placemark>
<Placemark><name>荷-55 龍船花</name><Point><coordinates>121.5104082,25.0316426,0</coordinates></Point></Placemark>
<Placemark><name>荷-34 射干</name><Point><coordinates>121.5102250,25.0327653,0</coordinates></Point></Placemark>
<Placemark><name>雙-25 無憂樹</name><Point><coordinates>121.5100860,25.0323240,0</coordinates></Point></Placemark>
<Placemark><name>荷-40 白樹仔</name><Point><coordinates>121.5096038,25.0326036,0</coordinates></Point></Placemark>
<Placemark><name>荷-40 #2 白樹仔</name><Point><coordinates>121.5109640,25.0326200,0</coordinates></Point></Placemark>
<Placemark><name>荷-40 #4 白樹仔</name><Point><coordinates>121.5097776,25.0321296,0</coordinates></Point></Placemark>
<Placemark><name>野-16 矮筋骨草</name><Point><coordinates>121.5104820,25.0321620,0</coordinates></Point></Placemark>
<Placemark><name>野-11 小毛茛</name><Point><coordinates>121.5104800,25.0321500,0</coordinates></Point></Placemark>
<Placemark><name>荷-47 荷花</name><Point><coordinates>121.5108430,25.0319860,0</coordinates></Point></Placemark>
<Placemark><name>雙-18 中國無憂樹</name><Point><coordinates>121.5101571,25.0322784,0</coordinates></Point></Placemark>
<Placemark><name>野-08 一枝黃花</name><Point><coordinates>121.5104790,25.0321760,0</coordinates></Point></Placemark>
<Placemark><name>名-10 側柏</name><Point><coordinates>121.5104890,25.0322940,0</coordinates></Point></Placemark>
<Placemark><name>荷-38 水豬母乳</name><Point><coordinates>121.5113000,25.0316730,0</coordinates></Point></Placemark>
<Placemark><name>野-10 密花黃菫</name><Point><coordinates>121.5104640,25.0321620,0</coordinates></Point></Placemark>
<Placemark><name>雙-19 大風子</name><Point><coordinates>121.5096898,25.0315041,0</coordinates></Point></Placemark>
<Placemark><name>荷-36 水竹芋</name><Point><coordinates>121.5112840,25.0319100,0</coordinates></Point></Placemark>
<Placemark><name>佛-18 彎子木</name><Point><coordinates>121.5107444,25.0331462,0</coordinates></Point></Placemark>
<Placemark><name>佛-26 囊葉榕</name><Point><coordinates>121.5106112,25.0327724,0</coordinates></Point></Placemark>
<Placemark><name>野-23 刺葉黃褥花</name><Point><coordinates>121.5104930,25.0322480,0</coordinates></Point></Placemark>
<Placemark><name>荷-03 台灣金絲桃</name><Point><coordinates>121.5104573,25.0316158,0</coordinates></Point></Placemark>
<Placemark><name>荷-03 #3 台灣金絲桃</name><Point><coordinates>121.5112950,25.0317500,0</coordinates></Point></Placemark>
<Placemark><name>名-24 台灣絡石</name><Point><coordinates>121.5100678,25.0329744,0</coordinates></Point></Placemark>
<Placemark><name>雙-04 山黃梔</name><Point><coordinates>121.5106643,25.0325725,0</coordinates></Point></Placemark>
<Placemark><name>荷-50 蘭嶼秋海棠</name><Point><coordinates>121.5105320,25.0323620,0</coordinates></Point></Placemark>
<Placemark><name>佛-27 筆柿</name><Point><coordinates>121.5109860,25.0326880,0</coordinates></Point></Placemark>
<Placemark><name>天-08 蝙蝠花</name><Point><coordinates>121.5099518,25.0314226,0</coordinates></Point></Placemark>
<Placemark><name>名-31 蘭嶼福木</name><Point><coordinates>121.5101649,25.0330166,0</coordinates></Point></Placemark>
<Placemark><name>雙-29 黑星櫻</name><Point><coordinates>121.5098630,25.0317450,0</coordinates></Point></Placemark>
<Placemark><name>荷-41 睡蓮</name><Point><coordinates>121.5105447,25.0321886,0</coordinates></Point></Placemark>
<Placemark><name>雙-33 厚葉石斑木</name><Point><coordinates>121.5099921,25.0315048,0</coordinates></Point></Placemark>
<Placemark><name>雙-22 樟樹</name><Point><coordinates>121.5088940,25.0329020,0</coordinates></Point></Placemark>
<Placemark><name>荷-43 紅果金粟蘭</name><Point><coordinates>121.5109100,25.0324830,0</coordinates></Point></Placemark>
<Placemark><name>荷-43 #2 紅果金粟蘭</name><Point><coordinates>121.5105320,25.0323400,0</coordinates></Point></Placemark>
<Placemark><name>野-24 小花倒提壺</name><Point><coordinates>121.5104530,25.0321380,0</coordinates></Point></Placemark>
<Placemark><name>荷-70 蘭嶼紫金牛</name><Point><coordinates>121.5103491,25.0316176,0</coordinates></Point></Placemark>
<Placemark><name>荷-69 茉莉花</name><Point><coordinates>121.5111140,25.0323702,0</coordinates></Point></Placemark>
<Placemark><name>名-30 蔓綠絨</name><Point><coordinates>121.5097739,25.0314453,0</coordinates></Point></Placemark>
<Placemark><name>名-22 克菲亞草</name><Point><coordinates>121.5105981,25.0327884,0</coordinates></Point></Placemark>
<Placemark><name>荷-62 梭魚草</name><Point><coordinates>121.5112560,25.0318960,0</coordinates></Point></Placemark>
<Placemark><name>名-32 蘭嶼胡桐</name><Point><coordinates>121.5101512,25.0329650,0</coordinates></Point></Placemark>
<Placemark><name>雙-32 印度榆</name><Point><coordinates>121.5102960,25.0320010,0</coordinates></Point></Placemark>
<Placemark><name>野-21 冇骨消</name><Point><coordinates>121.5091109,25.0331310,0</coordinates></Point></Placemark>
<Placemark><name>野-21 #2 冇骨消</name><Point><coordinates>121.5103730,25.0320320,0</coordinates></Point></Placemark>
<Placemark><name>野-26 毛胡枝子</name><Point><coordinates>121.5104620,25.0321680,0</coordinates></Point></Placemark>
<Placemark><name>荷-64 樹蘭</name><Point><coordinates>121.5105584,25.0322673,0</coordinates></Point></Placemark>
<Placemark><name>雙-38 金平氏冬青</name><Point><coordinates>121.5102091,25.0320954,0</coordinates></Point></Placemark>
<Placemark><name>名-43 金葉木</name><Point><coordinates>121.5100129,25.0330991,0</coordinates></Point></Placemark>
<Placemark><name>野-28 粗莖麝香百合</name><Point><coordinates>121.5104560,25.0321820,0</coordinates></Point></Placemark>
<Placemark><name>雙-36 柿葉茶茱萸</name><Point><coordinates>121.5101079,25.0318542,0</coordinates></Point></Placemark>
<Placemark><name>名-23 加羅林魚木</name><Point><coordinates>121.5101578,25.0328698,0</coordinates></Point></Placemark>
<Placemark><name>野-30 南台灣黃芩</name><Point><coordinates>121.5104450,25.0321170,0</coordinates></Point></Placemark>
<Placemark><name>佛-28 紫茉莉</name><Point><coordinates>121.5106130,25.0326180,0</coordinates></Point></Placemark>
<Placemark><name>荷-93 馬達加斯加巨水芋</name><Point><coordinates>121.5113690,25.0317880,0</coordinates></Point></Placemark>
<Placemark><name>名-28 絨葉小鳳梨</name><Point><coordinates>121.5099150,25.0325700,0</coordinates></Point></Placemark>
<Placemark><name>雙-34 台灣石楠</name><Point><coordinates>121.5098796,25.0318604,0</coordinates></Point></Placemark>
<Placemark><name>野-29 元寶草</name><Point><coordinates>121.5104240,25.0321840,0</coordinates></Point></Placemark>
<Placemark><name>荷-91 錐頭麻</name><Point><coordinates>121.5102743,25.0315828,0</coordinates></Point></Placemark>
<Placemark><name>佛-29 酸藤</name><Point><coordinates>121.5104935,25.0326106,0</coordinates></Point></Placemark>
<Placemark><name>佛-24 黃花曼陀羅</name><Point><coordinates>121.5105534,25.0324910,0</coordinates></Point></Placemark>
<Placemark><name>荷-65 武竹</name><Point><coordinates>121.5112700,25.0317690,0</coordinates></Point></Placemark>
<Placemark><name>荷-92 雙花金絲桃</name><Point><coordinates>121.5103810,25.0316940,0</coordinates></Point></Placemark>
<Placemark><name>荷-77 台灣糯米條</name><Point><coordinates>121.5098360,25.0329620,0</coordinates></Point></Placemark>
<Placemark><name>雙-39 鷹爪花</name><Point><coordinates>121.5098286,25.0321872,0</coordinates></Point></Placemark>
<Placemark><name>荷-74 光冠水菊</name><Point><coordinates>121.5112376,25.0321573,0</coordinates></Point></Placemark>
<Placemark><name>名-45 鵝掌藤</name><Point><coordinates>121.5100360,25.0331414,0</coordinates></Point></Placemark>
<Placemark><name>荷-61 接骨木</name><Point><coordinates>121.5103133,25.0315888,0</coordinates></Point></Placemark>
<Placemark><name>雙-48 裡白巴豆</name><Point><coordinates>121.5100289,25.0322615,0</coordinates></Point></Placemark>
<Placemark><name>名-08 黑星紫金牛</name><Point><coordinates>121.5093740,25.0328380,0</coordinates></Point></Placemark>
<Placemark><name>荷-80 布袋蓮</name><Point><coordinates>121.5093690,25.0328990,0</coordinates></Point></Placemark>
<Placemark><name>荷-87 葉氏坡油柑</name><Point><coordinates>121.5113030,25.0316990,0</coordinates></Point></Placemark>
<Placemark><name>佛-25 南天竹</name><Point><coordinates>121.5110232,25.0325211,0</coordinates></Point></Placemark>
<Placemark><name>荷-75 凌霄花</name><Point><coordinates>121.5112380,25.0320591,0</coordinates></Point></Placemark>
<Placemark><name>天-10 羽裂蔓綠絨</name><Point><coordinates>121.5098049,25.0314255,0</coordinates></Point></Placemark>
<Placemark><name>雙-46 澳洲大葉榕</name><Point><coordinates>121.5101406,25.0321864,0</coordinates></Point></Placemark>
<Placemark><name>荷-78 地筍</name><Point><coordinates>121.5087534,25.0331393,0</coordinates></Point></Placemark>
<Placemark><name>荷-78 #2 地筍</name><Point><coordinates>121.5113387,25.0316825,0</coordinates></Point></Placemark>
<Placemark><name>荷-88 蘭嶼肉豆蔻</name><Point><coordinates>121.5102900,25.0318980,0</coordinates></Point></Placemark>
<Placemark><name>荷-88 #2 蘭嶼肉豆蔻</name><Point><coordinates>121.5101120,25.0315370,0</coordinates></Point></Placemark>
<Placemark><name>野-35 錦葉遍地金</name><Point><coordinates>121.5104620,25.0320880,0</coordinates></Point></Placemark>
<Placemark><name>雙-43 大葉桃花心木</name><Point><coordinates>121.5099506,25.0319641,0</coordinates></Point></Placemark>
<Placemark><name>荷-83 木槿</name><Point><coordinates>121.5104203,25.0317445,0</coordinates></Point></Placemark>
<Placemark><name>荷-63 楓楊</name><Point><coordinates>121.5105267,25.0322314,0</coordinates></Point></Placemark>
<Placemark><name>雙-41 台東龍眼</name><Point><coordinates>121.5100803,25.0321522,0</coordinates></Point></Placemark>
<Placemark><name>野-33 日本前胡</name><Point><coordinates>121.5104700,25.0321120,0</coordinates></Point></Placemark>
<Placemark><name>荷-85 端紅鳳梨</name><Point><coordinates>121.5110890,25.0324040,0</coordinates></Point></Placemark>
<Placemark><name>名-44 金鳥赫蕉</name><Point><coordinates>121.5100633,25.0332130,0</coordinates></Point></Placemark>
<Placemark><name>名-44 #2 金鳥赫蕉</name><Point><coordinates>121.5081980,25.0320920,0</coordinates></Point></Placemark>
<Placemark><name>荷-81 拔蕉</name><Point><coordinates>121.5112480,25.0321180,0</coordinates></Point></Placemark>
<Placemark><name>荷-73 使君子</name><Point><coordinates>121.5112110,25.0318800,0</coordinates></Point></Placemark>
<Placemark><name>荷-82 斑點薹</name><Point><coordinates>121.5112730,25.0317230,0</coordinates></Point></Placemark>
<Placemark><name>天-12 魚木</name><Point><coordinates>121.5103796,25.0315334,0</coordinates></Point></Placemark>
<Placemark><name>荷-76 南洋杉</name><Point><coordinates>121.5104260,25.0315357,0</coordinates></Point></Placemark>
<Placemark><name>荷-25 紅膠木</name><Point><coordinates>121.5116000,25.0319170,0</coordinates></Point></Placemark>
<Placemark><name>荷-86 肯氏蒲桃</name><Point><coordinates>121.5114874,25.0323422,0</coordinates></Point></Placemark>
<Placemark><name>佛-30 夜合花</name><Point><coordinates>121.5105010,25.0329630,0</coordinates></Point></Placemark>
<Placemark><name>名-37 大紅秋海棠</name><Point><coordinates>121.5104292,25.0329907,0</coordinates></Point></Placemark>
<Placemark><name>雙-45 春不老</name><Point><coordinates>121.5099509,25.0315148,0</coordinates></Point></Placemark>
<Placemark><name>雙-02 山刺番荔枝</name><Point><coordinates>121.5098419,25.0316278,0</coordinates></Point></Placemark>
<Placemark><name>雙-49 扇椰子</name><Point><coordinates>121.5099062,25.0316564,0</coordinates></Point></Placemark>
<Placemark><name>荷-99 水翁</name><Point><coordinates>121.5103321,25.0315913,0</coordinates></Point></Placemark>
<Placemark><name>荷-98 斑葉沿階草</name><Point><coordinates>121.5105220,25.0323350,0</coordinates></Point></Placemark>
<Placemark><name>天-11 阿勃勒</name><Point><coordinates>121.5099010,25.0314200,0</coordinates></Point></Placemark>
<Placemark><name>名-38 彩葉鳳梨</name><Point><coordinates>121.5099260,25.0325840,0</coordinates></Point></Placemark>
<Placemark><name>名-36 含羞草</name><Point><coordinates>121.5104742,25.0330053,0</coordinates></Point></Placemark>
<Placemark><name>荷-97 寶塔龍船花</name><Point><coordinates>121.5103872,25.0316369,0</coordinates></Point></Placemark>
<Placemark><name>野-38 風輪菜</name><Point><coordinates>121.5104570,25.0321650,0</coordinates></Point></Placemark>
<Placemark><name>天-13 盾柱木</name><Point><coordinates>121.5097659,25.0315141,0</coordinates></Point></Placemark>
<Placemark><name>荷-96 垂花水竹芋</name><Point><coordinates>121.5113235,25.0319949,0</coordinates></Point></Placemark>
<Placemark><name>天-15 非洲薯蕷</name><Point><coordinates>121.5081130,25.0321970,0</coordinates></Point></Placemark>
<Placemark><name>名-12 矮仙丹</name><Point><coordinates>121.5092470,25.0328500,0</coordinates></Point></Placemark>
<Placemark><name>野-37 雙花蟛蜞菊</name><Point><coordinates>121.5104490,25.0321550,0</coordinates></Point></Placemark>
<Placemark><name>荷-101 火筒樹</name><Point><coordinates>121.5102661,25.0315545,0</coordinates></Point></Placemark>
</Document></kml>