<?xml version="1.0" encoding="UTF-8"?>
<kml xmlns="http://www.opengis.net/kml/2.2"><Document><name>第4張 花點</name><description>補座標與既有花點合併為一層。名稱不要改。</description>
<Placemark><name>薑-02 高良薑</name><Point><coordinates>121.5090902,25.0315756,0</coordinates></Point></Placemark>
<Placemark><name>薑-03 刺孔雀椰子</name><Point><coordinates>121.5090197,25.0314553,0</coordinates></Point></Placemark>
<Placemark><name>薑-06 叢立孔雀椰子</name><Point><coordinates>121.5091134,25.0314626,0</coordinates></Point></Placemark>
<Placemark><name>薑-10 斑葉豹紋竹芋</name><Point><coordinates>121.5091914,25.0313338,0</coordinates></Point></Placemark>
<Placemark><name>薑-14 紅焰蕉</name><Point><coordinates>121.5092741,25.0315963,0</coordinates></Point></Placemark>
<Placemark><name>薑-17 阿斯普倫閉鞘薑</name><Point><coordinates>121.5092451,25.0314587,0</coordinates></Point></Placemark>
<Placemark><name>薑-21 土田七</name><Point><coordinates>121.5092336,25.0314049,0</coordinates></Point></Placemark>
<Placemark><name>薑-24 山月桃</name><Point><coordinates>121.5091396,25.0313794,0</coordinates></Point></Placemark>
<Placemark><name>薑-27 普吉之吻閉鞘薑</name><Point><coordinates>121.5089611,25.0313581,0</coordinates></Point></Placemark>
<Placemark><name>薑-36 莪朮</name><Point><coordinates>121.5093417,25.0314416,0</coordinates></Point></Placemark>
<Placemark><name>薑-42 阿里山月桃</name><Point><coordinates>121.5089781,25.0314288,0</coordinates></Point></Placemark>
<Placemark><name>薑-44 塔彭貝克閉鞘薑</name><Point><coordinates>121.5090424,25.0314155,0</coordinates></Point></Placemark>
<Placemark><name>薑-51 彩繪閉鞘薑</name><Point><coordinates>121.5092555,25.0312867,0</coordinates></Point></Placemark>
<Placemark><name>薑-58 百子蓮</name><Point><coordinates>121.5094458,25.0313851,0</coordinates></Point></Placemark>
<Placemark><name>薑-59 砂仁</name><Point><coordinates>121.5089924,25.0314738,0</coordinates></Point></Placemark>
<Placemark><name>薑-69 熊貓孔雀薑</name><Point><coordinates>121.5091546,25.0314604,0</coordinates></Point></Placemark>
<Placemark><name>薑-71 紅薑花</name><Point><coordinates>121.5089989,25.0315212,0</coordinates></Point></Placemark>
<Placemark><name>薑-72 紅閉鞘薑</name><Point><coordinates>121.5092013,25.0313887,0</coordinates></Point></Placemark>
<Placemark><name>薑-75 纖細舞花薑</name><Point><coordinates>121.5092240,25.0315096,0</coordinates></Point></Placemark>
<Placemark><name>薑-76 蔥蘭</name><Point><coordinates>121.5090815,25.0312674,0</coordinates></Point></Placemark>
<Placemark><name>薑-77 薑荷花</name><Point><coordinates>121.5090452,25.0313574,0</coordinates></Point></Placemark>
<Placemark><name>薑-79 蠟薑</name><Point><coordinates>121.5092744,25.0314278,0</coordinates></Point></Placemark>
<Placemark><name>薑-83 黃扇赫蕉</name><Point><coordinates>121.5091871,25.0314151,0</coordinates></Point></Placemark>
<Placemark><name>薑-85 斑葉閉鞘薑</name><Point><coordinates>121.5093520,25.0314783,0</coordinates></Point></Placemark>
<Placemark><name>薑-86 球薑</name><Point><coordinates>121.5092248,25.0312963,0</coordinates></Point></Placemark>
<Placemark><name>薑-87 風雨蘭</name><Point><coordinates>121.5094684,25.0314679,0</coordinates></Point></Placemark>
<Placemark><name>薑-88 垂花藍薑</name><Point><coordinates>121.5092544,25.0313680,0</coordinates></Point></Placemark>
<Placemark><name>薑-89 薑黃</name><Point><coordinates>121.5092425,25.0313291,0</coordinates></Point></Placemark>
<Placemark><name>薑-90 馬氏射葉椰子</name><Point><coordinates>121.5093152,25.0313367,0</coordinates></Point></Placemark>
<Placemark><name>薑-91 少葉薑</name><Point><coordinates>121.5091358,25.0314815,0</coordinates></Point></Placemark>
<Placemark><name>薑-92 翼莖水丁香</name><Point><coordinates>121.5090908,25.0316225,0</coordinates></Point></Placemark>
<Placemark><name>薑-93 食用肖竹芋</name><Point><coordinates>121.5090867,25.0312996,0</coordinates></Point></Placemark>
<Placemark><name>薑-94 公主椰子</name><Point><coordinates>121.5091399,25.0312920,0</coordinates></Point></Placemark>
<Placemark><name>薑-95 斑葉葛鬱金</name><Point><coordinates>121.5091283,25.0313263,0</coordinates></Point></Placemark>
<Placemark><name>薑-96 熱帶赫蕉</name><Point><coordinates>121.5090447,25.0313928,0</coordinates></Point></Placemark>
<Placemark><name>薑-97 蘭嶼法氏薑</name><Point><coordinates>121.5092096,25.0314603,0</coordinates></Point></Placemark>
<Placemark><name>薑-99 酒瓶椰子</name><Point><coordinates>121.5090172,25.0312826,0</coordinates></Point></Placemark>
<Placemark><name>薑-101 水藤</name><Point><coordinates>121.5091761,25.0315972,0</coordinates></Point></Placemark>
<Placemark><name>薑-102 箭羽竹芋</name><Point><coordinates>121.5094650,25.0313402,0</coordinates></Point></Placemark>
<Placemark><name>原-10 普剌特草</name><Point><coordinates>121.5088327,25.0313770,0</coordinates></Point></Placemark>
<Placemark><name>原-13 細辛葉鬼督郵</name><Point><coordinates>121.5088208,25.0312977,0</coordinates></Point></Placemark>
<Placemark><name>原-16 槲櫟</name><Point><coordinates>121.5088821,25.0312922,0</coordinates></Point></Placemark>
<Placemark><name>原-17 毛苦參</name><Point><coordinates>121.5088340,25.0312895,0</coordinates></Point></Placemark>
<Placemark><name>原-18 琉球鈴木草</name><Point><coordinates>121.5089633,25.0313311,0</coordinates></Point></Placemark>
<Placemark><name>原-20 越橘葉曼絨</name><Point><coordinates>121.5087986,25.0313448,0</coordinates></Point></Placemark>
<Placemark><name>原-21 鐘萼豆</name><Point><coordinates>121.5089453,25.0312956,0</coordinates></Point></Placemark>
<Placemark><name>原-24 鐵色</name><Point><coordinates>121.5089106,25.0313679,0</coordinates></Point></Placemark>
<Placemark><name>原-25 齒葉矮冷水麻</name><Point><coordinates>121.5088928,25.0313952,0</coordinates></Point></Placemark>
<Placemark><name>原-34 細葉假黃鵪菜</name><Point><coordinates>121.5089178,25.0312719,0</coordinates></Point></Placemark>
<Placemark><name>原-35 鹿谷秋海棠</name><Point><coordinates>121.5088716,25.0313067,0</coordinates></Point></Placemark>
<Placemark><name>原-36 基隆扁葉芋</name><Point><coordinates>121.5088668,25.0312727,0</coordinates></Point></Placemark>
<Placemark><name>原-37 長果月橘</name><Point><coordinates>121.5089156,25.0313080,0</coordinates></Point></Placemark>
<Placemark><name>原-38 日本薯蕷</name><Point><coordinates>121.5088410,25.0312818,0</coordinates></Point></Placemark>
<Placemark><name>原-39 鬼督郵屬</name><Point><coordinates>121.5088158,25.0312988,0</coordinates></Point></Placemark>
<Placemark><name>棕-04 大香葉樹</name><Point><coordinates>121.5092516,25.0309321,0</coordinates></Point></Placemark>
<Placemark><name>棕-06 君子蘭</name><Point><coordinates>121.5089014,25.0310074,0</coordinates></Point></Placemark>
<Placemark><name>棕-07 圓扇椰子</name><Point><coordinates>121.5090529,25.0311690,0</coordinates></Point></Placemark>
<Placemark><name>棕-10 錦屏藤</name><Point><coordinates>121.5092378,25.0306903,0</coordinates></Point></Placemark>
<Placemark><name>棕-11 克利巴椰子</name><Point><coordinates>121.5088836,25.0311010,0</coordinates></Point></Placemark>
<Placemark><name>棕-15 盤頭絨泡黏菌</name><Point><coordinates>121.5092121,25.0311204,0</coordinates></Point></Placemark>
<Placemark><name>棕-16 短京薩巴爾櫚</name><Point><coordinates>121.5089733,25.0310985,0</coordinates></Point></Placemark>
<Placemark><name>棕-17 粉瘤黏菌</name><Point><coordinates>121.5092172,25.0311131,0</coordinates></Point></Placemark>
<Placemark><name>棕-18 菇</name><Point><coordinates>121.5092319,25.0310937,0</coordinates></Point></Placemark>
<Placemark><name>棕-20 大葉合歡</name><Point><coordinates>121.5088911,25.0312103,0</coordinates></Point></Placemark>
<Placemark><name>棕-21 膠質刺銀耳</name><Point><coordinates>121.5092154,25.0310733,0</coordinates></Point></Placemark>
<Placemark><name>棕-22 菇菌</name><Point><coordinates>121.5092287,25.0310259,0</coordinates></Point></Placemark>
<Placemark><name>棕-23 韭蘭</name><Point><coordinates>121.5091119,25.0312604,0</coordinates></Point></Placemark>
<Placemark><name>棕-24 土牛膝</name><Point><coordinates>121.5089159,25.0310502,0</coordinates></Point></Placemark>
<Placemark><name>棕-25 毛土蓮翹</name><Point><coordinates>121.5087120,25.0309505,0</coordinates></Point></Placemark>
<Placemark><name>棕-26 略薄菱孔菌複合群</name><Point><coordinates>121.5092336,25.0310538,0</coordinates></Point></Placemark>
<Placemark><name>棕-27 圓葉刺軸櫚</name><Point><coordinates>121.5089867,25.0311741,0</coordinates></Point></Placemark>
<Placemark><name>民-03 土肉桂</name><Point><coordinates>121.5084964,25.0312412,0</coordinates></Point></Placemark>
<Placemark><name>民-08 紅果薹</name><Point><coordinates>121.5086042,25.0314247,0</coordinates></Point></Placemark>
<Placemark><name>民-17 大葉楠</name><Point><coordinates>121.5084532,25.0312752,0</coordinates></Point></Placemark>
<Placemark><name>民-18 拓樹</name><Point><coordinates>121.5085034,25.0311319,0</coordinates></Point></Placemark>
<Placemark><name>民-19 日本楨楠</name><Point><coordinates>121.5084013,25.0312084,0</coordinates></Point></Placemark>
<Placemark><name>民-20 櫸</name><Point><coordinates>121.5084964,25.0313196,0</coordinates></Point></Placemark>
<Placemark><name>民-21 香楠</name><Point><coordinates>121.5084165,25.0312704,0</coordinates></Point></Placemark>
<Placemark><name>民-26 山苦瓜</name><Point><coordinates>121.5086530,25.0313840,0</coordinates></Point></Placemark>
<Placemark><name>民-30 柳條省藤</name><Point><coordinates>121.5083491,25.0313281,0</coordinates></Point></Placemark>
<Placemark><name>民-31 刺竹</name><Point><coordinates>121.5083844,25.0312888,0</coordinates></Point></Placemark>
<Placemark><name>民-32 林投</name><Point><coordinates>121.5083393,25.0312943,0</coordinates></Point></Placemark>
<Placemark><name>民-33 毛土連翹</name><Point><coordinates>121.5087073,25.0313247,0</coordinates></Point></Placemark>
<Placemark><name>民-34 青苧麻</name><Point><coordinates>121.5084055,25.0314887,0</coordinates></Point></Placemark>
<Placemark><name>民-35 食茱萸</name><Point><coordinates>121.5085234,25.0311789,0</coordinates></Point></Placemark>
<Placemark><name>民-36 台灣澤蘭</name><Point><coordinates>121.5085622,25.0313216,0</coordinates></Point></Placemark>
<Placemark><name>民-38 囊桴竹</name><Point><coordinates>121.5085867,25.0314438,0</coordinates></Point></Placemark>
<Placemark><name>民-39 羅氏鹽膚木</name><Point><coordinates>121.5086530,25.0313660,0</coordinates></Point></Placemark>
<Placemark><name>民-40 菜豆</name><Point><coordinates>121.5085925,25.0313332,0</coordinates></Point></Placemark>
<Placemark><name>民-41 落羽松</name><Point><coordinates>121.5084668,25.0311694,0</coordinates></Point></Placemark>
<Placemark><name>民-42 赤小豆</name><Point><coordinates>121.5086143,25.0313365,0</coordinates></Point></Placemark>
<Placemark><name>民-43 隆紋黑蛋巢菌</name><Point><coordinates>121.5086953,25.0312672,0</coordinates></Point></Placemark>
<Placemark><name>民-44 小苞盤菌</name><Point><coordinates>121.5086529,25.0312945,0</coordinates></Point></Placemark>
<Placemark><name>民-45 白背芒</name><Point><coordinates>121.5084335,25.0313188,0</coordinates></Point></Placemark>
<Placemark><name>民-46 車桑子</name><Point><coordinates>121.5083576,25.0313626,0</coordinates></Point></Placemark>
<Placemark><name>民-47 金劍草</name><Point><coordinates>121.5086271,25.0314057,0</coordinates></Point></Placemark>
<Placemark><name>竹-11 木瓜</name><Point><coordinates>121.5080590,25.0316579,0</coordinates></Point></Placemark>
<Placemark><name>竹-14 紅楠</name><Point><coordinates>121.5080406,25.0313699,0</coordinates></Point></Placemark>
<Placemark><name>竹-15 紫花藿香薊</name><Point><coordinates>121.5082913,25.0314836,0</coordinates></Point></Placemark>
<Placemark><name>竹-17 台灣麟球花</name><Point><coordinates>121.5081940,25.0314210,0</coordinates></Point></Placemark>
<Placemark><name>竹-18 堅硬女婁菜</name><Point><coordinates>121.5081194,25.0314635,0</coordinates></Point></Placemark>
<Placemark><name>竹-21 牛皮消</name><Point><coordinates>121.5082004,25.0315073,0</coordinates></Point></Placemark>
<Placemark><name>竹-22 珍珠菜</name><Point><coordinates>121.5080950,25.0315164,0</coordinates></Point></Placemark>
<Placemark><name>竹-28 魚眼草</name><Point><coordinates>121.5082572,25.0314909,0</coordinates></Point></Placemark>
<Placemark><name>竹-30 鼠麴草</name><Point><coordinates>121.5080970,25.0314461,0</coordinates></Point></Placemark>
<Placemark><name>竹-35 毛蓼</name><Point><coordinates>121.5082689,25.0314577,0</coordinates></Point></Placemark>
<Placemark><name>竹-40 臺灣破傘菊</name><Point><coordinates>121.5082252,25.0315251,0</coordinates></Point></Placemark>
<Placemark><name>竹-42 葶藶</name><Point><coordinates>121.5081426,25.0314783,0</coordinates></Point></Placemark>
<Placemark><name>竹-46 過江藤</name><Point><coordinates>121.5081706,25.0315002,0</coordinates></Point></Placemark>
<Placemark><name>竹-49 疣果葉下珠</name><Point><coordinates>121.5080894,25.0314783,0</coordinates></Point></Placemark>
<Placemark><name>竹-50 萎陵菜</name><Point><coordinates>121.5081476,25.0315452,0</coordinates></Point></Placemark>
<Placemark><name>竹-51 石薺薴</name><Point><coordinates>121.5081394,25.0314072,0</coordinates></Point></Placemark>
<Placemark><name>竹-52 葉氏坡油甘</name><Point><coordinates>121.5082325,25.0314844,0</coordinates></Point></Placemark>
<Placemark><name>竹-53 山萵苣</name><Point><coordinates>121.5081238,25.0314255,0</coordinates></Point></Placemark>
<Placemark><name>竹-54 澎蜞菊</name><Point><coordinates>121.5081610,25.0314044,0</coordinates></Point></Placemark>
<Placemark><name>竹-55 薄荷</name><Point><coordinates>121.5081703,25.0315363,0</coordinates></Point></Placemark>
<Placemark><name>竹-56 高粱</name><Point><coordinates>121.5082547,25.0315764,0</coordinates></Point></Placemark>
<Placemark><name>竹-57 台灣土黨參</name><Point><coordinates>121.5081577,25.0314369,0</coordinates></Point></Placemark>
<Placemark><name>竹-58 直毛假地豆</name><Point><coordinates>121.5082202,25.0315527,0</coordinates></Point></Placemark>
<Placemark><name>竹-59 仙草</name><Point><coordinates>121.5081470,25.0315089,0</coordinates></Point></Placemark>
<Placemark><name>竹-60 印度山芙蓉</name><Point><coordinates>121.5082643,25.0316541,0</coordinates></Point></Placemark>
<Placemark><name>竹-61 台灣油芒</name><Point><coordinates>121.5082702,25.0315381,0</coordinates></Point></Placemark>
<Placemark><name>竹-63 薏苡</name><Point><coordinates>121.5082317,25.0315758,0</coordinates></Point></Placemark>
<Placemark><name>竹-64 灰葉蕕</name><Point><coordinates>121.5081228,25.0315213,0</coordinates></Point></Placemark>
<Placemark><name>竹-66 包籜矢竹</name><Point><coordinates>121.5082547,25.0316319,0</coordinates></Point></Placemark>
<Placemark><name>竹-67 白花藿香薊</name><Point><coordinates>121.5082351,25.0314551,0</coordinates></Point></Placemark>
<Placemark><name>水-03 心葉齒果澤瀉</name><Point><coordinates>121.5083417,25.0317571,0</coordinates></Point></Placemark>
<Placemark><name>水-09 木賊</name><Point><coordinates>121.5082652,25.0318367,0</coordinates></Point></Placemark>
<Placemark><name>水-10 華九頭獅子草</name><Point><coordinates>121.5083703,25.0317189,0</coordinates></Point></Placemark>
<Placemark><name>水-11 醴腸</name><Point><coordinates>121.5084071,25.0316775,0</coordinates></Point></Placemark>
<Placemark><name>水-20 煉莢豆</name><Point><coordinates>121.5081803,25.0319011,0</coordinates></Point></Placemark>
<Placemark><name>水-22 七爪萼龍藤</name><Point><coordinates>121.5085181,25.0316854,0</coordinates></Point></Placemark>
<Placemark><name>水-23 桃園石龍尾</name><Point><coordinates>121.5082283,25.0319151,0</coordinates></Point></Placemark>
<Placemark><name>水-24 蜘蛛百合</name><Point><coordinates>121.5084622,25.0316271,0</coordinates></Point></Placemark>
<Placemark><name>水-25 長苞菖蒲</name><Point><coordinates>121.5083051,25.0318088,0</coordinates></Point></Placemark>
<Placemark><name>水-26 紅樓花</name><Point><coordinates>121.5084450,25.0317440,0</coordinates></Point></Placemark>
<Placemark><name>水-27 匙蓋假花耳</name><Point><coordinates>121.5085984,25.0315860,0</coordinates></Point></Placemark>
<Placemark><name>地-01 台灣山茶</name><Point><coordinates>121.5090519,25.0317585,0</coordinates></Point></Placemark>
<Placemark><name>地-08 茶匙癀</name><Point><coordinates>121.5090839,25.0316661,0</coordinates></Point></Placemark>
<Placemark><name>地-11 台灣黃鵪菜</name><Point><coordinates>121.5090020,25.0320355,0</coordinates></Point></Placemark>
<Placemark><name>地-14 小堇菜</name><Point><coordinates>121.5090433,25.0317840,0</coordinates></Point></Placemark>
<Placemark><name>地-21 基隆紫堇</name><Point><coordinates>121.5089011,25.0319067,0</coordinates></Point></Placemark>
<Placemark><name>地-22 墨染櫻</name><Point><coordinates>121.5089962,25.0318095,0</coordinates></Point></Placemark>
<Placemark><name>地-23 大武蜘蛛抱蛋</name><Point><coordinates>121.5088526,25.0319067,0</coordinates></Point></Placemark>
<Placemark><name>地-24 白珊瑚花</name><Point><coordinates>121.5090751,25.0320489,0</coordinates></Point></Placemark>
<Placemark><name>地-27 恆春半插花</name><Point><coordinates>121.5086954,25.0319250,0</coordinates></Point></Placemark>
<Placemark><name>地-28 玉蘭花</name><Point><coordinates>121.5089459,25.0319434,0</coordinates></Point></Placemark>
<Placemark><name>地-31 苗栗崖爬藤</name><Point><coordinates>121.5088881,25.0318814,0</coordinates></Point></Placemark>
<Placemark><name>地-33 路易士安那鳶尾</name><Point><coordinates>121.5091830,25.0316907,0</coordinates></Point></Placemark>
<Placemark><name>地-34 澎湖大豆</name><Point><coordinates>121.5089898,25.0320589,0</coordinates></Point></Placemark>
<Placemark><name>地-35 紅花細葉紫珠</name><Point><coordinates>121.5088945,25.0319507,0</coordinates></Point></Placemark>
<Placemark><name>地-37 基隆野山藥</name><Point><coordinates>121.5088716,25.0319313,0</coordinates></Point></Placemark>
<Placemark><name>地-38 闊葉大豆</name><Point><coordinates>121.5089519,25.0320066,0</coordinates></Point></Placemark>
<Placemark><name>地-39 夏菫</name><Point><coordinates>121.5090323,25.0318146,0</coordinates></Point></Placemark>
<Placemark><name>地-40 文竹</name><Point><coordinates>121.5091502,25.0316469,0</coordinates></Point></Placemark>
<Placemark><name>地-41 鳳凰山茶</name><Point><coordinates>121.5087933,25.0319082,0</coordinates></Point></Placemark>
<Placemark><name>地-42 龍潭莕菜</name><Point><coordinates>121.5087474,25.0319315,0</coordinates></Point></Placemark>
<Placemark><name>地-43 烏來鳳尾蕨</name><Point><coordinates>121.5088345,25.0318695,0</coordinates></Point></Placemark>
<Placemark><name>地-44 苗栗白花籠</name><Point><coordinates>121.5087512,25.0318841,0</coordinates></Point></Placemark>
<Placemark><name>茜-07 清水氏雞屎樹</name><Point><coordinates>121.5094698,25.0319937,0</coordinates></Point></Placemark>
<Placemark><name>茜-26 黃仙丹花</name><Point><coordinates>121.5095528,25.0321152,0</coordinates></Point></Placemark>
<Placemark><name>茜-33 卡鄧伯木</name><Point><coordinates>121.5094843,25.0321966,0</coordinates></Point></Placemark>
<Placemark><name>茜-38 毛菍</name><Point><coordinates>121.5094326,25.0316586,0</coordinates></Point></Placemark>
<Placemark><name>茜-39 血萼花</name><Point><coordinates>121.5095149,25.0315903,0</coordinates></Point></Placemark>
<Placemark><name>茜-40 重瓣梔子花</name><Point><coordinates>121.5094759,25.0319415,0</coordinates></Point></Placemark>
<Placemark><name>茜-41 鯽魚膽</name><Point><coordinates>121.5094473,25.0316340,0</coordinates></Point></Placemark>
<Placemark><name>茜-42 鵝鑾鼻榕</name><Point><coordinates>121.5094358,25.0316762,0</coordinates></Point></Placemark>
<Placemark><name>茜-43 排錢樹</name><Point><coordinates>121.5094095,25.0316392,0</coordinates></Point></Placemark>
<Placemark><name>茜-44 屏東朝顏</name><Point><coordinates>121.5094848,25.0317191,0</coordinates></Point></Placemark>
<Placemark><name>茜-45 細葉黃楊</name><Point><coordinates>121.5093625,25.0315966,0</coordinates></Point></Placemark>
<Placemark><name>茜-46 六角英</name><Point><coordinates>121.5094214,25.0316075,0</coordinates></Point></Placemark>
<Placemark><name>茜-47 赤苞花</name><Point><coordinates>121.5095473,25.0319137,0</coordinates></Point></Placemark>
<Placemark><name>地-09 長柄竹蕉</name><Point><coordinates>121.5111440,25.0324200,0</coordinates></Point></Placemark>
<Placemark><name>地-03 恆春山茶</name><Point><coordinates>121.5090400,25.0317755,0</coordinates></Point></Placemark>
<Placemark><name>地-03 #2 恆春山茶</name><Point><coordinates>121.5091910,25.0329780,0</coordinates></Point></Placemark>
<Placemark><name>地-07 苗栗白花龍</name><Point><coordinates>121.5087646,25.0318927,0</coordinates></Point></Placemark>
<Placemark><name>舟-08 都蘭山金石榴</name><Point><coordinates>121.5089540,25.0313630,0</coordinates></Point></Placemark>
<Placemark><name>原-03 大苞偏穗花</name><Point><coordinates>121.5088070,25.0313260,0</coordinates></Point></Placemark>
<Placemark><name>民-11 鵲豆</name><Point><coordinates>121.5086140,25.0313450,0</coordinates></Point></Placemark>
<Placemark><name>水-02 大安水蓑衣</name><Point><coordinates>121.5086027,25.0314935,0</coordinates></Point></Placemark>
<Placemark><name>民-09 蓪草</name><Point><coordinates>121.5084230,25.0314160,0</coordinates></Point></Placemark>
<Placemark><name>民-09 #2 蓪草</name><Point><coordinates>121.5092580,25.0328770,0</coordinates></Point></Placemark>
<Placemark><name>茜-02 圓葉雞屎樹</name><Point><coordinates>121.5094943,25.0320195,0</coordinates></Point></Placemark>
<Placemark><name>肉-12 錦鹿丹</name><Point><coordinates>121.5095719,25.0320520,0</coordinates></Point></Placemark>
<Placemark><name>竹-04 田代氏鼠尾草</name><Point><coordinates>121.5093522,25.0316089,0</coordinates></Point></Placemark>
<Placemark><name>肖-04 毛葉蝴蝶草</name><Point><coordinates>121.5090537,25.0316758,0</coordinates></Point></Placemark>
<Placemark><name>肖-04 #2 毛葉蝴蝶草</name><Point><coordinates>121.5090061,25.0320651,0</coordinates></Point></Placemark>
<Placemark><name>地-10 黃扇鳶尾</name><Point><coordinates>121.5089930,25.0316999,0</coordinates></Point></Placemark>
<Placemark><name>舟後-15 阿薩姆茶</name><Point><coordinates>121.5090500,25.0317476,0</coordinates></Point></Placemark>
<Placemark><name>地-06 細葉紫珠</name><Point><coordinates>121.5089049,25.0319296,0</coordinates></Point></Placemark>
<Placemark><name>竹-05 芫花</name><Point><coordinates>121.5081988,25.0315303,0</coordinates></Point></Placemark>
<Placemark><name>竹-02 庭梅</name><Point><coordinates>121.5097220,25.0328580,0</coordinates></Point></Placemark>
<Placemark><name>竹-02 #2 庭梅</name><Point><coordinates>121.5080955,25.0315472,0</coordinates></Point></Placemark>
<Placemark><name>民-05 天仙果</name><Point><coordinates>121.5084827,25.0311461,0</coordinates></Point></Placemark>
<Placemark><name>荷-04 #2 向天盞</name><Point><coordinates>121.5084026,25.0316988,0</coordinates></Point></Placemark>
<Placemark><name>竹-03 牧野氏山芙蓉</name><Point><coordinates>121.5083449,25.0315614,0</coordinates></Point></Placemark>
<Placemark><name>舟後-10 海桐</name><Point><coordinates>121.5090759,25.0312530,0</coordinates></Point></Placemark>
<Placemark><name>茜-04 蔓性野牡丹</name><Point><coordinates>121.5094361,25.0315674,0</coordinates></Point></Placemark>
<Placemark><name>地-05 紫夢幻蕉</name><Point><coordinates>121.5089773,25.0317426,0</coordinates></Point></Placemark>
<Placemark><name>竹-01 印度黃芩</name><Point><coordinates>121.5089810,25.0320560,0</coordinates></Point></Placemark>
<Placemark><name>竹-01 #2 印度黃芩</name><Point><coordinates>121.5080821,25.0315191,0</coordinates></Point></Placemark>
<Placemark><name>原-02 台灣瑞木</name><Point><coordinates>121.5089310,25.0312920,0</coordinates></Point></Placemark>
<Placemark><name>原-04 寬葉金粟蘭</name><Point><coordinates>121.5088180,25.0313150,0</coordinates></Point></Placemark>
<Placemark><name>蕨-01 台灣野牡丹藤</name><Point><coordinates>121.5088690,25.0313750,0</coordinates></Point></Placemark>
<Placemark><name>民-07 樹豆</name><Point><coordinates>121.5086860,25.0313840,0</coordinates></Point></Placemark>
<Placemark><name>民-06 山枇杷</name><Point><coordinates>121.5085563,25.0314319,0</coordinates></Point></Placemark>
<Placemark><name>水-04 烏皮九芎</name><Point><coordinates>121.5080973,25.0319461,0</coordinates></Point></Placemark>
<Placemark><name>水-01 台灣萍蓬草</name><Point><coordinates>121.5082500,25.0318870,0</coordinates></Point></Placemark>
<Placemark><name>舟左-02 #2 凹葉柃木</name><Point><coordinates>121.5095034,25.0314389,0</coordinates></Point></Placemark>
<Placemark><name>舟左-02 #3 凹葉柃木</name><Point><coordinates>121.5093707,25.0327493,0</coordinates></Point></Placemark>
<Placemark><name>名-04 #2 大葉桂</name><Point><coordinates>121.5094471,25.0319722,0</coordinates></Point></Placemark>
<Placemark><name>茜-03 琉球黃楊</name><Point><coordinates>121.5093976,25.0315825,0</coordinates></Point></Placemark>
<Placemark><name>茜-03 #2 琉球黃楊</name><Point><coordinates>121.5089500,25.0313680,0</coordinates></Point></Placemark>
<Placemark><name>原-05 施丁草</name><Point><coordinates>121.5088570,25.0312750,0</coordinates></Point></Placemark>
<Placemark><name>原-06 花葉蘭嶼海桐</name><Point><coordinates>121.5088010,25.0313440,0</coordinates></Point></Placemark>
<Placemark><name>民-10 虎婆刺</name><Point><coordinates>121.5087023,25.0313221,0</coordinates></Point></Placemark>
<Placemark><name>民-10 #3 虎婆刺</name><Point><coordinates>121.5096560,25.0327050,0</coordinates></Point></Placemark>
<Placemark><name>原-01 台灣刺蕊草</name><Point><coordinates>121.5081762,25.0314966,0</coordinates></Point></Placemark>
<Placemark><name>棕-01 水茄</name><Point><coordinates>121.5092464,25.0306764,0</coordinates></Point></Placemark>
<Placemark><name>地-04 紅花蘆莉</name><Point><coordinates>121.5090980,25.0316720,0</coordinates></Point></Placemark>
<Placemark><name>薑-01 火焰木</name><Point><coordinates>121.5091385,25.0317001,0</coordinates></Point></Placemark>
<Placemark><name>茜-01 九節木</name><Point><coordinates>121.5096470,25.0314978,0</coordinates></Point></Placemark>
<Placemark><name>茜-01 #2 九節木</name><Point><coordinates>121.5089960,25.0316214,0</coordinates></Point></Placemark>
<Placemark><name>地-15 櫻花</name><Point><coordinates>121.5089780,25.0320940,0</coordinates></Point></Placemark>
<Placemark><name>舟左-05 日本山茶</name><Point><coordinates>121.5090337,25.0317954,0</coordinates></Point></Placemark>
<Placemark><name>茜-08 野牡丹</name><Point><coordinates>121.5094222,25.0315791,0</coordinates></Point></Placemark>
<Placemark><name>天-02 亞馬遜百合</name><Point><coordinates>121.5094703,25.0313883,0</coordinates></Point></Placemark>
<Placemark><name>棕-02 冬紅花</name><Point><coordinates>121.5092575,25.0310766,0</coordinates></Point></Placemark>
<Placemark><name>竹-08 佛萊明豆</name><Point><coordinates>121.5081850,25.0315810,0</coordinates></Point></Placemark>
<Placemark><name>竹-08 #2 佛萊明豆</name><Point><coordinates>121.5104142,25.0322226,0</coordinates></Point></Placemark>
<Placemark><name>水-07 輪傘莎草</name><Point><coordinates>121.5081441,25.0320806,0</coordinates></Point></Placemark>
<Placemark><name>茜-06 雀舌黃楊</name><Point><coordinates>121.5089430,25.0322020,0</coordinates></Point></Placemark>
<Placemark><name>茜-06 #2 雀舌黃楊</name><Point><coordinates>121.5093356,25.0315840,0</coordinates></Point></Placemark>
<Placemark><name>地-19 蔓苦蕒</name><Point><coordinates>121.5089760,25.0320930,0</coordinates></Point></Placemark>
<Placemark><name>薑-04 茶匙黃</name><Point><coordinates>121.5090704,25.0316866,0</coordinates></Point></Placemark>
<Placemark><name>原-07 苦檻藍</name><Point><coordinates>121.5088370,25.0313060,0</coordinates></Point></Placemark>
<Placemark><name>荷-24 枯里珍</name><Point><coordinates>121.5088430,25.0312770,0</coordinates></Point></Placemark>
<Placemark><name>佛-13 #2 呂宋莢迷</name><Point><coordinates>121.5092916,25.0321491,0</coordinates></Point></Placemark>
<Placemark><name>蕨-08 羊蹄甲</name><Point><coordinates>121.5096830,25.0322319,0</coordinates></Point></Placemark>
<Placemark><name>原-12 細葉蚊母樹</name><Point><coordinates>121.5088810,25.0314000,0</coordinates></Point></Placemark>
<Placemark><name>民-14 石菖蒲</name><Point><coordinates>121.5086441,25.0312570,0</coordinates></Point></Placemark>
<Placemark><name>原-09 日本鳶尾</name><Point><coordinates>121.5088330,25.0313430,0</coordinates></Point></Placemark>
<Placemark><name>竹-10 台灣馬兜鈴</name><Point><coordinates>121.5081272,25.0319127,0</coordinates></Point></Placemark>
<Placemark><name>竹-10 #2 台灣馬兜鈴</name><Point><coordinates>121.5088200,25.0312910,0</coordinates></Point></Placemark>
<Placemark><name>原-11 桔梗蘭</name><Point><coordinates>121.5094200,25.0328360,0</coordinates></Point></Placemark>
<Placemark><name>地-18 煙火樹</name><Point><coordinates>121.5089748,25.0316450,0</coordinates></Point></Placemark>
<Placemark><name>地-17 澎湖金午時花</name><Point><coordinates>121.5087173,25.0318801,0</coordinates></Point></Placemark>
<Placemark><name>地-13 和平菱果薹</name><Point><coordinates>121.5088520,25.0319066,0</coordinates></Point></Placemark>
<Placemark><name>地-02 咖啡</name><Point><coordinates>121.5092330,25.0328240,0</coordinates></Point></Placemark>
<Placemark><name>水-05 大花皇冠草</name><Point><coordinates>121.5084282,25.0316903,0</coordinates></Point></Placemark>
<Placemark><name>竹-29 魚腥草（蕺菜）</name><Point><coordinates>121.5081129,25.0314496,0</coordinates></Point></Placemark>
<Placemark><name>肖-22 #2 狗骨仔</name><Point><coordinates>121.5082088,25.0316344,0</coordinates></Point></Placemark>
<Placemark><name>澳-12 蘭嶼野茉莉</name><Point><coordinates>121.5093200,25.0316570,0</coordinates></Point></Placemark>
<Placemark><name>民-04 大頭茶</name><Point><coordinates>121.5085588,25.0312549,0</coordinates></Point></Placemark>
<Placemark><name>原-19 翻白草</name><Point><coordinates>121.5088860,25.0312720,0</coordinates></Point></Placemark>
<Placemark><name>原-19 #2 翻白草</name><Point><coordinates>121.5104646,25.0321170,0</coordinates></Point></Placemark>
<Placemark><name>舟後-27 鵝兒腸</name><Point><coordinates>121.5081610,25.0315570,0</coordinates></Point></Placemark>
<Placemark><name>竹-23 紅梅消</name><Point><coordinates>121.5082400,25.0315116,0</coordinates></Point></Placemark>
<Placemark><name>原-08 多序宿柱薹</name><Point><coordinates>121.5088340,25.0312840,0</coordinates></Point></Placemark>
<Placemark><name>舟-41 茄苳</name><Point><coordinates>121.5087716,25.0313027,0</coordinates></Point></Placemark>
<Placemark><name>竹-16 台灣蒲公英</name><Point><coordinates>121.5080889,25.0314796,0</coordinates></Point></Placemark>
<Placemark><name>荷-30 #2 青龍鳶尾</name><Point><coordinates>121.5090319,25.0315854,0</coordinates></Point></Placemark>
<Placemark><name>茜-18 麝香木</name><Point><coordinates>121.5104460,25.0317600,0</coordinates></Point></Placemark>
<Placemark><name>茜-13 玉葉金花</name><Point><coordinates>121.5095147,25.0316371,0</coordinates></Point></Placemark>
<Placemark><name>薑-11 檸檬薑</name><Point><coordinates>121.5091490,25.0313270,0</coordinates></Point></Placemark>
<Placemark><name>棕-03 大葉釣樟</name><Point><coordinates>121.5092423,25.0309975,0</coordinates></Point></Placemark>
<Placemark><name>薑-18 雪佛里椰子</name><Point><coordinates>121.5091120,25.0313210,0</coordinates></Point></Placemark>
<Placemark><name>肖-17 #2 南國小薊</name><Point><coordinates>121.5081220,25.0315050,0</coordinates></Point></Placemark>
<Placemark><name>竹-25 蓬萊珍珠菜</name><Point><coordinates>121.5081260,25.0315600,0</coordinates></Point></Placemark>
<Placemark><name>水-06 披針葉慈姑</name><Point><coordinates>121.5084370,25.0316555,0</coordinates></Point></Placemark>
<Placemark><name>水-08 刺芋</name><Point><coordinates>121.5085317,25.0315511,0</coordinates></Point></Placemark>
<Placemark><name>水-08 #2 刺芋</name><Point><coordinates>121.5083900,25.0317180,0</coordinates></Point></Placemark>
<Placemark><name>茜-17 阿里山女貞</name><Point><coordinates>121.5093210,25.0316195,0</coordinates></Point></Placemark>
<Placemark><name>佛-16 台灣附地草</name><Point><coordinates>121.5088790,25.0319093,0</coordinates></Point></Placemark>
<Placemark><name>地-20 台灣風蘭</name><Point><coordinates>121.5086936,25.0318662,0</coordinates></Point></Placemark>
<Placemark><name>茜-14 珊瑚塔</name><Point><coordinates>121.5096187,25.0321817,0</coordinates></Point></Placemark>
<Placemark><name>民-13 山胡椒</name><Point><coordinates>121.5084320,25.0313470,0</coordinates></Point></Placemark>
<Placemark><name>地-16 沃格爾鄧伯花</name><Point><coordinates>121.5090500,25.0319705,0</coordinates></Point></Placemark>
<Placemark><name>地-16 #2 沃格爾鄧伯花</name><Point><coordinates>121.5099880,25.0330080,0</coordinates></Point></Placemark>
<Placemark><name>民-16 台灣櫸</name><Point><coordinates>121.5085307,25.0313472,0</coordinates></Point></Placemark>
<Placemark><name>民-12 台灣二葉松</name><Point><coordinates>121.5084780,25.0314030,0</coordinates></Point></Placemark>
<Placemark><name>澳-17 水芹菜</name><Point><coordinates>121.5081906,25.0314254,0</coordinates></Point></Placemark>
<Placemark><name>竹-24 綬草</name><Point><coordinates>121.5088500,25.0323700,0</coordinates></Point></Placemark>
<Placemark><name>竹-24 #2 綬草</name><Point><coordinates>121.5111680,25.0325760,0</coordinates></Point></Placemark>
<Placemark><name>茜-09 台灣大戟</name><Point><coordinates>121.5094156,25.0315521,0</coordinates></Point></Placemark>
<Placemark><name>茜-09 #2 台灣大戟</name><Point><coordinates>121.5081261,25.0314880,0</coordinates></Point></Placemark>
<Placemark><name>荷-40 #3 白樹仔</name><Point><coordinates>121.5086905,25.0312910,0</coordinates></Point></Placemark>
<Placemark><name>茜-16 紅珊瑚花</name><Point><coordinates>121.5095434,25.0318912,0</coordinates></Point></Placemark>
<Placemark><name>茜-12 水錦樹</name><Point><coordinates>121.5095317,25.0317369,0</coordinates></Point></Placemark>
<Placemark><name>竹-26 香茶菜</name><Point><coordinates>121.5081182,25.0314396,0</coordinates></Point></Placemark>
<Placemark><name>原-15 小石積</name><Point><coordinates>121.5088120,25.0313670,0</coordinates></Point></Placemark>
<Placemark><name>舟-44 鶴頂蘭</name><Point><coordinates>121.5088736,25.0312631,0</coordinates></Point></Placemark>
<Placemark><name>原-14 南丹參</name><Point><coordinates>121.5089320,25.0312880,0</coordinates></Point></Placemark>
<Placemark><name>茜-19 麥氏野扁豆</name><Point><coordinates>121.5094523,25.0316384,0</coordinates></Point></Placemark>
<Placemark><name>薑-09 屈尺月桃</name><Point><coordinates>121.5093571,25.0315086,0</coordinates></Point></Placemark>
<Placemark><name>地-25 紅花檵木</name><Point><coordinates>121.5105363,25.0322873,0</coordinates></Point></Placemark>
<Placemark><name>薑-15 綠山閉鞘薑</name><Point><coordinates>121.5092180,25.0315160,0</coordinates></Point></Placemark>
<Placemark><name>薑-12 烏來月桃</name><Point><coordinates>121.5090320,25.0314150,0</coordinates></Point></Placemark>
<Placemark><name>荷-38 #2 水豬母乳</name><Point><coordinates>121.5081400,25.0315700,0</coordinates></Point></Placemark>
<Placemark><name>茜-05 變葉木</name><Point><coordinates>121.5094945,25.0318112,0</coordinates></Point></Placemark>
<Placemark><name>茜-15 瑪瑙珠</name><Point><coordinates>121.5094423,25.0319425,0</coordinates></Point></Placemark>
<Placemark><name>竹-13 竹仔菜</name><Point><coordinates>121.5081652,25.0313863,0</coordinates></Point></Placemark>
<Placemark><name>茜-11 大葉玉葉金花</name><Point><coordinates>121.5095002,25.0315973,0</coordinates></Point></Placemark>
<Placemark><name>竹-20 布列氏黃芩</name><Point><coordinates>121.5081371,25.0314550,0</coordinates></Point></Placemark>
<Placemark><name>薑-08 宜蘭月桃</name><Point><coordinates>121.5091020,25.0313670,0</coordinates></Point></Placemark>
<Placemark><name>地-26 香鈴梔</name><Point><coordinates>121.5090985,25.0318490,0</coordinates></Point></Placemark>
<Placemark><name>竹-39 線葉佛萊明豆</name><Point><coordinates>121.5082300,25.0315400,0</coordinates></Point></Placemark>
<Placemark><name>茜-22 澎湖決明</name><Point><coordinates>121.5094079,25.0315845,0</coordinates></Point></Placemark>
<Placemark><name>薑-13 粉紅閉鞘薑</name><Point><coordinates>121.5091370,25.0312860,0</coordinates></Point></Placemark>
<Placemark><name>茜-10 大葉溲疏</name><Point><coordinates>121.5092891,25.0316577,0</coordinates></Point></Placemark>
<Placemark><name>茜-10 #2 大葉溲疏</name><Point><coordinates>121.5105950,25.0325730,0</coordinates></Point></Placemark>
<Placemark><name>肉-55 蟛蜞菊</name><Point><coordinates>121.5082270,25.0314520,0</coordinates></Point></Placemark>
<Placemark><name>荷-03 #2 台灣金絲桃</name><Point><coordinates>121.5089140,25.0313970,0</coordinates></Point></Placemark>
<Placemark><name>薑-16 鈴木草</name><Point><coordinates>121.5089140,25.0323910,0</coordinates></Point></Placemark>
<Placemark><name>竹-19 夏枯草</name><Point><coordinates>121.5104360,25.0321080,0</coordinates></Point></Placemark>
<Placemark><name>薑-19 南投月桃</name><Point><coordinates>121.5090530,25.0313810,0</coordinates></Point></Placemark>
<Placemark><name>薑-25 島田氏月桃</name><Point><coordinates>121.5090650,25.0313300,0</coordinates></Point></Placemark>
<Placemark><name>雙-04 #2 山黃梔</name><Point><coordinates>121.5082765,25.0315752,0</coordinates></Point></Placemark>
<Placemark><name>雙-04 #3 山黃梔</name><Point><coordinates>121.5094972,25.0318566,0</coordinates></Point></Placemark>
<Placemark><name>雙-04 #4 山黃梔</name><Point><coordinates>121.5089744,25.0318846,0</coordinates></Point></Placemark>
<Placemark><name>竹-36 灰木</name><Point><coordinates>121.5081990,25.0315490,0</coordinates></Point></Placemark>
<Placemark><name>荷-50 #2 蘭嶼秋海棠</name><Point><coordinates>121.5088140,25.0313420,0</coordinates></Point></Placemark>
<Placemark><name>薑-29 梭型齒絲薑</name><Point><coordinates>121.5090260,25.0313910,0</coordinates></Point></Placemark>
<Placemark><name>薑-23 屯鹿月桃</name><Point><coordinates>121.5092887,25.0314668,0</coordinates></Point></Placemark>
<Placemark><name>薑-28 普萊氏月桃</name><Point><coordinates>121.5090960,25.0313190,0</coordinates></Point></Placemark>
<Placemark><name>水-12 三白草</name><Point><coordinates>121.5084670,25.0316250,0</coordinates></Point></Placemark>
<Placemark><name>水-12 #2 三白草</name><Point><coordinates>121.5113370,25.0316660,0</coordinates></Point></Placemark>
<Placemark><name>地-29 石碇佛甲草</name><Point><coordinates>121.5104720,25.0321490,0</coordinates></Point></Placemark>
<Placemark><name>茜-24 雞屎樹</name><Point><coordinates>121.5094860,25.0319572,0</coordinates></Point></Placemark>
<Placemark><name>薑-20 呂宋月桃</name><Point><coordinates>121.5091010,25.0314070,0</coordinates></Point></Placemark>
<Placemark><name>原-23 穗花斑葉蘭</name><Point><coordinates>121.5088080,25.0313240,0</coordinates></Point></Placemark>
<Placemark><name>薑-22 大苞閉鞘薑</name><Point><coordinates>121.5093254,25.0313655,0</coordinates></Point></Placemark>
<Placemark><name>水-15 鍊莢豆</name><Point><coordinates>121.5081910,25.0319300,0</coordinates></Point></Placemark>
<Placemark><name>薑-34 火紅赫蕉</name><Point><coordinates>121.5091920,25.0313960,0</coordinates></Point></Placemark>
<Placemark><name>水-17 鸚黃赫蕉</name><Point><coordinates>121.5081810,25.0320610,0</coordinates></Point></Placemark>
<Placemark><name>薑-39 路易斯安那鳶尾</name><Point><coordinates>121.5089647,25.0315658,0</coordinates></Point></Placemark>
<Placemark><name>薑-43 非洲閉鞘薑</name><Point><coordinates>121.5092220,25.0314990,0</coordinates></Point></Placemark>
<Placemark><name>地-32 藝伎咖啡</name><Point><coordinates>121.5090116,25.0318719,0</coordinates></Point></Placemark>
<Placemark><name>水-14 金午時花</name><Point><coordinates>121.5083180,25.0317800,0</coordinates></Point></Placemark>
<Placemark><name>水-16 香鄧伯花</name><Point><coordinates>121.5088621,25.0315459,0</coordinates></Point></Placemark>
<Placemark><name>茜-21 大果玉心花</name><Point><coordinates>121.5095454,25.0317820,0</coordinates></Point></Placemark>
<Placemark><name>茜-25 鷗蔓</name><Point><coordinates>121.5085226,25.0314981,0</coordinates></Point></Placemark>
<Placemark><name>茜-23 菲律賓紫檀</name><Point><coordinates>121.5094886,25.0315191,0</coordinates></Point></Placemark>
<Placemark><name>薑-33 火炬薑</name><Point><coordinates>121.5089720,25.0314250,0</coordinates></Point></Placemark>
<Placemark><name>薑-33 #2 火炬薑</name><Point><coordinates>121.5092092,25.0312945,0</coordinates></Point></Placemark>
<Placemark><name>薑-31 歐氏月桃</name><Point><coordinates>121.5091050,25.0314600,0</coordinates></Point></Placemark>
<Placemark><name>薑-40 銀脈鳳尾蕨</name><Point><coordinates>121.5090720,25.0316310,0</coordinates></Point></Placemark>
<Placemark><name>棕-08 山棕</name><Point><coordinates>121.5083493,25.0314396,0</coordinates></Point></Placemark>
<Placemark><name>棕-08 #2 山棕</name><Point><coordinates>121.5091800,25.0313890,0</coordinates></Point></Placemark>
<Placemark><name>薑-32 海南三七</name><Point><coordinates>121.5092030,25.0314080,0</coordinates></Point></Placemark>
<Placemark><name>竹-38 琉璃繁縷</name><Point><coordinates>121.5081691,25.0314476,0</coordinates></Point></Placemark>
<Placemark><name>竹-33 姑婆芋</name><Point><coordinates>121.5085430,25.0312880,0</coordinates></Point></Placemark>
<Placemark><name>薑-37 角板山月桃</name><Point><coordinates>121.5090480,25.0313580,0</coordinates></Point></Placemark>
<Placemark><name>民-22 土半夏</name><Point><coordinates>121.5086403,25.0313993,0</coordinates></Point></Placemark>
<Placemark><name>薑-41 銀葉樹</name><Point><coordinates>121.5093804,25.0315464,0</coordinates></Point></Placemark>
<Placemark><name>竹-32 大漢山珍珠菜</name><Point><coordinates>121.5081285,25.0314151,0</coordinates></Point></Placemark>
<Placemark><name>薑-30 橢圓葉月桃</name><Point><coordinates>121.5087225,25.0310979,0</coordinates></Point></Placemark>
<Placemark><name>薑-35 紅花月桃</name><Point><coordinates>121.5091380,25.0312990,0</coordinates></Point></Placemark>
<Placemark><name>民-02 囊稃竹</name><Point><coordinates>121.5085611,25.0314649,0</coordinates></Point></Placemark>
<Placemark><name>薑-50 川上氏月桃</name><Point><coordinates>121.5090190,25.0314140,0</coordinates></Point></Placemark>
<Placemark><name>薑-60 紫背竹芋</name><Point><coordinates>121.5090690,25.0314610,0</coordinates></Point></Placemark>
<Placemark><name>原-22 小葉魚藤</name><Point><coordinates>121.5098090,25.0327020,0</coordinates></Point></Placemark>
<Placemark><name>薑-49 寶塔薑</name><Point><coordinates>121.5091360,25.0313580,0</coordinates></Point></Placemark>
<Placemark><name>澳-38 白仙丹花</name><Point><coordinates>121.5091633,25.0316813,0</coordinates></Point></Placemark>
<Placemark><name>水-13 秘魯水丁香</name><Point><coordinates>121.5083620,25.0317390,0</coordinates></Point></Placemark>
<Placemark><name>薑-38 距花山薑</name><Point><coordinates>121.5091190,25.0312890,0</coordinates></Point></Placemark>
<Placemark><name>原-30 方莖金絲桃</name><Point><coordinates>121.5111650,25.0322760,0</coordinates></Point></Placemark>
<Placemark><name>棕-09 觀音棕竹</name><Point><coordinates>121.5116880,25.0319010,0</coordinates></Point></Placemark>
<Placemark><name>棕-09 #2 觀音棕竹</name><Point><coordinates>121.5093445,25.0313017,0</coordinates></Point></Placemark>
<Placemark><name>原-27 山芝麻</name><Point><coordinates>121.5089200,25.0312810,0</coordinates></Point></Placemark>
<Placemark><name>地-30 臘腸樹</name><Point><coordinates>121.5090996,25.0317478,0</coordinates></Point></Placemark>
<Placemark><name>薑-52 彩虹鳥蕉</name><Point><coordinates>121.5092700,25.0313040,0</coordinates></Point></Placemark>
<Placemark><name>薑-62 蘭嶼竹芋</name><Point><coordinates>121.5091370,25.0313230,0</coordinates></Point></Placemark>
<Placemark><name>原-33 蘭嶼小鞘蕊花</name><Point><coordinates>121.5089550,25.0313090,0</coordinates></Point></Placemark>
<Placemark><name>茜-28 海檬果</name><Point><coordinates>121.5094901,25.0317511,0</coordinates></Point></Placemark>
<Placemark><name>竹-34 星宿菜</name><Point><coordinates>121.5082257,25.0314857,0</coordinates></Point></Placemark>
<Placemark><name>茜-20 假橡膠木</name><Point><coordinates>121.5094672,25.0320376,0</coordinates></Point></Placemark>
<Placemark><name>原-28 排香草</name><Point><coordinates>121.5089200,25.0313970,0</coordinates></Point></Placemark>
<Placemark><name>薑-57 白薑黃</name><Point><coordinates>121.5092467,25.0313298,0</coordinates></Point></Placemark>
<Placemark><name>原-31 田代氏黃芩</name><Point><coordinates>121.5089470,25.0312940,0</coordinates></Point></Placemark>
<Placemark><name>原-32 紅頭耳鉤草</name><Point><coordinates>121.5088110,25.0313000,0</coordinates></Point></Placemark>
<Placemark><name>竹-44 密毛爵床</name><Point><coordinates>121.5104597,25.0321984,0</coordinates></Point></Placemark>
<Placemark><name>茜-27 檄樹</name><Point><coordinates>121.5095404,25.0318272,0</coordinates></Point></Placemark>
<Placemark><name>薑-56 狹葉薑</name><Point><coordinates>121.5091130,25.0314060,0</coordinates></Point></Placemark>
<Placemark><name>薑-65 黃蔥蘭</name><Point><coordinates>121.5090993,25.0312722,0</coordinates></Point></Placemark>
<Placemark><name>薑-07 台灣月桃</name><Point><coordinates>121.5090740,25.0314360,0</coordinates></Point></Placemark>
<Placemark><name>竹-48 鐵掃帚</name><Point><coordinates>121.5081050,25.0315065,0</coordinates></Point></Placemark>
<Placemark><name>民-24 苧麻</name><Point><coordinates>121.5083790,25.0315270,0</coordinates></Point></Placemark>
<Placemark><name>肉-05 垂果瓜</name><Point><coordinates>121.5086699,25.0313859,0</coordinates></Point></Placemark>
<Placemark><name>薑-45 塔蓬貝克閉鞘薑</name><Point><coordinates>121.5090450,25.0314180,0</coordinates></Point></Placemark>
<Placemark><name>竹-37 狹葉艾納香</name><Point><coordinates>121.5097940,25.0327440,0</coordinates></Point></Placemark>
<Placemark><name>民-29 魚針草</name><Point><coordinates>121.5086101,25.0314139,0</coordinates></Point></Placemark>
<Placemark><name>竹-47 鋸葉香茶菜</name><Point><coordinates>121.5082673,25.0314607,0</coordinates></Point></Placemark>
<Placemark><name>民-28 葶花水竹葉</name><Point><coordinates>121.5085871,25.0314314,0</coordinates></Point></Placemark>
<Placemark><name>茜-30 茜木</name><Point><coordinates>121.5092590,25.0316495,0</coordinates></Point></Placemark>
<Placemark><name>原-26 卵葉水丁香</name><Point><coordinates>121.5088990,25.0314050,0</coordinates></Point></Placemark>
<Placemark><name>竹-43 台灣破傘菊</name><Point><coordinates>121.5082074,25.0314959,0</coordinates></Point></Placemark>
<Placemark><name>薑-61 臘薑</name><Point><coordinates>121.5091990,25.0313600,0</coordinates></Point></Placemark>
<Placemark><name>薑-55 暹羅月桃</name><Point><coordinates>121.5093200,25.0314130,0</coordinates></Point></Placemark>
<Placemark><name>薑-46 大葉孔雀薑</name><Point><coordinates>121.5090660,25.0314540,0</coordinates></Point></Placemark>
<Placemark><name>薑-48 富紅赫蕉</name><Point><coordinates>121.5091650,25.0313610,0</coordinates></Point></Placemark>
<Placemark><name>水-18 長苞香蒲</name><Point><coordinates>121.5083377,25.0317866,0</coordinates></Point></Placemark>
<Placemark><name>茜-29 紅玉葉金花</name><Point><coordinates>121.5095187,25.0316675,0</coordinates></Point></Placemark>
<Placemark><name>薑-54 早花百子蓮</name><Point><coordinates>121.5094480,25.0314000,0</coordinates></Point></Placemark>
<Placemark><name>薑-53 恆春月桃</name><Point><coordinates>121.5090760,25.0313330,0</coordinates></Point></Placemark>
<Placemark><name>民-27 白花野牡丹</name><Point><coordinates>121.5086626,25.0313497,0</coordinates></Point></Placemark>
<Placemark><name>薑-47 孔雀薑</name><Point><coordinates>121.5090590,25.0314450,0</coordinates></Point></Placemark>
<Placemark><name>民-15 印度鞭藤</name><Point><coordinates>121.5083950,25.0313640,0</coordinates></Point></Placemark>
<Placemark><name>竹-31 大丁黃</name><Point><coordinates>121.5082526,25.0316271,0</coordinates></Point></Placemark>
<Placemark><name>竹-27 馬纓丹</name><Point><coordinates>121.5110350,25.0324380,0</coordinates></Point></Placemark>
<Placemark><name>原-29 新竹腹水草</name><Point><coordinates>121.5088710,25.0314100,0</coordinates></Point></Placemark>
<Placemark><name>薑-64 長尾鸚鵡赫蕉</name><Point><coordinates>121.5090320,25.0313620,0</coordinates></Point></Placemark>
<Placemark><name>雙-44 孔雀豆</name><Point><coordinates>121.5095964,25.0315550,0</coordinates></Point></Placemark>
<Placemark><name>棕-14 印度紫檀</name><Point><coordinates>121.5089459,25.0309665,0</coordinates></Point></Placemark>
<Placemark><name>薑-63 銀紋薑</name><Point><coordinates>121.5092340,25.0314065,0</coordinates></Point></Placemark>
<Placemark><name>蕨-15 山菜豆</name><Point><coordinates>121.5094782,25.0320023,0</coordinates></Point></Placemark>
<Placemark><name>薑-80 阿娜赫蕉</name><Point><coordinates>121.5091700,25.0315650,0</coordinates></Point></Placemark>
<Placemark><name>薑-84 龍鱗櫚</name><Point><coordinates>121.5090170,25.0314720,0</coordinates></Point></Placemark>
<Placemark><name>茜-36 白鶴蘭</name><Point><coordinates>121.5094396,25.0318240,0</coordinates></Point></Placemark>
<Placemark><name>茜-36 #2 白鶴蘭</name><Point><coordinates>121.5096620,25.0327460,0</coordinates></Point></Placemark>
<Placemark><name>茜-31 薄葉玉心花</name><Point><coordinates>121.5096248,25.0321487,0</coordinates></Point></Placemark>
<Placemark><name>地-36 白玉蘭</name><Point><coordinates>121.5089470,25.0319660,0</coordinates></Point></Placemark>
<Placemark><name>雙-40 麵包樹</name><Point><coordinates>121.5090049,25.0316558,0</coordinates></Point></Placemark>
<Placemark><name>薑-66 黑孔雀薑</name><Point><coordinates>121.5092700,25.0314470,0</coordinates></Point></Placemark>
<Placemark><name>薑-68 沙薑</name><Point><coordinates>121.5092680,25.0314250,0</coordinates></Point></Placemark>
<Placemark><name>天-11 #2 阿勃勒</name><Point><coordinates>121.5096520,25.0322940,0</coordinates></Point></Placemark>
<Placemark><name>薑-26 擬顎唇蘭花蕉</name><Point><coordinates>121.5092610,25.0315030,0</coordinates></Point></Placemark>
<Placemark><name>舟右-54 #2 降真香</name><Point><coordinates>121.5084290,25.0314280,0</coordinates></Point></Placemark>
<Placemark><name>棕-19 黃椰子</name><Point><coordinates>121.5093816,25.0313038,0</coordinates></Point></Placemark>
<Placemark><name>肖-09 龍吐珠</name><Point><coordinates>121.5080930,25.0318950,0</coordinates></Point></Placemark>
<Placemark><name>薑-74 絹毛鳶尾</name><Point><coordinates>121.5092100,25.0313790,0</coordinates></Point></Placemark>
<Placemark><name>薑-81 雙翅舞花薑</name><Point><coordinates>121.5092310,25.0314790,0</coordinates></Point></Placemark>
<Placemark><name>棕-12 棕竹</name><Point><coordinates>121.5092051,25.0312108,0</coordinates></Point></Placemark>
<Placemark><name>薑-70 白玉竹芋</name><Point><coordinates>121.5091150,25.0313410,0</coordinates></Point></Placemark>
<Placemark><name>薑-73 紫苞舞薑</name><Point><coordinates>121.5092140,25.0314640,0</coordinates></Point></Placemark>
<Placemark><name>棕-13 短莖薩巴爾櫚</name><Point><coordinates>121.5089939,25.0311168,0</coordinates></Point></Placemark>
<Placemark><name>茜-34 大王仙丹</name><Point><coordinates>121.5096177,25.0322088,0</coordinates></Point></Placemark>
<Placemark><name>茜-35 欖仁舅</name><Point><coordinates>121.5095484,25.0319106,0</coordinates></Point></Placemark>
<Placemark><name>茜-32 六月雪</name><Point><coordinates>121.5096460,25.0321978,0</coordinates></Point></Placemark>
<Placemark><name>薑-67 凹唇薑</name><Point><coordinates>121.5092290,25.0314290,0</coordinates></Point></Placemark>
<Placemark><name>薑-78 蜂巢薑</name><Point><coordinates>121.5093886,25.0314140,0</coordinates></Point></Placemark>
<Placemark><name>薑-82 馬來良薑</name><Point><coordinates>121.5091150,25.0313230,0</coordinates></Point></Placemark>
<Placemark><name>民-01 假酸漿</name><Point><coordinates>121.5086588,25.0313066,0</coordinates></Point></Placemark>
<Placemark><name>茜-37 粉葉金花</name><Point><coordinates>121.5095318,25.0316081,0</coordinates></Point></Placemark>
<Placemark><name>舟-67 貓爪藤</name><Point><coordinates>121.5095162,25.0315025,0</coordinates></Point></Placemark>
<Placemark><name>棕-05 綠葉朱蕉</name><Point><coordinates>121.5094333,25.0313488,0</coordinates></Point></Placemark>
<Placemark><name>台灣金絲桃</name><Point><coordinates>121.5113181,25.0317369,0</coordinates></Point></Placemark>
</Document></kml>