<?xml version="1.0" encoding="UTF-8"?>
<kml xmlns="http://www.opengis.net/kml/2.2"><Document><name>室內範圍</name><Folder><name>室內範圍</name><Placemark><name>蘭房範圍</name><Polygon><outerBoundaryIs><LinearRing><coordinates>121.509328,25.032945,0
                121.509161,25.032945,0
                121.509161,25.03288,0
                121.509328,25.03288,0
                121.509328,25.032945,0</coordinates></LinearRing></outerBoundaryIs></Polygon></Placemark><Placemark><name>溫室範圍</name><Polygon><outerBoundaryIs><LinearRing><coordinates>121.508273,25.033051,0
                121.508256,25.033189,0
                121.508204,25.033194,0
                121.50819,25.033058,0
                121.508273,25.033051,0</coordinates></LinearRing></outerBoundaryIs></Polygon></Placemark><Placemark><name>溫室範圍</name><Polygon><outerBoundaryIs><LinearRing><coordinates>121.508785,25.031916,0
                121.508801,25.031851,0
                121.508931,25.031877,0
                121.508923,25.03191,0
                121.508916,25.031941,0
                121.508785,25.031916,0</coordinates></LinearRing></outerBoundaryIs></Polygon></Placemark><Placemark><name>溫室區範圍</name><Polygon><outerBoundaryIs><LinearRing><coordinates>121.509621,25.0328714,0
                121.5096266,25.0327106,0
                121.5097436,25.0327132,0
                121.509737,25.0329007,0
                121.5096546,25.0328965,0
                121.509621,25.0328714,0</coordinates></LinearRing></outerBoundaryIs></Polygon></Placemark></Folder></Document></kml>